{
  "type": "FeatureCollection",
  "features": [
    {
      "type": "Feature",
      "properties": {
        "name": "Dholpur District",
        "admin_level": "5",
        "source": "Generated (fallback)"
      },
      "geometry": {
        "type": "Polygon",
        "coordinates": [
          [
            [
              78.3232,
              26.7
            ],
            [
              78.347337,
              26.772042
            ],
            [
              78.295645,
              26.8319
            ],
            [
              78.344443,
              26.934396
            ],
            [
              78.218385,
              26.946167
            ],
            [
              78.19557,
              27.025334
            ],
            [
              78.126485,
              27.065929
            ],
            [
              78.045812,
              27.082443
            ],
            [
              77.978129,
              27.146511
            ],
            [
              77.89,
              27.139821
            ],
            [
              77.803033,
              27.140626
            ],
            [
              77.724688,
              27.105761
            ],
            [
              77.662873,
              27.051448
            ],
            [
              77.629834,
              26.976993
            ],
            [
              77.563874,
              26.944473
            ],
            [
              77.485207,
              26.908788
            ],
            [
              77.410592,
              26.855885
            ],
            [
              77.436009,
              26.771515
            ],
            [
              77.407144,
              26.7
            ],
            [
              77.377842,
              26.619322
            ],
            [
              77.438407,
              26.55316
            ],
            [
              77.5257,
              26.512098
            ],
            [
              77.547372,
              26.443157
            ],
            [
              77.567671,
              26.356824
            ],
            [
              77.63759,
              26.309429
            ],
            [
              77.742553,
              26.338088
            ],
            [
              77.804133,
              26.264951
            ],
            [
              77.89,
              26.308581
            ],
            [
              77.960556,
              26.342522
            ],
            [
              78.055658,
              26.293389
            ],
            [
              78.096446,
              26.380553
            ],
            [
              78.216538,
              26.352342
            ],
            [
              78.241209,
              26.436724
            ],
            [
              78.246132,
              26.516311
            ],
            [
              78.26322,
              26.578644
            ],
            [
              78.33724,
              26.629548
            ],
            [
              78.3232,
              26.7
            ]
          ]
        ]
      }
    }
  ]
}