{
  "type": "FeatureCollection",
  "features": [
    {
      "type": "Feature",
      "properties": {
        "name": "Sirohi District",
        "admin_level": "5",
        "source": "OpenStreetMap/Nominatim"
      },
      "bbox": [
        72.246437,
        24.3373607,
        73.1725072,
        25.2853733
      ],
      "geometry": {
        "type": "Polygon",
        "coordinates": [
          [
            [
              72.246437,
              24.5863099
            ],
            [
              72.2477245,
              24.5836172
            ],
            [
              72.2498703,
              24.5811586
            ],
            [
              72.2509431,
              24.5791292
            ],
            [
              72.2521019,
              24.5762022
            ],
            [
              72.2614574,
              24.5667961
            ],
            [
              72.2628736,
              24.5648836
            ],
            [
              72.2633457,
              24.5634004
            ],
            [
              72.2639894,
              24.5608634
            ],
            [
              72.2656631,
              24.5601998
            ],
            [
              72.2680664,
              24.5610195
            ],
            [
              72.2693538,
              24.5618392
            ],
            [
              72.2710275,
              24.5631272
            ],
            [
              72.2733879,
              24.5644153
            ],
            [
              72.2762203,
              24.5655081
            ],
            [
              72.2792244,
              24.5651959
            ],
            [
              72.28549,
              24.5657423
            ],
            [
              72.2866058,
              24.5620734
            ],
            [
              72.2878503,
              24.5581311
            ],
            [
              72.2884082,
              24.5547742
            ],
            [
              72.2898244,
              24.551222
            ],
            [
              72.289524,
              24.5480601
            ],
            [
              72.291584,
              24.5470451
            ],
            [
              72.2947597,
              24.546889
            ],
            [
              72.2973346,
              24.546928
            ],
            [
              72.2993087,
              24.5473184
            ],
            [
              72.3020553,
              24.5486066
            ],
            [
              72.3043298,
              24.5498167
            ],
            [
              72.3122263,
              24.551222
            ],
            [
              72.3185348,
              24.5510268
            ],
            [
              72.3221397,
              24.551183
            ],
            [
              72.3233842,
              24.5515343
            ],
            [
              72.3242855,
              24.5528224
            ],
            [
              72.326045,
              24.553486
            ],
            [
              72.3278904,
              24.5527444
            ],
            [
              72.3291349,
              24.5529786
            ],
            [
              72.329607,
              24.5541887
            ],
            [
              72.329092,
              24.5557891
            ],
            [
              72.3277616,
              24.5567259
            ],
            [
              72.3272037,
              24.5579749
            ],
            [
              72.3269891,
              24.5594192
            ],
            [
              72.3272037,
              24.561644
            ],
            [
              72.3278474,
              24.5644153
            ],
            [
              72.3292207,
              24.5660155
            ],
            [
              72.3298645,
              24.5673816
            ],
            [
              72.3307657,
              24.5694892
            ],
            [
              72.3360443,
              24.565352
            ],
            [
              72.3385334,
              24.5640249
            ],
            [
              72.3429107,
              24.5632834
            ],
            [
              72.3461294,
              24.5631272
            ],
            [
              72.3493051,
              24.5631272
            ],
            [
              72.3530817,
              24.5642591
            ],
            [
              72.3532962,
              24.5607072
            ],
            [
              72.35394,
              24.5563746
            ],
            [
              72.3581457,
              24.5552035
            ],
            [
              72.3591327,
              24.5520808
            ],
            [
              72.359476,
              24.551183
            ],
            [
              72.361021,
              24.5488799
            ],
            [
              72.3619651,
              24.5479039
            ],
            [
              72.3636388,
              24.5475917
            ],
            [
              72.3654413,
              24.5475917
            ],
            [
              72.3679733,
              24.5473574
            ],
            [
              72.3687028,
              24.5462644
            ],
            [
              72.369132,
              24.5443516
            ],
            [
              72.369132,
              24.542712
            ],
            [
              72.3687028,
              24.5414628
            ],
            [
              72.3678875,
              24.5402916
            ],
            [
              72.36763,
              24.5380273
            ],
            [
              72.3681879,
              24.5370904
            ],
            [
              72.3690033,
              24.5356069
            ],
            [
              72.3707199,
              24.5313905
            ],
            [
              72.3720932,
              24.5294384
            ],
            [
              72.3735523,
              24.5279548
            ],
            [
              72.3746681,
              24.5262759
            ],
            [
              72.3762989,
              24.5239723
            ],
            [
              72.3778867,
              24.521044
            ],
            [
              72.3785734,
              24.518467
            ],
            [
              72.3788738,
              24.5156948
            ],
            [
              72.3791313,
              24.5133129
            ],
            [
              72.3805475,
              24.5112825
            ],
            [
              72.3841524,
              24.5108529
            ],
            [
              72.385354,
              24.5109701
            ],
            [
              72.3866844,
              24.5106577
            ],
            [
              72.3875856,
              24.5075729
            ],
            [
              72.3906755,
              24.5099939
            ],
            [
              72.391963,
              24.5110091
            ],
            [
              72.3940229,
              24.5119072
            ],
            [
              72.3977565,
              24.5133129
            ],
            [
              72.4006748,
              24.514172
            ],
            [
              72.4032926,
              24.5152262
            ],
            [
              72.4087429,
              24.5168271
            ],
            [
              72.4129486,
              24.5177252
            ],
            [
              72.416296,
              24.5206926
            ],
            [
              72.4194717,
              24.5188575
            ],
            [
              72.4219608,
              24.5178814
            ],
            [
              72.4237203,
              24.5171004
            ],
            [
              72.4246645,
              24.517569
            ],
            [
              72.4275827,
              24.5169833
            ],
            [
              72.428441,
              24.516749
            ],
            [
              72.429986,
              24.5163976
            ],
            [
              72.4330329,
              24.5162414
            ],
            [
              72.4348354,
              24.5168662
            ],
            [
              72.4373245,
              24.5172176
            ],
            [
              72.4385261,
              24.5162414
            ],
            [
              72.4394273,
              24.5156167
            ],
            [
              72.4407577,
              24.5147577
            ],
            [
              72.4411439,
              24.5130786
            ],
            [
              72.4414444,
              24.5106186
            ],
            [
              72.4429035,
              24.5081195
            ],
            [
              72.4430751,
              24.5066748
            ],
            [
              72.4418735,
              24.5027698
            ],
            [
              72.4374103,
              24.4932411
            ],
            [
              72.4301147,
              24.4799623
            ],
            [
              72.4321747,
              24.4693772
            ],
            [
              72.4328828,
              24.4655882
            ],
            [
              72.4340629,
              24.4597678
            ],
            [
              72.4358225,
              24.4581076
            ],
            [
              72.4384832,
              24.455295
            ],
            [
              72.4426245,
              24.4514274
            ],
            [
              72.4447274,
              24.4493178
            ],
            [
              72.4455428,
              24.4487514
            ],
            [
              72.4484825,
              24.4462901
            ],
            [
              72.4504137,
              24.4440046
            ],
            [
              72.4519157,
              24.4414456
            ],
            [
              72.4520445,
              24.4393163
            ],
            [
              72.4519157,
              24.4373628
            ],
            [
              72.4518728,
              24.4357413
            ],
            [
              72.4524736,
              24.4338073
            ],
            [
              72.4536967,
              24.432049
            ],
            [
              72.4560571,
              24.4289427
            ],
            [
              72.4577951,
              24.4263443
            ],
            [
              72.4583745,
              24.4241757
            ],
            [
              72.4578829,
              24.4206815
            ],
            [
              72.4577522,
              24.4144066
            ],
            [
              72.4600267,
              24.4141331
            ],
            [
              72.4690818,
              24.4141722
            ],
            [
              72.4788236,
              24.4144066
            ],
            [
              72.50041,
              24.417103
            ],
            [
              72.498908,
              24.4230035
            ],
            [
              72.4961185,
              24.4389842
            ],
            [
              72.4938869,
              24.451447
            ],
            [
              72.492342,
              24.4591819
            ],
            [
              72.497406,
              24.458635
            ],
            [
              72.5045728,
              24.4580881
            ],
            [
              72.5047445,
              24.4663304
            ],
            [
              72.5046157,
              24.4694163
            ],
            [
              72.5048732,
              24.4717599
            ],
            [
              72.5106668,
              24.4785952
            ],
            [
              72.5143146,
              24.4842585
            ],
            [
              72.5185632,
              24.4962091
            ],
            [
              72.5198936,
              24.5007001
            ],
            [
              72.5225114,
              24.5019106
            ],
            [
              72.5265026,
              24.5032774
            ],
            [
              72.5334978,
              24.5038632
            ],
            [
              72.5340986,
              24.5047223
            ],
            [
              72.5348281,
              24.5069871
            ],
            [
              72.5356865,
              24.5103063
            ],
            [
              72.5371027,
              24.5169442
            ],
            [
              72.5374675,
              24.518057
            ],
            [
              72.5379824,
              24.518877
            ],
            [
              72.5401497,
              24.5193455
            ],
            [
              72.5426387,
              24.5176081
            ],
            [
              72.544527,
              24.5149529
            ],
            [
              72.5495051,
              24.5079243
            ],
            [
              72.5578902,
              24.4978749
            ],
            [
              72.5690056,
              24.4863139
            ],
            [
              72.5764131,
              24.4784585
            ],
            [
              72.5991475,
              24.4744648
            ],
            [
              72.6098441,
              24.473088
            ],
            [
              72.6413226,
              24.4656077
            ],
            [
              72.6474595,
              24.4639671
            ],
            [
              72.654283,
              24.4624632
            ],
            [
              72.6565361,
              24.4622093
            ],
            [
              72.6587891,
              24.4623265
            ],
            [
              72.6643038,
              24.4633421
            ],
            [
              72.6694321,
              24.4647288
            ],
            [
              72.6717925,
              24.4650023
            ],
            [
              72.6738524,
              24.4648851
            ],
            [
              72.6783156,
              24.464846
            ],
            [
              72.6812768,
              24.4648656
            ],
            [
              72.6837659,
              24.4637523
            ],
            [
              72.6880789,
              24.4579709
            ],
            [
              72.6879287,
              24.4559591
            ],
            [
              72.6873171,
              24.4518474
            ],
            [
              72.6797962,
              24.4428521
            ],
            [
              72.6820707,
              24.4332798
            ],
            [
              72.6874388,
              24.4164293
            ],
            [
              72.6920271,
              24.4057897
            ],
            [
              72.6970696,
              24.4012562
            ],
            [
              72.7008676,
              24.3948857
            ],
            [
              72.7055015,
              24.389913
            ],
            [
              72.71945,
              24.3748537
            ],
            [
              72.7240419,
              24.3675436
            ],
            [
              72.7321623,
              24.363324
            ],
            [
              72.7351999,
              24.3633998
            ],
            [
              72.746315,
              24.3645726
            ],
            [
              72.7567863,
              24.3661363
            ],
            [
              72.7695322,
              24.3682864
            ],
            [
              72.7779865,
              24.3678564
            ],
            [
              72.7895736,
              24.3655499
            ],
            [
              72.7984142,
              24.363908
            ],
            [
              72.8014183,
              24.3638689
            ],
            [
              72.8052806,
              24.3634389
            ],
            [
              72.8066968,
              24.363908
            ],
            [
              72.8070831,
              24.3646898
            ],
            [
              72.8088426,
              24.3670354
            ],
            [
              72.8127908,
              24.3694591
            ],
            [
              72.8154087,
              24.3705537
            ],
            [
              72.8176403,
              24.3706319
            ],
            [
              72.8206014,
              24.3703973
            ],
            [
              72.823863,
              24.3700064
            ],
            [
              72.8270816,
              24.3695764
            ],
            [
              72.8301286,
              24.3695764
            ],
            [
              72.8360509,
              24.3697719
            ],
            [
              72.8420162,
              24.3707491
            ],
            [
              72.8469514,
              24.3717655
            ],
            [
              72.848711,
              24.3720782
            ],
            [
              72.85223,
              24.3717264
            ],
            [
              72.8545045,
              24.3704364
            ],
            [
              72.8555774,
              24.3685991
            ],
            [
              72.8576374,
              24.3684818
            ],
            [
              72.858324,
              24.369811
            ],
            [
              72.8597831,
              24.3690291
            ],
            [
              72.8631305,
              24.3674654
            ],
            [
              72.8695678,
              24.3637125
            ],
            [
              72.8701257,
              24.3659408
            ],
            [
              72.8764343,
              24.3634389
            ],
            [
              72.8884077,
              24.3580829
            ],
            [
              72.8917121,
              24.3566364
            ],
            [
              72.8936433,
              24.3546425
            ],
            [
              72.8956604,
              24.3522967
            ],
            [
              72.9008531,
              24.3479959
            ],
            [
              72.9047155,
              24.3420919
            ],
            [
              72.9066467,
              24.3395113
            ],
            [
              72.9084491,
              24.3379864
            ],
            [
              72.9102087,
              24.3373607
            ],
            [
              72.9126977,
              24.337478
            ],
            [
              72.9139423,
              24.3380646
            ],
            [
              72.916131,
              24.3404497
            ],
            [
              72.9198217,
              24.3445552
            ],
            [
              72.9253578,
              24.3448289
            ],
            [
              72.9317522,
              24.346432
            ],
            [
              72.9366445,
              24.3476832
            ],
            [
              72.9447555,
              24.3522185
            ],
            [
              72.9496049,
              24.3562454
            ],
            [
              72.9537677,
              24.3567928
            ],
            [
              72.9594698,
              24.3609593
            ],
            [
              72.9624367,
              24.3632825
            ],
            [
              72.9671788,
              24.3664881
            ],
            [
              72.967608,
              24.36727
            ],
            [
              72.9683161,
              24.3677586
            ],
            [
              72.9702687,
              24.3679736
            ],
            [
              72.9725432,
              24.3680323
            ],
            [
              72.9745602,
              24.36899
            ],
            [
              72.9757619,
              24.3706514
            ],
            [
              72.9770708,
              24.3728991
            ],
            [
              72.9775643,
              24.3753423
            ],
            [
              72.9773068,
              24.3777072
            ],
            [
              72.9761266,
              24.3805216
            ],
            [
              72.974453,
              24.3830428
            ],
            [
              72.9679513,
              24.3865215
            ],
            [
              72.9617929,
              24.3901565
            ],
            [
              72.9606557,
              24.3907232
            ],
            [
              72.9591107,
              24.3912118
            ],
            [
              72.9571366,
              24.3913095
            ],
            [
              72.9553556,
              24.3912509
            ],
            [
              72.9540252,
              24.3912509
            ],
            [
              72.9533386,
              24.3917981
            ],
            [
              72.9520511,
              24.3939086
            ],
            [
              72.9513645,
              24.3947294
            ],
            [
              72.9502702,
              24.3955306
            ],
            [
              72.9493046,
              24.3964686
            ],
            [
              72.9489827,
              24.3978365
            ],
            [
              72.9497981,
              24.3997516
            ],
            [
              72.9506349,
              24.4007286
            ],
            [
              72.9516434,
              24.401862
            ],
            [
              72.9525661,
              24.4026241
            ],
            [
              72.9547119,
              24.4029368
            ],
            [
              72.9571366,
              24.4036598
            ],
            [
              72.9593897,
              24.4045586
            ],
            [
              72.9621362,
              24.4057897
            ],
            [
              72.9655695,
              24.4093459
            ],
            [
              72.9672432,
              24.4109677
            ],
            [
              72.9681229,
              24.4139572
            ],
            [
              72.9686594,
              24.4146802
            ],
            [
              72.9699254,
              24.4149342
            ],
            [
              72.970376,
              24.4156571
            ],
            [
              72.9714274,
              24.4181971
            ],
            [
              72.9725647,
              24.4226909
            ],
            [
              72.973423,
              24.4265983
            ],
            [
              72.97544,
              24.4271258
            ],
            [
              72.9767489,
              24.4278292
            ],
            [
              72.9784655,
              24.4310918
            ],
            [
              72.9798388,
              24.4323225
            ],
            [
              72.9804182,
              24.4329672
            ],
            [
              72.9816413,
              24.4351553
            ],
            [
              72.9805469,
              24.437226
            ],
            [
              72.9794097,
              24.4378902
            ],
            [
              72.977972,
              24.4384958
            ],
            [
              72.974453,
              24.4398047
            ],
            [
              72.9732728,
              24.4424419
            ],
            [
              72.9737234,
              24.4444148
            ],
            [
              72.9743027,
              24.4454111
            ],
            [
              72.9747534,
              24.4461534
            ],
            [
              72.9752254,
              24.4472473
            ],
            [
              72.9750109,
              24.4486928
            ],
            [
              72.9744959,
              24.4493569
            ],
            [
              72.9730367,
              24.4495913
            ],
            [
              72.9718137,
              24.4498453
            ],
            [
              72.9692602,
              24.4499625
            ],
            [
              72.9677796,
              24.4501773
            ],
            [
              72.967844,
              24.4512517
            ],
            [
              72.9693889,
              24.4531073
            ],
            [
              72.9730367,
              24.4552364
            ],
            [
              72.9748821,
              24.4567013
            ],
            [
              72.9793668,
              24.4621312
            ],
            [
              72.9811692,
              24.464514
            ],
            [
              72.9839372,
              24.4667601
            ],
            [
              72.9866409,
              24.4699436
            ],
            [
              72.987349,
              24.4730879
            ],
            [
              72.9884219,
              24.4742011
            ],
            [
              72.989645,
              24.4759002
            ],
            [
              72.9916191,
              24.4778921
            ],
            [
              73.0006313,
              24.4837507
            ],
            [
              73.0014038,
              24.4844928
            ],
            [
              73.0019617,
              24.4850787
            ],
            [
              73.0044078,
              24.4863675
            ],
            [
              73.0066824,
              24.487461
            ],
            [
              73.0079913,
              24.4878711
            ],
            [
              73.0096864,
              24.4881054
            ],
            [
              73.011682,
              24.4887303
            ],
            [
              73.0127656,
              24.4898043
            ],
            [
              73.0131519,
              24.4908685
            ],
            [
              73.01386,
              24.4915129
            ],
            [
              73.0148148,
              24.4924502
            ],
            [
              73.0153513,
              24.4933094
            ],
            [
              73.0153298,
              24.4945298
            ],
            [
              73.015008,
              24.4954964
            ],
            [
              73.0140746,
              24.4962774
            ],
            [
              73.0135059,
              24.4979665
            ],
            [
              73.0152225,
              24.5020278
            ],
            [
              73.0162525,
              24.5035117
            ],
            [
              73.0181407,
              24.5060109
            ],
            [
              73.0192565,
              24.50769
            ],
            [
              73.0202865,
              24.5094862
            ],
            [
              73.0212736,
              24.5122196
            ],
            [
              73.0220031,
              24.5164757
            ],
            [
              73.0219173,
              24.5195213
            ],
            [
              73.0252647,
              24.5217468
            ],
            [
              73.0285692,
              24.5235038
            ],
            [
              73.0314016,
              24.5252217
            ],
            [
              73.0344486,
              24.5270958
            ],
            [
              73.0383968,
              24.5302973
            ],
            [
              73.0429029,
              24.5355288
            ],
            [
              73.0492544,
              24.541697
            ],
            [
              73.0487394,
              24.5447029
            ],
            [
              73.0482673,
              24.5469671
            ],
            [
              73.0483102,
              24.5492312
            ],
            [
              73.0484819,
              24.551183
            ],
            [
              73.0493402,
              24.5527444
            ],
            [
              73.0512714,
              24.5540325
            ],
            [
              73.0530309,
              24.5541106
            ],
            [
              73.0557346,
              24.553486
            ],
            [
              73.0595111,
              24.5624247
            ],
            [
              73.0658197,
              24.5736653
            ],
            [
              73.0710125,
              24.5801439
            ],
            [
              73.0703687,
              24.5830318
            ],
            [
              73.0728149,
              24.5899001
            ],
            [
              73.074789,
              24.5904854
            ],
            [
              73.0780935,
              24.5910708
            ],
            [
              73.0856466,
              24.6030893
            ],
            [
              73.0882644,
              24.6060937
            ],
            [
              73.0887794,
              24.6081227
            ],
            [
              73.0882644,
              24.6121024
            ],
            [
              73.0885219,
              24.6150676
            ],
            [
              73.0887365,
              24.6178767
            ],
            [
              73.0891227,
              24.6193982
            ],
            [
              73.0898094,
              24.6225584
            ],
            [
              73.089981,
              24.6250942
            ],
            [
              73.0899381,
              24.6259915
            ],
            [
              73.0892086,
              24.627747
            ],
            [
              73.0883073,
              24.6289563
            ],
            [
              73.0875778,
              24.6298926
            ],
            [
              73.0875778,
              24.6321552
            ],
            [
              73.0908393,
              24.6332085
            ],
            [
              73.0927276,
              24.6338717
            ],
            [
              73.0948305,
              24.6346909
            ],
            [
              73.0965471,
              24.6355881
            ],
            [
              73.0980062,
              24.6373825
            ],
            [
              73.1007099,
              24.639723
            ],
            [
              73.1030273,
              24.6422194
            ],
            [
              73.1048297,
              24.6440527
            ],
            [
              73.106246,
              24.6475243
            ],
            [
              73.1080913,
              24.65357
            ],
            [
              73.1089067,
              24.6570022
            ],
            [
              73.1126833,
              24.6572752
            ],
            [
              73.1146574,
              24.6572752
            ],
            [
              73.1162023,
              24.6586403
            ],
            [
              73.1190776,
              24.6622284
            ],
            [
              73.1238412,
              24.6677274
            ],
            [
              73.1258583,
              24.6685074
            ],
            [
              73.1301498,
              24.6688194
            ],
            [
              73.1341409,
              24.6682344
            ],
            [
              73.136115,
              24.6693654
            ],
            [
              73.1369733,
              24.6726802
            ],
            [
              73.1382179,
              24.675176
            ],
            [
              73.1384754,
              24.6770088
            ],
            [
              73.1389904,
              24.6782957
            ],
            [
              73.1410503,
              24.6788416
            ],
            [
              73.1420803,
              24.6791146
            ],
            [
              73.1422948,
              24.6799335
            ],
            [
              73.1408786,
              24.6809474
            ],
            [
              73.1395912,
              24.6822732
            ],
            [
              73.1385183,
              24.683521
            ],
            [
              73.1423378,
              24.6864455
            ],
            [
              73.1441402,
              24.6878883
            ],
            [
              73.1453418,
              24.689214
            ],
            [
              73.1462431,
              24.6907737
            ],
            [
              73.146801,
              24.693854
            ],
            [
              73.1477451,
              24.6989617
            ],
            [
              73.1492471,
              24.7042642
            ],
            [
              73.148818,
              24.7154531
            ],
            [
              73.1475734,
              24.7206574
            ],
            [
              73.1462001,
              24.7232692
            ],
            [
              73.1464576,
              24.725608
            ],
            [
              73.1475305,
              24.7281028
            ],
            [
              73.1487321,
              24.7312991
            ],
            [
              73.149805,
              24.7346903
            ],
            [
              73.1492471,
              24.7395624
            ],
            [
              73.1462001,
              24.7435575
            ],
            [
              73.1474875,
              24.7487022
            ],
            [
              73.1531095,
              24.7546259
            ],
            [
              73.154397,
              24.7590687
            ],
            [
              73.1552982,
              24.7610951
            ],
            [
              73.158431,
              24.7636281
            ],
            [
              73.1598472,
              24.7653817
            ],
            [
              73.162508,
              24.7669015
            ],
            [
              73.1637954,
              24.7685381
            ],
            [
              73.16504,
              24.7702916
            ],
            [
              73.1664133,
              24.7721231
            ],
            [
              73.1681299,
              24.774539
            ],
            [
              73.1703186,
              24.7771496
            ],
            [
              73.1725072,
              24.7805785
            ],
            [
              73.1714773,
              24.795228
            ],
            [
              73.171134,
              24.8073436
            ],
            [
              73.171091,
              24.8097978
            ],
            [
              73.1683874,
              24.819536
            ],
            [
              73.1674861,
              24.8231974
            ],
            [
              73.1646967,
              24.824327
            ],
            [
              73.1621646,
              24.8260018
            ],
            [
              73.1576585,
              24.8318051
            ],
            [
              73.1496334,
              24.8428658
            ],
            [
              73.1482172,
              24.8460591
            ],
            [
              73.1387329,
              24.8455918
            ],
            [
              73.1357288,
              24.8460202
            ],
            [
              73.1334114,
              24.8459034
            ],
            [
              73.1319952,
              24.844073
            ],
            [
              73.1311369,
              24.8428658
            ],
            [
              73.1294632,
              24.8404512
            ],
            [
              73.1292915,
              24.8399839
            ],
            [
              73.1277036,
              24.8381534
            ],
            [
              73.1264591,
              24.8376082
            ],
            [
              73.1255149,
              24.8378419
            ],
            [
              73.1250429,
              24.8397891
            ],
            [
              73.1243562,
              24.8411133
            ],
            [
              73.1231975,
              24.8423205
            ],
            [
              73.1191206,
              24.8434889
            ],
            [
              73.1174469,
              24.8443067
            ],
            [
              73.1127262,
              24.8453192
            ],
            [
              73.1109237,
              24.8465264
            ],
            [
              73.1096362,
              24.8510827
            ],
            [
              73.1079196,
              24.8580141
            ],
            [
              73.1045722,
              24.8586371
            ],
            [
              73.1008815,
              24.8594938
            ],
            [
              73.0943584,
              24.8598832
            ],
            [
              73.0922984,
              24.8595717
            ],
            [
              73.0857753,
              24.8595717
            ],
            [
              73.0802821,
              24.8605062
            ],
            [
              73.0771922,
              24.8621416
            ],
            [
              73.0704116,
              24.8691503
            ],
            [
              73.0618285,
              24.8810641
            ],
            [
              73.0545329,
              24.8873709
            ],
            [
              73.0492114,
              24.8876823
            ],
            [
              73.0438899,
              24.8866702
            ],
            [
              73.0386542,
              24.8878381
            ],
            [
              73.0119609,
              24.9100261
            ],
            [
              73.0036353,
              24.9137627
            ],
            [
              72.9918766,
              24.9222084
            ],
            [
              72.9943227,
              24.9288244
            ],
            [
              72.9955673,
              24.934156
            ],
            [
              72.9973697,
              24.9367633
            ],
            [
              72.998228,
              24.9384366
            ],
            [
              72.9977989,
              24.9401099
            ],
            [
              72.9973268,
              24.9413551
            ],
            [
              72.9959964,
              24.9445459
            ],
            [
              72.9943656,
              24.9487872
            ],
            [
              72.995181,
              24.9533397
            ],
            [
              72.9953956,
              24.9572306
            ],
            [
              72.996726,
              24.9610824
            ],
            [
              72.9984426,
              24.9630277
            ],
            [
              73.0009746,
              24.9644284
            ],
            [
              73.0046653,
              24.9651676
            ],
            [
              73.0071115,
              24.9650898
            ],
            [
              73.0094289,
              24.9648563
            ],
            [
              73.0117464,
              24.9667238
            ],
            [
              73.0155658,
              24.9685523
            ],
            [
              73.0184841,
              24.9678131
            ],
            [
              73.0223035,
              24.9667238
            ],
            [
              73.0269813,
              24.9660624
            ],
            [
              73.0305004,
              24.9685134
            ],
            [
              73.0369806,
              24.9711589
            ],
            [
              73.0390405,
              24.9729873
            ],
            [
              73.0395984,
              24.9813901
            ],
            [
              73.0417013,
              24.9866804
            ],
            [
              73.045392,
              24.9943821
            ],
            [
              73.049941,
              24.9999053
            ],
            [
              73.0524301,
              25.0044948
            ],
            [
              73.0534601,
              25.0079951
            ],
            [
              73.0542326,
              25.0090841
            ],
            [
              73.0627298,
              25.0146454
            ],
            [
              73.0658626,
              25.0161621
            ],
            [
              73.0674505,
              25.0170955
            ],
            [
              73.0696821,
              25.0199732
            ],
            [
              73.0726003,
              25.0227343
            ],
            [
              73.076291,
              25.0254175
            ],
            [
              73.0821704,
              25.0281784
            ],
            [
              73.0881786,
              25.0300838
            ],
            [
              73.0958175,
              25.0337778
            ],
            [
              73.104701,
              25.0368107
            ],
            [
              73.1082201,
              25.0388326
            ],
            [
              73.111267,
              25.0415543
            ],
            [
              73.1138849,
              25.047814
            ],
            [
              73.1160736,
              25.0510798
            ],
            [
              73.1205797,
              25.0552009
            ],
            [
              73.125472,
              25.0613433
            ],
            [
              73.1274461,
              25.0636369
            ],
            [
              73.1298065,
              25.0667857
            ],
            [
              73.1307077,
              25.0707507
            ],
            [
              73.1312227,
              25.0762315
            ],
            [
              73.131926,
              25.0907309
            ],
            [
              73.1357067,
              25.0974136
            ],
            [
              73.1358361,
              25.0983856
            ],
            [
              73.1336903,
              25.0998818
            ],
            [
              73.1323814,
              25.1008923
            ],
            [
              73.1303859,
              25.1026605
            ],
            [
              73.1287122,
              25.1058471
            ],
            [
              73.1268668,
              25.1085868
            ],
            [
              73.1256437,
              25.1104909
            ],
            [
              73.1244206,
              25.1120647
            ],
            [
              73.1233048,
              25.1130751
            ],
            [
              73.1220603,
              25.1142991
            ],
            [
              73.1212663,
              25.1144934
            ],
            [
              73.1202364,
              25.1134636
            ],
            [
              73.1199574,
              25.1122396
            ],
            [
              73.1200433,
              25.1106658
            ],
            [
              73.1208372,
              25.1093251
            ],
            [
              73.1189704,
              25.1082759
            ],
            [
              73.1165027,
              25.1074404
            ],
            [
              73.1150007,
              25.1077513
            ],
            [
              73.1137561,
              25.1083342
            ],
            [
              73.1124258,
              25.1091503
            ],
            [
              73.1102371,
              25.1101995
            ],
            [
              73.1074047,
              25.1119093
            ],
            [
              73.1059026,
              25.1134248
            ],
            [
              73.1055164,
              25.1156009
            ],
            [
              73.1043577,
              25.1179712
            ],
            [
              73.1037998,
              25.1203803
            ],
            [
              73.1024265,
              25.1206911
            ],
            [
              73.0989503,
              25.1204969
            ],
            [
              73.0955171,
              25.1231391
            ],
            [
              73.0927705,
              25.1259366
            ],
            [
              73.0893373,
              25.1302882
            ],
            [
              73.0857753,
              25.1336296
            ],
            [
              73.0818271,
              25.1346786
            ],
            [
              73.0777502,
              25.1379809
            ],
            [
              73.0721712,
              25.1455177
            ],
            [
              73.065648,
              25.149791
            ],
            [
              73.0608415,
              25.1524325
            ],
            [
              73.0547046,
              25.1591139
            ],
            [
              73.0426025,
              25.1624933
            ],
            [
              73.042345,
              25.1589585
            ],
            [
              73.0402851,
              25.1520052
            ],
            [
              73.038268,
              25.1451293
            ],
            [
              73.0377531,
              25.1426818
            ],
            [
              73.0393409,
              25.1401566
            ],
            [
              73.0411005,
              25.1368154
            ],
            [
              73.0436325,
              25.132736
            ],
            [
              73.0447053,
              25.1256646
            ],
            [
              73.0446624,
              25.1183597
            ],
            [
              73.0482244,
              25.1052642
            ],
            [
              73.0445766,
              25.1035155
            ],
            [
              73.0380535,
              25.1017278
            ],
            [
              73.0336761,
              25.0980359
            ],
            [
              73.0305433,
              25.0955874
            ],
            [
              73.027153,
              25.093139
            ],
            [
              73.0247926,
              25.0903795
            ],
            [
              73.0219602,
              25.0889415
            ],
            [
              73.0205869,
              25.0913123
            ],
            [
              73.0193853,
              25.0934499
            ],
            [
              73.017497,
              25.0947324
            ],
            [
              73.0131197,
              25.0952765
            ],
            [
              73.0065107,
              25.0970643
            ],
            [
              73.0032491,
              25.0982302
            ],
            [
              73.0003738,
              25.0999013
            ],
            [
              72.9968547,
              25.1036709
            ],
            [
              72.9958248,
              25.1081399
            ],
            [
              72.9943227,
              25.1202637
            ],
            [
              72.9944086,
              25.1290838
            ],
            [
              72.9959535,
              25.1322697
            ],
            [
              72.9958248,
              25.1339404
            ],
            [
              72.9956102,
              25.1351059
            ],
            [
              72.9962968,
              25.1368931
            ],
            [
              72.9969406,
              25.1387579
            ],
            [
              72.9970693,
              25.1411278
            ],
            [
              72.9950094,
              25.1415163
            ],
            [
              72.9959106,
              25.1440026
            ],
            [
              72.9962539,
              25.1456343
            ],
            [
              72.9956102,
              25.1468774
            ],
            [
              72.993164,
              25.1477321
            ],
            [
              72.9900312,
              25.1485867
            ],
            [
              72.9863834,
              25.1486644
            ],
            [
              72.9849243,
              25.1482759
            ],
            [
              72.9848814,
              25.1464889
            ],
            [
              72.9846668,
              25.1451293
            ],
            [
              72.9811477,
              25.14443
            ],
            [
              72.9805898,
              25.1433811
            ],
            [
              72.9808902,
              25.141089
            ],
            [
              72.9820489,
              25.1393018
            ],
            [
              72.9816627,
              25.1382529
            ],
            [
              72.9797315,
              25.1389133
            ],
            [
              72.9776716,
              25.137437
            ],
            [
              72.9752254,
              25.1379421
            ],
            [
              72.9713201,
              25.1419436
            ],
            [
              72.9672861,
              25.1417494
            ],
            [
              72.9634237,
              25.1417882
            ],
            [
              72.9603338,
              25.1418271
            ],
            [
              72.9564714,
              25.1416328
            ],
            [
              72.9502916,
              25.1420602
            ],
            [
              72.950592,
              25.1488586
            ],
            [
              72.9501628,
              25.1568998
            ],
            [
              72.9476308,
              25.162571
            ],
            [
              72.9461717,
              25.1645519
            ],
            [
              72.9456567,
              25.1668436
            ],
            [
              72.9460001,
              25.1703393
            ],
            [
              72.9479312,
              25.171388
            ],
            [
              72.9482317,
              25.1724367
            ],
            [
              72.9476308,
              25.1757768
            ],
            [
              72.9477596,
              25.1772915
            ],
            [
              72.9475021,
              25.1786509
            ],
            [
              72.9460001,
              25.1807481
            ],
            [
              72.9439401,
              25.183622
            ],
            [
              72.9427385,
              25.1858745
            ],
            [
              72.9469871,
              25.1862628
            ],
            [
              72.9476308,
              25.1854473
            ],
            [
              72.9485321,
              25.1835443
            ],
            [
              72.9499054,
              25.1812141
            ],
            [
              72.9577159,
              25.1819132
            ],
            [
              72.957673,
              25.1833501
            ],
            [
              72.9572868,
              25.1848647
            ],
            [
              72.9564285,
              25.1866512
            ],
            [
              72.9555273,
              25.1887094
            ],
            [
              72.9549264,
              25.1899521
            ],
            [
              72.9594326,
              25.1939131
            ],
            [
              72.9630804,
              25.1938743
            ],
            [
              72.9688739,
              25.193719
            ],
            [
              72.9735088,
              25.194418
            ],
            [
              72.9717493,
              25.2019901
            ],
            [
              72.9724359,
              25.205213
            ],
            [
              72.9744959,
              25.2119303
            ],
            [
              72.9746675,
              25.2152305
            ],
            [
              72.974925,
              25.2183754
            ],
            [
              72.9750109,
              25.2200643
            ],
            [
              72.9735517,
              25.2203361
            ],
            [
              72.9734444,
              25.2213067
            ],
            [
              72.9732942,
              25.2221996
            ],
            [
              72.9731011,
              25.223209
            ],
            [
              72.9728436,
              25.2241214
            ],
            [
              72.9712987,
              25.2246067
            ],
            [
              72.9682731,
              25.2252084
            ],
            [
              72.9670715,
              25.2253831
            ],
            [
              72.9667067,
              25.2245096
            ],
            [
              72.9662776,
              25.2234031
            ],
            [
              72.9641747,
              25.2221996
            ],
            [
              72.961514,
              25.2200255
            ],
            [
              72.9600119,
              25.2191325
            ],
            [
              72.9582953,
              25.217696
            ],
            [
              72.9570722,
              25.21657
            ],
            [
              72.9557419,
              25.215677
            ],
            [
              72.9537892,
              25.2155994
            ],
            [
              72.9534888,
              25.2162206
            ],
            [
              72.9517293,
              25.2166671
            ],
            [
              72.9496264,
              25.2173077
            ],
            [
              72.9473734,
              25.2176571
            ],
            [
              72.9463005,
              25.2182201
            ],
            [
              72.9429316,
              25.2188413
            ],
            [
              72.9423523,
              25.2202972
            ],
            [
              72.9415369,
              25.2225296
            ],
            [
              72.9417085,
              25.223209
            ],
            [
              72.9408073,
              25.224102
            ],
            [
              72.938683,
              25.2240437
            ],
            [
              72.9384899,
              25.2245096
            ],
            [
              72.938447,
              25.2259266
            ],
            [
              72.9377818,
              25.227169
            ],
            [
              72.9371166,
              25.2288577
            ],
            [
              72.9375243,
              25.2314393
            ],
            [
              72.9382324,
              25.2343218
            ],
            [
              72.9388761,
              25.2369809
            ],
            [
              72.938801,
              25.2386501
            ],
            [
              72.9379964,
              25.2398923
            ],
            [
              72.9363969,
              25.2434945
            ],
            [
              72.9331347,
              25.243859
            ],
            [
              72.9286516,
              25.2444786
            ],
            [
              72.9214349,
              25.2462281
            ],
            [
              72.9198312,
              25.2502739
            ],
            [
              72.916806,
              25.2556317
            ],
            [
              72.9126874,
              25.2546476
            ],
            [
              72.9091155,
              25.2503468
            ],
            [
              72.9036665,
              25.2497454
            ],
            [
              72.9020628,
              25.2497454
            ],
            [
              72.9014432,
              25.2503832
            ],
            [
              72.8999306,
              25.2529528
            ],
            [
              72.8970694,
              25.2509117
            ],
            [
              72.897197,
              25.2484879
            ],
            [
              72.8963405,
              25.2457361
            ],
            [
              72.8953017,
              25.2453169
            ],
            [
              72.8897252,
              25.2448978
            ],
            [
              72.886372,
              25.2453169
            ],
            [
              72.8860075,
              25.2456996
            ],
            [
              72.8848958,
              25.2467202
            ],
            [
              72.8839117,
              25.2474856
            ],
            [
              72.8826907,
              25.2481963
            ],
            [
              72.8809412,
              25.2490893
            ],
            [
              72.8792828,
              25.2493627
            ],
            [
              72.8773875,
              25.2492898
            ],
            [
              72.873925,
              25.2498183
            ],
            [
              72.8701161,
              25.2504743
            ],
            [
              72.8689498,
              25.2516589
            ],
            [
              72.8669452,
              25.2529528
            ],
            [
              72.8663073,
              25.2544107
            ],
            [
              72.8638835,
              25.2611354
            ],
            [
              72.8572682,
              25.266803
            ],
            [
              72.855701,
              25.2683703
            ],
            [
              72.8543888,
              25.2699558
            ],
            [
              72.8511996,
              25.2741837
            ],
            [
              72.8480469,
              25.2738922
            ],
            [
              72.8468623,
              25.2736553
            ],
            [
              72.8452586,
              25.2734912
            ],
            [
              72.84391,
              25.273637
            ],
            [
              72.8432357,
              25.2741473
            ],
            [
              72.8423428,
              25.2750767
            ],
            [
              72.8408666,
              25.2755688
            ],
            [
              72.8392447,
              25.2773001
            ],
            [
              72.8379508,
              25.2800519
            ],
            [
              72.8284925,
              25.2853733
            ],
            [
              72.8277089,
              25.2838789
            ],
            [
              72.8273991,
              25.283314
            ],
            [
              72.8268888,
              25.282749
            ],
            [
              72.8259958,
              25.2825121
            ],
            [
              72.8250482,
              25.2824939
            ],
            [
              72.823572,
              25.2824939
            ],
            [
              72.8203099,
              25.2804164
            ],
            [
              72.8185422,
              25.2770814
            ],
            [
              72.8181959,
              25.2743113
            ],
            [
              72.817303,
              25.2687348
            ],
            [
              72.8154988,
              25.2641423
            ],
            [
              72.8117993,
              25.2566158
            ],
            [
              72.8091649,
              25.2540463
            ],
            [
              72.8081025,
              25.2545395
            ],
            [
              72.8025268,
              25.2561881
            ],
            [
              72.79931,
              25.2495935
            ],
            [
              72.7945205,
              25.2431279
            ],
            [
              72.7904102,
              25.2348837
            ],
            [
              72.7868003,
              25.2321679
            ],
            [
              72.7818321,
              25.2280617
            ],
            [
              72.7780434,
              25.2197518
            ],
            [
              72.7781507,
              25.1955304
            ],
            [
              72.7791514,
              25.1930077
            ],
            [
              72.7809028,
              25.1910671
            ],
            [
              72.7808671,
              25.1892559
            ],
            [
              72.7792944,
              25.1879622
            ],
            [
              72.7771141,
              25.1878005
            ],
            [
              72.7745765,
              25.1875417
            ],
            [
              72.7720388,
              25.1869919
            ],
            [
              72.7655337,
              25.179779
            ],
            [
              72.7621382,
              25.1745065
            ],
            [
              72.7577419,
              25.1697514
            ],
            [
              72.7525951,
              25.1642844
            ],
            [
              72.747198,
              25.1598847
            ],
            [
              72.7456968,
              25.1577171
            ],
            [
              72.7458398,
              25.1563907
            ],
            [
              72.743588,
              25.1413138
            ],
            [
              72.7402998,
              25.1333216
            ],
            [
              72.7382625,
              25.1263644
            ],
            [
              72.7344023,
              25.1240344
            ],
            [
              72.728076,
              25.1200217
            ],
            [
              72.7200697,
              25.1135492
            ],
            [
              72.7138864,
              25.10918
            ],
            [
              72.7089182,
              25.10439
            ],
            [
              72.7065235,
              25.0986287
            ],
            [
              72.7051295,
              25.091443
            ],
            [
              72.7038786,
              25.086717
            ],
            [
              72.7036999,
              25.0823793
            ],
            [
              72.7018055,
              25.0806312
            ],
            [
              72.699518,
              25.0803075
            ],
            [
              72.6959081,
              25.0792716
            ],
            [
              72.6927995,
              25.0772616
            ],
            [
              72.6915967,
              25.0734806
            ],
            [
              72.6913428,
              25.0721349
            ],
            [
              72.6912973,
              25.0674227
            ],
            [
              72.6911186,
              25.0589076
            ],
            [
              72.690511,
              25.0564793
            ],
            [
              72.6886524,
              25.0546013
            ],
            [
              72.6885095,
              25.0532738
            ],
            [
              72.6887597,
              25.0505862
            ],
            [
              72.6887597,
              25.0485463
            ],
            [
              72.6874729,
              25.0475749
            ],
            [
              72.6856143,
              25.0486434
            ],
            [
              72.6837558,
              25.0493558
            ],
            [
              72.6798599,
              25.0491615
            ],
            [
              72.6747487,
              25.0488701
            ],
            [
              72.6703525,
              25.0478663
            ],
            [
              72.6661349,
              25.0471215
            ],
            [
              72.6628824,
              25.0459234
            ],
            [
              72.6625859,
              25.0455229
            ],
            [
              72.6609165,
              25.0432681
            ],
            [
              72.6578785,
              25.0389289
            ],
            [
              72.6556625,
              25.0343628
            ],
            [
              72.6550548,
              25.0312539
            ],
            [
              72.6559127,
              25.0289869
            ],
            [
              72.6568419,
              25.0270761
            ],
            [
              72.6547332,
              25.026396
            ],
            [
              72.6526244,
              25.0259102
            ],
            [
              72.6506024,
              25.0250814
            ],
            [
              72.649622,
              25.0246795
            ],
            [
              72.6483353,
              25.0234488
            ],
            [
              72.6483353,
              25.0218294
            ],
            [
              72.6484783,
              25.0201776
            ],
            [
              72.6481566,
              25.0166473
            ],
            [
              72.6445109,
              25.0167769
            ],
            [
              72.6423664,
              25.0167445
            ],
            [
              72.6381131,
              25.0160967
            ],
            [
              72.6366834,
              25.0111572
            ],
            [
              72.6351822,
              25.0062176
            ],
            [
              72.6344674,
              25.0026869
            ],
            [
              72.6337883,
              25.0008729
            ],
            [
              72.6322514,
              24.9994476
            ],
            [
              72.6302141,
              24.998249
            ],
            [
              72.6264254,
              24.9944265
            ],
            [
              72.6245311,
              24.9913813
            ],
            [
              72.6234231,
              24.9898587
            ],
            [
              72.6224223,
              24.9881093
            ],
            [
              72.6195272,
              24.9873642
            ],
            [
              72.6174899,
              24.986943
            ],
            [
              72.6148807,
              24.9868782
            ],
            [
              72.6138085,
              24.9810791
            ],
            [
              72.6127004,
              24.9782928
            ],
            [
              72.6118069,
              24.9763812
            ],
            [
              72.6089833,
              24.9746316
            ],
            [
              72.6065885,
              24.973206
            ],
            [
              72.6014417,
              24.9665638
            ],
            [
              72.5957944,
              24.9636475
            ],
            [
              72.5863943,
              24.9563891
            ],
            [
              72.5818193,
              24.9515607
            ],
            [
              72.5776374,
              24.9449172
            ],
            [
              72.5732054,
              24.9404124
            ],
            [
              72.5685947,
              24.9357455
            ],
            [
              72.5654136,
              24.9340277
            ],
            [
              72.5632691,
              24.9338008
            ],
            [
              72.5584439,
              24.9328933
            ],
            [
              72.5510096,
              24.9318562
            ],
            [
              72.5446832,
              24.9319534
            ],
            [
              72.5386428,
              24.9319534
            ],
            [
              72.5312084,
              24.9308838
            ],
            [
              72.5258114,
              24.9310459
            ],
            [
              72.5223444,
              24.9315969
            ],
            [
              72.5210219,
              24.9320182
            ],
            [
              72.5201641,
              24.9333147
            ],
            [
              72.5189489,
              24.9352593
            ],
            [
              72.5178052,
              24.9359075
            ],
            [
              72.5165184,
              24.9355834
            ],
            [
              72.5136948,
              24.9335739
            ],
            [
              72.5097989,
              24.9302356
            ],
            [
              72.506189,
              24.9253737
            ],
            [
              72.503973,
              24.9227158
            ],
            [
              72.5020786,
              24.9209979
            ],
            [
              72.5006847,
              24.9199282
            ],
            [
              72.4983257,
              24.9192151
            ],
            [
              72.4970032,
              24.9185992
            ],
            [
              72.4970032,
              24.9174971
            ],
            [
              72.4966101,
              24.916006
            ],
            [
              72.4972534,
              24.9147094
            ],
            [
              72.4983614,
              24.9127644
            ],
            [
              72.4984329,
              24.9107546
            ],
            [
              72.4972177,
              24.9087772
            ],
            [
              72.4955736,
              24.907675
            ],
            [
              72.493715,
              24.9068645
            ],
            [
              72.4991835,
              24.9024232
            ],
            [
              72.5016855,
              24.8988895
            ],
            [
              72.502865,
              24.8920162
            ],
            [
              72.5033296,
              24.8878013
            ],
            [
              72.5032939,
              24.8831972
            ],
            [
              72.5022573,
              24.8808951
            ],
            [
              72.4997911,
              24.8790793
            ],
            [
              72.4974679,
              24.8782038
            ],
            [
              72.4948945,
              24.8773607
            ],
            [
              72.4921781,
              24.8758043
            ],
            [
              72.4887468,
              24.8734372
            ],
            [
              72.4859589,
              24.8726265
            ],
            [
              72.4852083,
              24.873275
            ],
            [
              72.4835642,
              24.8742803
            ],
            [
              72.4808478,
              24.873956
            ],
            [
              72.4792752,
              24.8724968
            ],
            [
              72.4789535,
              24.8709079
            ],
            [
              72.4792752,
              24.8690919
            ],
            [
              72.4799543,
              24.866822
            ],
            [
              72.481098,
              24.8648763
            ],
            [
              72.482206,
              24.8629954
            ],
            [
              72.4830281,
              24.8614387
            ],
            [
              72.4836357,
              24.8592335
            ],
            [
              72.4841361,
              24.858066
            ],
            [
              72.4883179,
              24.8528121
            ],
            [
              72.4898548,
              24.8498283
            ],
            [
              72.4907126,
              24.8472337
            ],
            [
              72.4913202,
              24.844639
            ],
            [
              72.4902837,
              24.8415901
            ],
            [
              72.490248,
              24.8393521
            ],
            [
              72.4920351,
              24.8382817
            ],
            [
              72.4931788,
              24.8362707
            ],
            [
              72.4929644,
              24.8343893
            ],
            [
              72.4947157,
              24.8327675
            ],
            [
              72.4961812,
              24.8300427
            ],
            [
              72.4955736,
              24.8278045
            ],
            [
              72.4947515,
              24.8254689
            ],
            [
              72.4955736,
              24.8233928
            ],
            [
              72.496753,
              24.8215112
            ],
            [
              72.4971462,
              24.8200839
            ],
            [
              72.4962884,
              24.8182023
            ],
            [
              72.49468,
              24.8173264
            ],
            [
              72.491213,
              24.8157692
            ],
            [
              72.4896404,
              24.8130116
            ],
            [
              72.48914,
              24.8095726
            ],
            [
              72.4873171,
              24.8059714
            ],
            [
              72.4888898,
              24.8001637
            ],
            [
              72.4909271,
              24.7936744
            ],
            [
              72.4933933,
              24.782447
            ],
            [
              72.493572,
              24.7749507
            ],
            [
              72.4930359,
              24.7641761
            ],
            [
              72.4915347,
              24.759827
            ],
            [
              72.489956,
              24.7589016
            ],
            [
              72.4840808,
              24.7558535
            ],
            [
              72.4785447,
              24.7541972
            ],
            [
              72.4721828,
              24.7534636
            ],
            [
              72.4669263,
              24.754293
            ],
            [
              72.463495,
              24.7561593
            ],
            [
              72.4574724,
              24.7583016
            ],
            [
              72.4554709,
              24.7575875
            ],
            [
              72.4523256,
              24.7584314
            ],
            [
              72.4505385,
              24.7595998
            ],
            [
              72.4478221,
              24.7603139
            ],
            [
              72.4441049,
              24.7575875
            ],
            [
              72.4424608,
              24.7560296
            ],
            [
              72.4375283,
              24.755705
            ],
            [
              72.4338112,
              24.7558997
            ],
            [
              72.4243038,
              24.7558348
            ],
            [
              72.418871,
              24.7551207
            ],
            [
              72.4133667,
              24.7552506
            ],
            [
              72.4104358,
              24.7612226
            ],
            [
              72.4085772,
              24.7656366
            ],
            [
              72.4067186,
              24.7684277
            ],
            [
              72.402787,
              24.7723221
            ],
            [
              72.4003566,
              24.7757621
            ],
            [
              72.3964964,
              24.77375
            ],
            [
              72.3944948,
              24.7707643
            ],
            [
              72.3922788,
              24.7683627
            ],
            [
              72.3894909,
              24.7671295
            ],
            [
              72.3865601,
              24.7665453
            ],
            [
              72.3801265,
              24.7657015
            ],
            [
              72.3775531,
              24.766026
            ],
            [
              72.3739074,
              24.7656366
            ],
            [
              72.3722633,
              24.7615472
            ],
            [
              72.3669734,
              24.756419
            ],
            [
              72.3647574,
              24.7540821
            ],
            [
              72.3631133,
              24.7511609
            ],
            [
              72.3606828,
              24.7482395
            ],
            [
              72.3526766,
              24.7366185
            ],
            [
              72.3455783,
              24.7251706
            ],
            [
              72.3446633,
              24.7233414
            ],
            [
              72.3359493,
              24.7160356
            ],
            [
              72.3298016,
              24.7109056
            ],
            [
              72.3267278,
              24.701684
            ],
            [
              72.3212235,
              24.690968
            ],
            [
              72.3193649,
              24.6846678
            ],
            [
              72.3177923,
              24.6812253
            ],
            [
              72.3149329,
              24.6786921
            ],
            [
              72.3135747,
              24.675769
            ],
            [
              72.3123595,
              24.6708972
            ],
            [
              72.3128599,
              24.6655704
            ],
            [
              72.3126454,
              24.6614778
            ],
            [
              72.3131458,
              24.6569302
            ],
            [
              72.3139321,
              24.6542016
            ],
            [
              72.3152903,
              24.6517977
            ],
            [
              72.3174349,
              24.649199
            ],
            [
              72.3194364,
              24.6484843
            ],
            [
              72.3225102,
              24.6476397
            ],
            [
              72.3254411,
              24.6449758
            ],
            [
              72.3303735,
              24.6409474
            ],
            [
              72.3332329,
              24.6380235
            ],
            [
              72.33502,
              24.6347747
            ],
            [
              72.3351629,
              24.6327603
            ],
            [
              72.3395204,
              24.6301267
            ],
            [
              72.3402071,
              24.6299316
            ],
            [
              72.3431253,
              24.6291514
            ],
            [
              72.346301,
              24.6286052
            ],
            [
              72.3479318,
              24.627747
            ],
            [
              72.3472881,
              24.6258354
            ],
            [
              72.3458719,
              24.6240408
            ],
            [
              72.3449277,
              24.6233776
            ],
            [
              72.3437261,
              24.6221682
            ],
            [
              72.3435115,
              24.6204516
            ],
            [
              72.3444557,
              24.6181888
            ],
            [
              72.344799,
              24.6145604
            ],
            [
              72.3447561,
              24.6121024
            ],
            [
              72.3440265,
              24.6099175
            ],
            [
              72.3415803,
              24.6083958
            ],
            [
              72.3384904,
              24.6053914
            ],
            [
              72.3382759,
              24.6035965
            ],
            [
              72.3384046,
              24.6015675
            ],
            [
              72.3384046,
              24.6000457
            ],
            [
              72.3370313,
              24.5990312
            ],
            [
              72.3359155,
              24.598602
            ],
            [
              72.3330402,
              24.5987971
            ],
            [
              72.3309373,
              24.5992653
            ],
            [
              72.3289203,
              24.5989532
            ],
            [
              72.3271608,
              24.5977045
            ],
            [
              72.3258304,
              24.5980947
            ],
            [
              72.3244571,
              24.5979777
            ],
            [
              72.3221826,
              24.5966119
            ],
            [
              72.3186636,
              24.5954023
            ],
            [
              72.316904,
              24.5944267
            ],
            [
              72.3136425,
              24.5942706
            ],
            [
              72.3122692,
              24.5944657
            ],
            [
              72.3102092,
              24.5952462
            ],
            [
              72.3081922,
              24.5960266
            ],
            [
              72.3074197,
              24.5966509
            ],
            [
              72.306776,
              24.5978606
            ],
            [
              72.3058748,
              24.5984459
            ],
            [
              72.3047161,
              24.5996555
            ],
            [
              72.3046732,
              24.6010212
            ],
            [
              72.3044157,
              24.6023089
            ],
            [
              72.3036861,
              24.6034405
            ],
            [
              72.3029565,
              24.6051963
            ],
            [
              72.3001241,
              24.6065229
            ],
            [
              72.2951459,
              24.6093712
            ],
            [
              72.2927856,
              24.6077325
            ],
            [
              72.2906827,
              24.6057426
            ],
            [
              72.2892236,
              24.6037526
            ],
            [
              72.2871637,
              24.604494
            ],
            [
              72.2861766,
              24.6057426
            ],
            [
              72.2833442,
              24.6070302
            ],
            [
              72.2800827,
              24.6074594
            ],
            [
              72.2763919,
              24.6070302
            ],
            [
              72.2694397,
              24.6060937
            ],
            [
              72.2633457,
              24.6052353
            ],
            [
              72.2634744,
              24.6001238
            ],
            [
              72.2615432,
              24.5995385
            ],
            [
              72.2580671,
              24.5980167
            ],
            [
              72.2567796,
              24.5959486
            ],
            [
              72.2564792,
              24.5945828
            ],
            [
              72.2546339,
              24.5929048
            ],
            [
              72.2530889,
              24.5919683
            ],
            [
              72.2499561,
              24.5905245
            ],
            [
              72.246952,
              24.5887684
            ],
            [
              72.246437,
              24.5863099
            ]
          ]
        ]
      }
    }
  ]
}