{"type":"FeatureCollection","features":[{"type":"Feature","properties":{"zone":"Low Fire Zone","color":"#228B22","opacity":0.35,"fill":"#228B22","fill-opacity":0.35,"stroke":"#228B22","stroke-width":1,"stroke-opacity":0.8},"geometry":{"type":"Polygon","coordinates":[[[70.0853411,26.0819078],[70.0863912,26.068414],[70.0867633,26.0638142],[70.0876781,26.0544755],[70.0877487,26.050714],[70.0885187,26.0478376],[70.088755,26.0431543],[70.0897922,26.036264],[70.0916755,26.0205815],[70.0927005,26.0196783],[70.0938171,26.0186943],[70.094195,26.0156336],[70.0951015,26.0082905],[70.0959361,26.0015294],[70.0935553,25.998089],[70.095273,25.9827797],[70.0960877,25.9758197],[70.0971018,25.9656459],[70.0981124,25.9576266],[70.0988303,25.9508406],[70.0988478,25.9506757],[70.1002935,25.9424989],[70.1010293,25.9388802],[70.10134,25.9383967],[70.1065993,25.9304858],[70.1142386,25.9191023],[70.1144721,25.9187789],[70.1171743,25.9150357],[70.1179333,25.9139889],[70.1230866,25.9065481],[70.1278389,25.8993961],[70.1286644,25.8981691],[70.131955,25.893278],[70.1331942,25.8915844],[70.1385431,25.8835744],[70.1410342,25.8799399],[70.1444096,25.8750716],[70.1463621,25.8722993],[70.1495105,25.8673897],[70.1505435,25.865787],[70.1542896,25.8599998],[70.1569776,25.8562235],[70.1584111,25.8542839],[70.1620165,25.8486356],[70.1643122,25.8452796],[70.1690344,25.8381165],[70.1698381,25.8350386],[70.1743785,25.8283566],[70.1814591,25.8242818],[70.1883149,25.8209793],[70.1971529,25.8154582],[70.2023117,25.8110798],[70.2048835,25.8089147],[70.2145421,25.8002325],[70.2224741,25.7931023],[70.2233546,25.7919607],[70.2291367,25.7846383],[70.2371402,25.7745029],[70.2469594,25.7621266],[70.2523888,25.7560869],[70.2600041,25.7324853],[70.2634454,25.7210789],[70.2694211,25.7139835],[70.2954187,25.7031864],[70.3035909,25.7001198],[70.3119266,25.6970059],[70.3165371,25.6951836],[70.3238811,25.6925824],[70.3334378,25.6891446],[70.3397423,25.6868684],[70.3508388,25.6827895],[70.3579819,25.6802381],[70.3650655,25.6787164],[70.3696911,25.6777021],[70.3741901,25.6766602],[70.3812995,25.6750482],[70.3870233,25.6737397],[70.400178,25.6754589],[70.4156996,25.6775208],[70.4293873,25.6793391],[70.4370319,25.6804084],[70.4488251,25.6818896],[70.4637827,25.6826651],[70.4798764,25.6835812],[70.4833852,25.6837999],[70.489762,25.6841203],[70.497496,25.6845177],[70.5015084,25.6847416],[70.5084709,25.6843859],[70.5140388,25.6840854],[70.5284412,25.6834589],[70.5301665,25.6833728],[70.532949,25.6845258],[70.5375223,25.6863917],[70.5448014,25.6893532],[70.5497542,25.6911714],[70.5526474,25.6921906],[70.5551705,25.6934575],[70.5598798,25.6957981],[70.5730328,25.7014958],[70.5869668,25.7075317],[70.5902715,25.7089722],[70.5938556,25.7105161],[70.5997715,25.7122561],[70.6041708,25.7135409],[70.6086103,25.714852],[70.6132836,25.7147356],[70.6277483,25.7139669],[70.6321602,25.7136358],[70.6367818,25.713301],[70.6393155,25.713099],[70.6426842,25.7129218],[70.6448097,25.7127605],[70.6469726,25.7120523],[70.6510447,25.7094034],[70.6547972,25.7064147],[70.6597625,25.7023466],[70.6601499,25.7020206],[70.6611095,25.7001846],[70.6628319,25.6969073],[70.6646004,25.6935187],[70.6670369,25.6888753],[70.6694106,25.6844325],[70.6706911,25.6820374],[70.6726895,25.6783057],[70.6740233,25.6758045],[70.673993,25.6715993],[70.6739431,25.6639469],[70.673899,25.6591046],[70.6737881,25.6538153],[70.6737561,25.6515554],[70.6736304,25.6446355],[70.6723403,25.6400677],[70.6709595,25.6350588],[70.6702643,25.6324967],[70.6706295,25.6262584],[70.6708374,25.622753],[70.6710805,25.6183626],[70.6715133,25.6110092],[70.6694664,25.5928798],[70.6694169,25.5873453],[70.6694027,25.585106],[70.6693591,25.5787008],[70.6692742,25.5740083],[70.6691094,25.5699919],[70.6689235,25.5649689],[70.668768,25.5611327],[70.6686903,25.5591945],[70.6685457,25.5554438],[70.6683212,25.5499574],[70.6679301,25.5422664],[70.6674918,25.5354645],[70.6672296,25.5312741],[70.671877,25.5289068],[70.6785568,25.5255422],[70.678202,25.5215875],[70.6770747,25.5090122],[70.6766467,25.5045685],[70.6759146,25.4968562],[70.6755319,25.4928263],[70.675089,25.488192],[70.6741781,25.4785685],[70.6733635,25.4720383],[70.6723543,25.4662283],[70.6714325,25.4609638],[70.6724267,25.4588101],[70.6728709,25.457804],[70.6727838,25.4546277],[70.6727179,25.4523462],[70.6724405,25.4436396],[70.6724113,25.4415498],[70.6723067,25.434546],[70.6722639,25.4317885],[70.6721785,25.4280807],[70.6721191,25.4254863],[70.6720002,25.4203217],[70.6705221,25.4154064],[70.6688695,25.4100454],[70.667373,25.4050658],[70.6655604,25.3992786],[70.6648231,25.3968936],[70.6675718,25.3941912],[70.6709664,25.3908427],[70.6751001,25.3867637],[70.6804843,25.3815906],[70.687165,25.3751853],[70.6894847,25.3731067],[70.692049,25.3707901],[70.6938587,25.3691541],[70.6954517,25.3677274],[70.6986958,25.3647939],[70.7025073,25.3615069],[70.7062977,25.358241],[70.7088354,25.3560545],[70.71071,25.3544287],[70.7146951,25.351028],[70.7174215,25.3486898],[70.7206329,25.3459368],[70.7225279,25.3443088],[70.7264781,25.3410292],[70.7316423,25.3367221],[70.7367863,25.332444],[70.7372702,25.3308208],[70.7395797,25.3226015],[70.740757,25.3184062],[70.7422255,25.3127269],[70.7428632,25.3102808],[70.7456739,25.2994566],[70.7466849,25.2958805],[70.7473297,25.2934519],[70.7476782,25.2922305],[70.7485022,25.2891957],[70.7489634,25.2875225],[70.7501068,25.2834028],[70.7516714,25.2777077],[70.759785,25.2699967],[70.7619514,25.2679297],[70.7648323,25.2650777],[70.7740908,25.2559429],[70.7777397,25.2524887],[70.7833866,25.2471286],[70.7845741,25.2460215],[70.7875829,25.2431578],[70.7888506,25.2419632],[70.7954115,25.2357396],[70.7982291,25.2330986],[70.8003691,25.2311027],[70.8050187,25.2267768],[70.8090008,25.2230488],[70.8146906,25.2176758],[70.8185101,25.2140633],[70.8230712,25.2096196],[70.8311813,25.2016921],[70.834324,25.1985372],[70.8376863,25.1951448],[70.8421874,25.1906335],[70.8462614,25.1872033],[70.8535437,25.180108],[70.8584755,25.175528],[70.8618438,25.1724073],[70.8627956,25.1715255],[70.864044,25.1703704],[70.8677191,25.1670401],[70.8764402,25.15916],[70.8811467,25.1548669],[70.8869022,25.1496181],[70.8881581,25.1484338],[70.888493,25.1481038],[70.8887134,25.1471922],[70.8911068,25.1364448],[70.8916802,25.1338519],[70.8922011,25.1307666],[70.8951928,25.1132629],[70.8978681,25.0976104],[70.9018054,25.0766138],[70.9056341,25.0575227],[70.9075078,25.0481801],[70.9088646,25.0414146],[70.9123755,25.026329],[70.9139155,25.0198955],[70.9160749,25.0104332],[70.9169321,25.0069999],[70.9177263,25.0038837],[70.9198564,24.9956506],[70.921811,24.9892331],[70.9222448,24.9877917],[70.9245589,24.9801793],[70.9253469,24.9776922],[70.9279367,24.9693733],[70.9289461,24.966129],[70.9299204,24.9630733],[70.9324051,24.9553395],[70.9334635,24.9520862],[70.9348079,24.947759],[70.9377056,24.9386122],[70.9392376,24.9354607],[70.9407742,24.9322562],[70.9422047,24.9292726],[70.9433841,24.9268353],[70.9440225,24.9255288],[70.9445845,24.9248013],[70.9462054,24.9228015],[70.9498498,24.9183009],[70.9554884,24.9123614],[70.9581174,24.9089593],[70.9607705,24.9055244],[70.9625176,24.9032463],[70.9672732,24.8970126],[70.9704589,24.8927777],[70.9743489,24.8876412],[70.9816681,24.8779639],[70.9831789,24.8759557],[70.99091,24.865171],[70.9941748,24.8599067],[71.0006937,24.8491237],[71.0049102,24.8427119],[71.0077974,24.8383539],[71.0092928,24.8351863],[71.0158779,24.8232833],[71.018158,24.8192031],[71.0208739,24.8158954],[71.0240314,24.8120543],[71.0266801,24.8088347],[71.0287942,24.802176],[71.0317747,24.7939735],[71.0372625,24.7808981],[71.0402987,24.7742395],[71.0426369,24.7690782],[71.0452677,24.7632708],[71.0472412,24.7589255],[71.0488926,24.7552448],[71.0496465,24.7535659],[71.0519894,24.7483397],[71.0533547,24.7452933],[71.0540391,24.7437662],[71.0545927,24.742495],[71.0568348,24.7373347],[71.061739,24.7260876],[71.064304,24.7202244],[71.0655416,24.7173927],[71.069228,24.7140703],[71.0762381,24.7077472],[71.0777668,24.7063697],[71.0823325,24.7022246],[71.0870858,24.6979201],[71.0892,24.6960024],[71.0947638,24.6910085],[71.0980676,24.6893638],[71.0983465,24.6890858],[71.1057612,24.6831015],[71.1178036,24.6710594],[71.1876702,24.6495821],[71.2063192,24.6900914],[71.2102675,24.6981235],[71.2206101,24.7071297],[71.2298798,24.7142641],[71.2391066,24.7207743],[71.2488913,24.7318058],[71.2588477,24.7413553],[71.2612509,24.7455257],[71.2658,24.7482149],[71.2615943,24.7487995],[71.257646,24.7551131],[71.2517237,24.7745195],[71.2453722,24.7997666],[71.2544274,24.7950526],[71.2635684,24.8052206],[71.2687611,24.8073242],[71.2761426,24.8121156],[71.2798333,24.8143749],[71.2867856,24.8168289],[71.2846827,24.8252033],[71.2887597,24.8272287],[71.2902832,24.8269171],[71.2972784,24.8248333],[71.303544,24.822321],[71.3086939,24.826956],[71.3129425,24.831182],[71.3178348,24.8361087],[71.3191652,24.8400423],[71.3223195,24.8417753],[71.3256883,24.8432552],[71.3282847,24.8463707],[71.3294434,24.8497781],[71.329422,24.8533413],[71.3282203,24.8567875],[71.3283062,24.8575273],[71.3287139,24.8591628],[71.3280916,24.861246],[71.3263535,24.8667362],[71.3270402,24.868683],[71.3227701,24.8715253],[71.3168478,24.8772291],[71.3112902,24.8829911],[71.3074064,24.8860472],[71.3056254,24.8880716],[71.3079858,24.8902127],[71.3100672,24.8968694],[71.3112902,24.8995359],[71.3173198,24.9041486],[71.322062,24.9012097],[71.3252377,24.9000225],[71.3270616,24.8992829],[71.3293147,24.8959741],[71.3365888,24.9016574],[71.3423395,24.9075155],[71.3465881,24.9116024],[71.3460517,24.9174017],[71.3431334,24.9182385],[71.3416958,24.9242321],[71.3396573,24.9257499],[71.3391208,24.9387089],[71.3422107,24.9405573],[71.3429618,24.9434563],[71.3485837,24.9421139],[71.3488412,24.9421333],[71.3555789,24.947153],[71.3571024,24.946258],[71.3673806,24.9540401],[71.3730669,24.9578531],[71.3784528,24.9602264],[71.3818002,24.9640004],[71.3837528,24.9659651],[71.3876581,24.9747574],[71.3999748,24.9706726],[71.4113688,24.9721703],[71.413815,24.9697],[71.4211321,24.9767608],[71.4245653,24.975302],[71.4255309,24.9755743],[71.4308738,24.9778306],[71.4365601,24.9782586],[71.44068,24.9809816],[71.4435124,24.9835296],[71.4463877,24.986058],[71.4522242,24.9872834],[71.4550352,24.9891116],[71.4608502,24.9926123],[71.4634251,24.9950239],[71.4654851,24.9966575],[71.4748406,24.9979994],[71.4765358,24.9963464],[71.4781236,24.9960547],[71.4791751,24.9941876],[71.4799046,24.9930985],[71.4825225,24.9917372],[71.4837456,24.9880224],[71.4904189,24.9917955],[71.490097,24.9968715],[71.4907732,25.0001265],[71.4905262,25.0053504],[71.4992793,25.0073414],[71.5021992,25.008559],[71.5057611,25.0093757],[71.5082502,25.0093952],[71.5108037,25.0091424],[71.5134001,25.0089479],[71.5146875,25.0087924],[71.5179491,25.0064005],[71.5219188,25.0026668],[71.525824,24.9987579],[71.5264034,24.9956268],[71.5277552,24.9885086],[71.5273261,24.9868749],[71.5268326,24.9859802],[71.5255236,24.9847549],[71.5260386,24.9840158],[71.5253949,24.9833545],[71.5263819,24.9814873],[71.5288496,24.9775194],[71.5294504,24.9765663],[71.5304804,24.9735514],[71.5323043,24.9722287],[71.5344929,24.9738043],[71.5393638,24.9773833],[71.5417242,24.9780252],[71.5445995,24.9783947],[71.5459299,24.9786281],[71.5473032,24.9791144],[71.5477967,24.9795617],[71.5480113,24.9798146],[71.5494704,24.9796201],[71.551187,24.9801258],[71.5537834,24.980826],[71.5570235,24.9832378],[71.5583539,24.9852995],[71.5602207,24.9875556],[71.5636325,24.9912315],[71.5663576,24.9947127],[71.567173,24.9974549],[71.5675807,24.9992052],[71.5669584,24.9997691],[71.5665507,25.0006637],[71.5669584,25.0016944],[71.5675592,25.002589],[71.5730309,25.0075673],[71.5790391,25.0136732],[71.5840173,25.0193705],[71.5872788,25.0225981],[71.5908837,25.0248925],[71.5938449,25.0261952],[71.5989518,25.027459],[71.6059685,25.0294616],[71.6149807,25.032028],[71.6218042,25.0324751],[71.6293788,25.0334667],[71.6341543,25.0340647],[71.6388845,25.0302004],[71.6418028,25.0279062],[71.6431546,25.0265646],[71.6440558,25.0252036],[71.6453004,25.0252813],[71.6463303,25.0253786],[71.6473818,25.025048],[71.6517162,25.0220537],[71.6523814,25.0212954],[71.6553211,25.0150343],[71.6577458,25.0123509],[71.6640973,25.0039697],[71.6653418,25.0028223],[71.6653847,25.0013055],[71.6660929,25.0000414],[71.6672301,24.9991274],[71.6678309,24.998719],[71.6685819,24.9991468],[71.6696977,24.9979411],[71.6690969,24.996852],[71.6722727,24.994246],[71.6739464,24.9938765],[71.6784525,24.9905119],[71.6826153,24.9870111],[71.6848469,24.988178],[71.6866064,24.9901424],[71.6879797,24.9911342],[71.6922712,24.9936431],[71.6952538,24.9974549],[71.6988158,25.0010332],[71.7022919,25.0051948],[71.7042017,25.0083451],[71.7066479,25.0130509],[71.708343,25.0152288],[71.7106175,25.0168038],[71.7117548,25.0177955],[71.7126131,25.0196816],[71.7136216,25.0214899],[71.7176342,25.0210815],[71.7183852,25.0210038],[71.7194795,25.020751],[71.7210674,25.0229287],[71.7218399,25.0231426],[71.7246294,25.0242703],[71.7276335,25.0263507],[71.727612,25.0281978],[71.727612,25.0297727],[71.7276764,25.0314058],[71.7279982,25.0322418],[71.7288351,25.0339527],[71.7282986,25.0353914],[71.727333,25.0358969],[71.7274189,25.0367718],[71.7277407,25.0377244],[71.7273974,25.0393769],[71.7269039,25.0420403],[71.7269039,25.0433428],[71.7283201,25.0490776],[71.7300367,25.0504578],[71.7319035,25.0514492],[71.7332983,25.0524794],[71.733706,25.0533153],[71.735723,25.0577667],[71.7378044,25.0606435],[71.7381263,25.0648614],[71.7381906,25.0678741],[71.7429328,25.0681657],[71.7448425,25.0687293],[71.7467308,25.0691569],[71.7495417,25.0694485],[71.7527175,25.0698566],[71.7572665,25.0717808],[71.7615366,25.0741714],[71.763339,25.0741908],[71.7647767,25.0738993],[71.7656994,25.0737049],[71.7667293,25.0736077],[71.7674589,25.0742297],[71.7686391,25.073083],[71.7697978,25.0720335],[71.7724585,25.0680879],[71.7756986,25.0656389],[71.7771363,25.0654834],[71.7790031,25.0653668],[71.782093,25.0653668],[71.7843675,25.0658138],[71.7862558,25.0658916],[71.7893028,25.0613238],[71.7922425,25.0571447],[71.7944956,25.0547343],[71.7962336,25.053082],[71.7969632,25.0522462],[71.7988515,25.0528293],[71.8008685,25.0538013],[71.8017697,25.0545788],[71.8020272,25.0552592],[71.8014478,25.0558812],[71.8009114,25.0568531],[71.8009543,25.0574946],[71.8013835,25.058],[71.8017268,25.058447],[71.8011045,25.0591468],[71.8014908,25.0599826],[71.8023062,25.0603908],[71.8030786,25.0608962],[71.8034005,25.0615182],[71.8032074,25.0623151],[71.8024134,25.0633453],[71.8015337,25.0650169],[71.8031215,25.0673105],[71.8042588,25.0685738],[71.8047094,25.0690986],[71.8004608,25.0729275],[71.7987871,25.073977],[71.7962765,25.0754735],[71.7942381,25.0764064],[71.792736,25.0770672],[71.7918348,25.0776892],[71.7911911,25.0784665],[71.7963195,25.0868815],[71.7980146,25.0895828],[71.8053317,25.0973557],[71.8010831,25.101825],[71.7999887,25.1049145],[71.8022203,25.1100441],[71.8050527,25.1148237],[71.8084859,25.1171163],[71.8137216,25.11937],[71.8168115,25.1203414],[71.8181634,25.1206134],[71.8194294,25.1207106],[71.8203735,25.1206717],[71.8227338,25.1200694],[71.8239701,25.1230857],[71.8239784,25.1258589],[71.8252659,25.1277627],[71.8281197,25.1322891],[71.8323469,25.1377672],[71.8344283,25.1404285],[71.8344712,25.1410695],[71.8336558,25.1423127],[71.8367457,25.150296],[71.8387198,25.1528987],[71.8362093,25.1561034],[71.8366384,25.1591916],[71.8372822,25.1615222],[71.838398,25.1652899],[71.8405223,25.1741262],[71.8412304,25.1778158],[71.8407798,25.1786314],[71.8414235,25.1806315],[71.8426251,25.1855443],[71.8468523,25.2014465],[71.8519163,25.2061837],[71.8554782,25.2088241],[71.8598985,25.2098724],[71.8634176,25.2114644],[71.8723869,25.216473],[71.877408,25.2196955],[71.8791675,25.2217143],[71.8797254,25.2232673],[71.8798971,25.2243155],[71.8801975,25.2254026],[71.8879652,25.2304882],[71.8944454,25.2351079],[71.8964195,25.2384852],[71.8994236,25.2437644],[71.8960332,25.2449289],[71.8889951,25.2503631],[71.8870639,25.2534682],[71.8858194,25.2558747],[71.8900251,25.2569226],[71.8926858,25.2582423],[71.8965482,25.2627444],[71.9000244,25.2656552],[71.9032001,25.2677121],[71.9057321,25.2682943],[71.9081783,25.269148],[71.9162035,25.2725244],[71.9316959,25.279626],[71.9341421,25.2807514],[71.9346141,25.2923147],[71.9374036,25.2997256],[71.9463729,25.3149727],[71.9464588,25.31699],[71.9445276,25.3184253],[71.9403004,25.321102],[71.9379186,25.3235459],[71.9356656,25.3254854],[71.9336486,25.3266298],[71.9306445,25.3259703],[71.9287777,25.3265328],[71.9243574,25.3293451],[71.9210315,25.3323318],[71.9173407,25.3374518],[71.9174051,25.3392942],[71.9179415,25.3404578],[71.918242,25.3412335],[71.9168257,25.3430758],[71.9168901,25.3444721],[71.9172549,25.3451508],[71.9167614,25.3458101],[71.9172978,25.3467216],[71.9132218,25.3493444],[71.893331,25.3507729],[71.8772602,25.3513681],[71.8712008,25.3429159],[71.8607943,25.3196989],[71.8320778,25.3272002],[71.8349758,25.3401777],[71.833922,25.3557726],[71.8265452,25.3666045],[71.8229886,25.3827911],[71.8248328,25.3911216],[71.7990142,25.3973095],[71.7834704,25.4036162],[71.7693756,25.3861234],[71.7465868,25.4114693],[71.7368389,25.4184891],[71.7299891,25.4200357],[71.7260373,25.4158716],[71.7180019,25.3986185],[71.7148405,25.3856473],[71.7037754,25.3861234],[71.6978477,25.4102795],[71.6837528,25.4400217],[71.6948179,25.4437093],[71.7097031,25.4256274],[71.7222172,25.4395459],[71.7019312,25.455128],[71.6911296,25.4501324],[71.6817769,25.4620263],[71.6641255,25.4523924],[71.6587247,25.4558416],[71.6527969,25.4588151],[71.6543777,25.4617884],[71.6562218,25.4726108],[71.6510845,25.4865239],[71.6398877,25.5064988],[71.6371214,25.5173172],[71.639756,25.5280752],[71.6410947,25.5303793],[71.6463803,25.5333721],[71.6532182,25.5375432],[71.6634106,25.5416477],[71.6685176,25.5422672],[71.6712856,25.5435063],[71.6756844,25.5451713],[71.6787529,25.548869],[71.6802764,25.5508824],[71.6804909,25.5571739],[71.6807914,25.5581225],[71.6861987,25.5641233],[71.6888165,25.5654396],[71.6925287,25.5678592],[71.6969275,25.5713433],[71.701498,25.5750208],[71.7039871,25.5764338],[71.7087936,25.5776531],[71.7129135,25.5790467],[71.7147159,25.5798208],[71.7164969,25.5831498],[71.713686,25.5864012],[71.711111,25.5904653],[71.7086434,25.5956324],[71.7057252,25.6000833],[71.7034936,25.604147],[71.6974211,25.6131446],[71.6951895,25.6166468],[71.6937303,25.6222771],[71.6936445,25.6229929],[71.6967988,25.6256822],[71.699996,25.6271719],[71.7042017,25.6300159],[71.7079997,25.6333821],[71.7129993,25.626843],[71.7151236,25.6275782],[71.7198443,25.6300159],[71.7243504,25.6313894],[71.7274403,25.6327243],[71.7293501,25.6346782],[71.7329979,25.6343107],[71.7366671,25.6326856],[71.7422032,25.6382378],[71.743598,25.6391277],[71.7490053,25.6417198],[71.7535231,25.6416076],[71.7576415,25.6391891],[71.7623174,25.6377632],[71.7663744,25.6359654],[71.7704314,25.6335476],[71.7753135,25.6305099],[71.7788892,25.6291459],[71.7845277,25.6323697],[71.7961017,25.6430936],[71.7958253,25.6490746],[71.7968758,25.6538092],[71.8041184,25.6627797],[71.8097025,25.6672647],[71.8091496,25.6696068],[71.8063852,25.6723973],[71.8008012,25.6760846],[71.7890249,25.6838576],[71.7768616,25.6878934],[71.7691767,25.6903845],[71.759833,25.6925767],[71.7509794,25.6947699],[71.7435557,25.6955959],[71.7286995,25.698495],[71.7227324,25.699382],[71.7146021,25.7007634],[71.7061269,25.7028104],[71.7006644,25.7063444],[71.7026376,25.7099852],[71.7098415,25.7223757],[71.7122483,25.7297434],[71.7143866,25.7378559],[71.7193277,25.7528089],[71.7213464,25.7599526],[71.7240758,25.7674684],[71.7264458,25.7737631],[71.7278537,25.7777098],[71.7228994,25.7820939],[71.7172027,25.7868325],[71.7116904,25.79141],[71.7075697,25.7947317],[71.7057466,25.7934772],[71.7007255,25.7930715],[71.6973752,25.7934746],[71.695404,25.7965269],[71.6941812,25.7975223],[71.6864619,25.8006866],[71.683296,25.8013946],[71.6806771,25.8009566],[71.6786764,25.8030402],[71.6742407,25.8076488],[71.6719221,25.8099679],[71.6668031,25.8064621],[71.6634678,25.8042894],[71.6591652,25.8016976],[71.6555605,25.8022331],[71.6542674,25.8032397],[71.6498106,25.8058169],[71.6463275,25.8074595],[71.6452259,25.8079844],[71.6436481,25.8089707],[71.6417396,25.8141622],[71.6354911,25.8189566],[71.6340351,25.8198265],[71.633842,25.8221057],[71.6322541,25.8209082],[71.6311168,25.8213524],[71.6300774,25.8199577],[71.6263747,25.8232067],[71.6248512,25.8223182],[71.6236897,25.8226761],[71.6162703,25.8205231],[71.6124487,25.8241531],[71.609509,25.8263163],[71.6083712,25.8332678],[71.6064098,25.8357274],[71.603756,25.8394594],[71.6004109,25.8399129],[71.5989294,25.8405361],[71.5980389,25.8435534],[71.5886791,25.849799],[71.5816559,25.8478613],[71.5778696,25.8445284],[71.5769939,25.8462318],[71.5757968,25.8451898],[71.5725152,25.8487294],[71.5695238,25.8529868],[71.5660796,25.8581288],[71.5637937,25.8613323],[71.5612195,25.8655528],[71.5684272,25.8708538],[71.5742819,25.874591],[71.5840602,25.8804423],[71.5868734,25.8815981],[71.5903044,25.884149],[71.5926647,25.8853073],[71.5940236,25.8860776],[71.5969027,25.8901809],[71.5996728,25.8866499],[71.6007024,25.8877385],[71.6022066,25.888788],[71.6073632,25.8905967],[71.6115374,25.8940677],[71.6178659,25.8987041],[71.6179633,25.9000745],[71.6178434,25.9101679],[71.6152167,25.9144539],[71.6164059,25.9154713],[71.6165065,25.9211499],[71.6167114,25.925733],[71.614454,25.9278466],[71.611967,25.9301918],[71.6078361,25.9337703],[71.6057624,25.9359227],[71.596944,25.9308199],[71.593607,25.9290471],[71.5902614,25.9267088],[71.5837902,25.9218487],[71.5762978,25.9170751],[71.5739643,25.9164728],[71.5716785,25.9132519],[71.5681906,25.914395],[71.5636314,25.915573],[71.5571701,25.9160412],[71.5548348,25.9169629],[71.551652,25.9165592],[71.5452906,25.9168337],[71.5386128,25.9184683],[71.5372088,25.9178584],[71.5335059,25.9161523],[71.5307808,25.9156698],[71.5265942,25.9186807],[71.5231204,25.9189508],[71.521039,25.9200122],[71.5202021,25.9219228],[71.5193224,25.9221544],[71.5186113,25.9227496],[71.5169835,25.9267281],[71.5135381,25.9348339],[71.5115976,25.9381134],[71.5089583,25.9401395],[71.5081967,25.9417796],[71.5081359,25.9478397],[71.5052247,25.9485715],[71.4994402,25.9493333],[71.4917491,25.9516631],[71.4856767,25.9537423],[71.482105,25.9532028],[71.4770657,25.9522286],[71.4708605,25.9514221],[71.4658571,25.9506629],[71.4574338,25.9502155],[71.450331,25.9499059],[71.4491475,25.9549328],[71.4478193,25.9615807],[71.4438128,25.966514],[71.4438813,25.9703033],[71.445965,25.9789039],[71.4481687,25.9882535],[71.4509367,25.9961433],[71.4538954,26.001761],[71.4567947,26.0116545],[71.4585927,26.0176075],[71.4669268,26.0356685],[71.473526,26.0468008],[71.4788889,26.0557664],[71.4818298,26.0595778],[71.484915,26.0634272],[71.4902687,26.069235],[71.4931074,26.0718753],[71.4981222,26.0760195],[71.5026384,26.0774056],[71.5091226,26.0779534],[71.513356,26.0768695],[71.5163863,26.0759728],[71.5152461,26.0773017],[71.5140684,26.0789436],[71.5116102,26.0814189],[71.5092103,26.0845053],[71.5067584,26.087678],[71.5086794,26.090994],[71.5094088,26.092391],[71.50854,26.094125],[71.5090012,26.0969101],[71.5100097,26.0986444],[71.5115435,26.101938],[71.5131211,26.1057162],[71.5176574,26.1094873],[71.5163827,26.1110535],[71.5180085,26.1161613],[71.5195675,26.1238584],[71.5206061,26.1249553],[71.5248007,26.1283029],[71.5350025,26.134533],[71.542874,26.1395539],[71.5462732,26.1416467],[71.5494767,26.1472937],[71.5570633,26.157172],[71.5657172,26.1687636],[71.5724436,26.1722778],[71.5751883,26.1734397],[71.5782437,26.1742763],[71.5803669,26.1762747],[71.5832491,26.1812217],[71.5884077,26.1910764],[71.592174,26.1988592],[71.5957375,26.2057041],[71.5986439,26.2078465],[71.6019559,26.2099708],[71.6067409,26.2103173],[71.6093159,26.2112029],[71.613325,26.215641],[71.617736,26.2176604],[71.6240346,26.2201119],[71.6285506,26.2279965],[71.6345074,26.2421149],[71.6379335,26.2492013],[71.6424432,26.2560966],[71.6480221,26.264336],[71.6517409,26.2706948],[71.6532182,26.2733292],[71.6555152,26.2757792],[71.6588224,26.2743879],[71.6630802,26.2722573],[71.6658827,26.2709358],[71.6672117,26.2701158],[71.6723903,26.2733199],[71.6833689,26.279635],[71.6903599,26.2842783],[71.6975582,26.2892928],[71.7033582,26.2933321],[71.7126131,26.2987822],[71.7180136,26.3007139],[71.7239689,26.3037692],[71.7267483,26.3048172],[71.7303586,26.3095543],[71.733135,26.3128302],[71.7428708,26.3256414],[71.7500222,26.3345554],[71.7556536,26.3484646],[71.757524,26.3504213],[71.7554758,26.3545036],[71.7519721,26.3624316],[71.7419028,26.3721085],[71.7388129,26.3748961],[71.7359474,26.3766797],[71.7311954,26.3776259],[71.7184126,26.3844019],[71.7184281,26.3850844],[71.7168188,26.3865261],[71.7159805,26.3854451],[71.7086967,26.3885694],[71.7044377,26.3916583],[71.7027211,26.3922349],[71.6991162,26.3901974],[71.6893474,26.3879148],[71.6862631,26.3872949],[71.6844821,26.3856034],[71.684215,26.3832249],[71.6835165,26.3817012],[71.6772079,26.38445],[71.6751265,26.383412],[71.6708779,26.3852958],[71.6695905,26.386603],[71.6626811,26.3906588],[71.6603422,26.3904665],[71.6593766,26.3911008],[71.6586853,26.3927462],[71.6507044,26.3995509],[71.64397,26.4041514],[71.6395497,26.4043052],[71.6344748,26.4047075],[71.6310524,26.4090138],[71.6285541,26.4119134],[71.6231345,26.417066],[71.6289496,26.4247718],[71.6317297,26.430019],[71.6284483,26.4310708],[71.6240928,26.4333958],[71.6224348,26.4375446],[71.6227402,26.4499706],[71.6209673,26.4622556],[71.6142817,26.4753896],[71.6132211,26.4811946],[71.6090584,26.4875517],[71.6042304,26.4855161],[71.6003895,26.4905286],[71.5978314,26.4944958],[71.594274,26.4978646],[71.5923214,26.5004378],[71.5848112,26.5027037],[71.5793825,26.50652],[71.5699884,26.5043415],[71.5655153,26.5011656],[71.5579165,26.4988817],[71.5537388,26.4961801],[71.5473676,26.4920265],[71.541591,26.4892351],[71.5368962,26.4887617],[71.5332055,26.4879743],[71.5259957,26.4873982],[71.5212965,26.4870524],[71.519494,26.486169],[71.5178847,26.4836722],[71.5174742,26.4812646],[71.5157977,26.4776626],[71.5120482,26.4713798],[71.5098291,26.4692358],[71.5019242,26.4648052],[71.4979291,26.462294],[71.4880115,26.4577044],[71.4817071,26.4619099],[71.4760718,26.46689],[71.4708066,26.4718408],[71.4683819,26.4732621],[71.4673519,26.4756247],[71.4658542,26.482494],[71.4655852,26.4871651],[71.4607909,26.4993495],[71.4610004,26.501878],[71.4608502,26.5043168],[71.4577603,26.5058721],[71.4516234,26.51194],[71.4481902,26.5134184],[71.4455509,26.5099814],[71.4457011,26.5079268],[71.4410877,26.5014555],[71.4359246,26.4966069],[71.4330202,26.4970941],[71.4305091,26.4970004],[71.4234279,26.4937359],[71.4191365,26.4906822],[71.4138363,26.4844791],[71.4102101,26.4777951],[71.4056609,26.4745876],[71.4005542,26.4702657],[71.3896106,26.4678648],[71.3775086,26.4591436],[71.3686035,26.4528427],[71.3629603,26.4498648],[71.3526819,26.4460034],[71.3473177,26.4404316],[71.3444638,26.439029],[71.33876,26.4354581],[71.3337779,26.4295756],[71.3289892,26.4222593],[71.3270616,26.420794],[71.3256883,26.4218702],[71.3241005,26.4265973],[71.3169765,26.4323618],[71.3073634,26.4357243],[71.3062476,26.4475019],[71.3068056,26.4524584],[71.3033938,26.453976],[71.298716,26.4582984],[71.2966664,26.4639348],[71.2836956,26.466693],[71.2796616,26.4655213],[71.2758851,26.463389],[71.2687826,26.4629856],[71.2622025,26.4605231],[71.260457,26.4618155],[71.2559044,26.4596504],[71.2526035,26.4592781],[71.2517258,26.4595441],[71.2491059,26.4577989],[71.2383985,26.4557435],[71.2314532,26.4511316],[71.2265145,26.4493349],[71.2154739,26.4422512],[71.2130122,26.4424337],[71.2119841,26.4402202],[71.2134007,26.4371418],[71.213529,26.4353016],[71.2050318,26.4322657],[71.1979937,26.4186419],[71.1928653,26.417571],[71.1864709,26.4138183],[71.1849689,26.4099747],[71.1823082,26.4073994],[71.1813854,26.4048818],[71.1830807,26.398078],[71.1868787,26.3944838],[71.1903119,26.3897746],[71.1904835,26.3864107],[71.1893171,26.3838288],[71.1875224,26.3817204],[71.1832522,26.376684],[71.1794543,26.370859],[71.1718153,26.3546899],[71.1656356,26.3431336],[71.1594558,26.3348454],[71.1544561,26.3274798],[71.1494136,26.3232679],[71.1488342,26.3196906],[71.1481046,26.3175365],[71.1453581,26.3147091],[71.1423969,26.3089772],[71.1375062,26.3054333],[71.1357222,26.3046504],[71.1315608,26.3048031],[71.1302733,26.3079],[71.1284065,26.3034951],[71.1265291,26.3027537],[71.117742,26.3076115],[71.1077428,26.3106506],[71.0910273,26.3132858],[71.080849,26.3187232],[71.0759854,26.3224602],[71.0734319,26.3216139],[71.0680675,26.3166517],[71.0593343,26.3125933],[71.0589408,26.3112251],[71.0641622,26.3064959],[71.0680128,26.3027253],[71.0708636,26.2947237],[71.0560083,26.283488],[71.0532188,26.2832187],[71.0463523,26.2821797],[71.042962,26.2811601],[71.0352802,26.2829493],[71.0264632,26.2829708],[71.016513,26.2815913],[71.0113334,26.2799095],[71.0016131,26.274984],[70.9992488,26.2653467],[70.9985447,26.2598983],[70.9965276,26.2597828],[70.9903049,26.2574351],[70.9791469,26.2535094],[70.9654569,26.2501224],[70.9576892,26.2496605],[70.9566807,26.2497567],[70.9531962,26.2482067],[70.9493208,26.2442718],[70.9474754,26.2367272],[70.9382486,26.2278733],[70.9407377,26.2237925],[70.9516758,26.2222917],[70.9631395,26.2200581],[70.9730529,26.2204046],[70.9740615,26.2205008],[70.9785032,26.2172861],[70.9820008,26.2188646],[70.9863138,26.2186336],[70.9879875,26.2214441],[70.9901762,26.2200581],[70.9934806,26.2191726],[70.9984588,26.2216366],[71.0063552,26.223754],[71.0076213,26.2233498],[71.0097845,26.2206971],[71.0095095,26.2167086],[71.0108828,26.2172284],[71.0127282,26.2132435],[71.0131144,26.2085077],[71.0113335,26.1995553],[71.0148525,26.1955313],[71.0182214,26.1937022],[71.0220522,26.1908304],[71.0296261,26.1788371],[71.0313427,26.1767862],[71.0339595,26.1784698],[71.0390568,26.1727711],[71.0383057,26.1668396],[71.0400653,26.1621404],[71.0409665,26.1585774],[71.0426402,26.1521829],[71.0436487,26.1475024],[71.0449791,26.1442664],[71.0502336,26.1395582],[71.0472536,26.1362145],[71.0433912,26.1318608],[71.035881,26.1247521],[71.029787,26.1196466],[71.0273623,26.1169879],[71.0252447,26.1147031],[71.0242295,26.1135968],[71.0165262,26.1166603],[71.0099172,26.1157933],[71.0033083,26.1145602],[70.9988519,26.1127764],[70.9939527,26.1095121],[70.989232,26.1066219],[70.9871292,26.1053501],[70.9827518,26.1043096],[70.9800911,26.1016505],[70.9739112,26.0991454],[70.9627533,26.0955227],[70.9599208,26.0940967],[70.958526,26.0881998],[70.9568309,26.0852319],[70.9508228,26.079797],[70.9467029,26.0788334],[70.9402174,26.0790185],[70.944643,26.0746703],[70.9522819,26.0628357],[70.9617233,26.052542],[70.9634828,26.0474719],[70.9636491,26.0442632],[70.9647036,26.039856],[70.967946,26.0333016],[70.9649193,26.0267266],[70.9638469,26.0233792],[70.9578394,26.0175869],[70.9529685,26.0193416],[70.9512145,26.0223302],[70.9488487,26.0267074],[70.9478402,26.0269773],[70.9448576,26.0289441],[70.9412741,26.0290019],[70.9386777,26.0361165],[70.939579,26.0393555],[70.9422084,26.04463],[70.942111,26.0509612],[70.9357595,26.0573227],[70.9262752,26.0674232],[70.9168338,26.075981],[70.9185504,26.0782167],[70.9049033,26.0950217],[70.9003543,26.1016505],[70.8836173,26.114252],[70.8784675,26.1199934],[70.8728671,26.125908],[70.8674383,26.1311095],[70.8664569,26.1299619],[70.8633184,26.1304738],[70.8558511,26.1297418],[70.8423542,26.1339992],[70.8310246,26.1342304],[70.809524,26.136542],[70.7958984,26.1385647],[70.7863711,26.1407993],[70.7812212,26.1401829],[70.7750415,26.1424557],[70.7606113,26.1429068],[70.7490778,26.1461541],[70.7417561,26.1415674],[70.7268905,26.1568248],[70.7202863,26.1604722],[70.7103681,26.16553],[70.7088017,26.1695358],[70.7104969,26.1761604],[70.7123422,26.180705],[70.7180915,26.1894832],[70.7196257,26.1950115],[70.7192516,26.1991318],[70.7157325,26.2098553],[70.7057547,26.2071216],[70.6943548,26.2096114],[70.6862926,26.2095473],[70.6837177,26.2116264],[70.6797054,26.2103728],[70.6631826,26.197553],[70.6537413,26.1962437],[70.6506514,26.1965903],[70.6375408,26.1973797],[70.6351805,26.1957816],[70.6256961,26.1961475],[70.6147098,26.1984194],[70.6056332,26.200826],[70.6030369,26.2005565],[70.5889183,26.2017732],[70.5766654,26.2007105],[70.5681037,26.199151],[70.5579113,26.1975145],[70.54214,26.1888886],[70.536797,26.1859426],[70.5238151,26.1783942],[70.5206609,26.1777587],[70.5145861,26.1769625],[70.5117345,26.1760834],[70.4989671,26.1720008],[70.4859209,26.1743117],[70.4763074,26.1763607],[70.4658912,26.1762368],[70.461307,26.1791125],[70.4418683,26.1777587],[70.4362679,26.1776239],[70.4304743,26.1746005],[70.4279852,26.1763722],[70.4311805,26.184116],[70.4257256,26.1869804],[70.425539,26.1880799],[70.4251742,26.1916227],[70.424273,26.1919115],[70.424273,26.1927394],[70.4151534,26.1949538],[70.4121065,26.1952233],[70.4077668,26.1977605],[70.3962707,26.1823417],[70.3908849,26.1758908],[70.3837107,26.1716614],[70.3785252,26.161736],[70.3772592,26.1594441],[70.3709507,26.152337],[70.3695559,26.1487159],[70.3627539,26.1423017],[70.3556728,26.140934],[70.3501797,26.1395278],[70.3482315,26.1400544],[70.3382277,26.1456533],[70.3372192,26.1456533],[70.3320264,26.1498523],[70.327217,26.1498515],[70.3179073,26.1468475],[70.3137016,26.1467705],[70.299282,26.1444206],[70.2934455,26.1503917],[70.2902698,26.155438],[70.2854204,26.155361],[70.277728,26.1507458],[70.2713227,26.1538201],[70.269885,26.1566706],[70.2691769,26.1628723],[70.2618813,26.1616397],[70.2541137,26.1601952],[70.2499938,26.157364],[70.2445435,26.150642],[70.2408743,26.1441508],[70.237441,26.1390847],[70.2351236,26.1348853],[70.2307892,26.1299922],[70.225017,26.1222668],[70.2223992,26.1201861],[70.2214444,26.1195117],[70.2202213,26.1196466],[70.2201676,26.1204461],[70.2195346,26.1217659],[70.2188836,26.1238871],[70.2168953,26.1298766],[70.2155864,26.1328337],[70.2107906,26.1380638],[70.2055692,26.1429254],[70.2002656,26.1460963],[70.1954269,26.1481766],[70.1928413,26.1492071],[70.1871335,26.1511236],[70.1849288,26.1519133],[70.1824236,26.1528474],[70.179559,26.1535793],[70.1763939,26.1541668],[70.1729875,26.1545472],[70.1649821,26.154172],[70.1577902,26.1538394],[70.151782,26.152703],[70.1464176,26.1515473],[70.144422,26.1517785],[70.1408887,26.1562293],[70.1272287,26.1388108],[70.1262387,26.1375484],[70.1155158,26.1239355],[70.1065506,26.112554],[70.0957908,26.0988942],[70.0853411,26.0819078]]]}},{"type":"Feature","properties":{"zone":"Moderate Fire Zone","color":"#FFD700","opacity":0.45,"fill":"#FFD700","fill-opacity":0.45,"stroke":"#FFD700","stroke-width":1,"stroke-opacity":0.8},"geometry":{"type":"Polygon","coordinates":[[[71.01784889720348,25.799435404692314],[71.02766950708165,25.787933184259728],[71.0290611475821,25.765603817263703],[71.04627993758281,25.750699040172815],[71.04906260698947,25.735603812686577],[71.06992790122924,25.71465506709038],[71.10374185763472,25.70214601407127],[71.11218319954367,25.69329793345695],[71.14374286282975,25.692146828866758],[71.15098194863913,25.68387653265968],[71.16520457271754,25.681371547766098],[71.18098259682543,25.663876530931248],[71.19651209828565,25.659590005169864],[71.19786239517492,25.569435383194648],[71.20768334334313,25.55792787528844],[71.20843105189965,25.53668613678687],[71.21715410240134,25.529377503880962],[71.21907325630715,25.515603800354533],[71.25993776923475,25.474655058039648],[71.27376323775447,25.472145995277213],[71.28218813233785,25.463297992581964],[71.3037640582373,25.462146459537603],[71.31523529662852,25.452786992369248],[71.41544692965816,25.45278699574546],[71.42852417436717,25.462626392041596],[71.46849372299728,25.46329786411169],[71.4769189960624,25.47214602123895],[71.49074444094826,25.474655056016733],[71.50546231081695,25.49137156148115],[71.52074526059,25.494655057405872],[71.56160991409705,25.535603798738148],[71.56352937818448,25.54937798906835],[71.57225222323899,25.55668613055438],[71.57353066474259,25.569378448747024],[71.58225329926559,25.57668613919527],[71.58225796170579,25.6624776408818],[71.57335058870488,25.67018757581618],[71.57161717422699,25.683560003760476],[71.5539923684312,25.69901063450984],[71.55226065600128,25.712477655302514],[71.54335374468482,25.72018643217344],[71.54226173641268,25.732477657873826],[71.5333550088233,25.74018597391653],[71.53162057836155,25.75356001234672],[71.50283231591311,25.78275090083804],[71.50440514821688,25.790699953330904],[71.51226515587838,25.7966861508103],[71.51354619406978,25.809383947518597],[71.53162397470092,25.8256038171013],[71.5335481455936,25.83938464204049],[71.54226786638588,25.846686157370037],[71.54354944789259,25.859385104722346],[71.5522689534544,25.866686163206065],[71.55263430806941,25.916683793995105],[71.551652,25.9165592],[71.5452906,25.9168337],[71.5386128,25.9184683],[71.5372088,25.9178584],[71.5335059,25.9161523],[71.5307808,25.9156698],[71.5265942,25.9186807],[71.5231204,25.9189508],[71.521039,25.9200122],[71.5202021,25.9219228],[71.5193224,25.9221544],[71.5186113,25.9227496],[71.5169835,25.9267281],[71.5135381,25.9348339],[71.5115976,25.9381134],[71.5089583,25.9401395],[71.5081967,25.9417796],[71.5081359,25.9478397],[71.5052247,25.9485715],[71.4994402,25.9493333],[71.4917491,25.9516631],[71.4856767,25.9537423],[71.482105,25.9532028],[71.4770657,25.9522286],[71.4708605,25.9514221],[71.4658571,25.9506629],[71.4574338,25.9502155],[71.450331,25.9499059],[71.4491475,25.9549328],[71.4478193,25.9615807],[71.4438128,25.966514],[71.4438813,25.9703033],[71.445965,25.9789039],[71.4481687,25.9882535],[71.4509367,25.9961433],[71.4538954,26.001761],[71.4567947,26.0116545],[71.4585927,26.0176075],[71.4669268,26.0356685],[71.46771019393705,26.03699002023359],[71.45850823519062,26.045865755915447],[71.4374218685515,26.04685121939073],[71.42720155352275,26.056222072839855],[71.39742275276912,26.056851694184534],[71.38720373813645,26.06622171919657],[71.25523093686202,26.066377516897216],[71.24456891236868,26.05742762301556],[71.23096925786005,26.05528724555896],[71.22456955483194,26.04742749449476],[71.21096958531467,26.045287245491387],[71.17457302286893,26.00742747870295],[71.16097089767311,26.00528724415283],[71.13326619976327,25.986851206053913],[71.11217532495571,25.985865753435448],[71.1045756753226,25.977427493242445],[71.09097187897233,25.975287240229527],[71.03905331342614,25.923560022429157],[71.0373164054931,25.91018204662715],[71.02801529142995,25.90130327215174],[71.02731831763776,25.880182737333758],[71.0180170218883,25.871303262894784],[71.01784889720348,25.799435404692314]]]}},{"type":"Feature","properties":{"zone":"High Fire Zone","color":"#FF8C00","opacity":0.5,"fill":"#FF8C00","fill-opacity":0.5,"stroke":"#FF8C00","stroke-width":1,"stroke-opacity":0.8},"geometry":{"type":"Polygon","coordinates":[[[71.06784771675787,25.819435398124536],[71.07713600596128,25.8093839484378],[71.07905968748366,25.795603813607936],[71.08713730568527,25.7893834863178],[71.08906066156521,25.775603811702915],[71.11097967903636,25.75387653610572],[71.12373720522406,25.752146003898073],[71.13218190273035,25.74329799820723],[71.15373817664226,25.742146411019704],[71.18218234973423,25.723297994861973],[71.20374004651892,25.722146407571124],[71.21098097810905,25.713876530017437],[71.22650858916155,25.70958999828773],[71.22842244996728,25.696686141199173],[71.23767553551448,25.687930852411387],[71.23842352855775,25.676686140926595],[71.24767674292976,25.66793039306416],[71.24842890744243,25.576686141114624],[71.25715152933469,25.569378416562603],[71.2590713295242,25.555603802741146],[71.30098744610628,25.51387652972166],[71.3137594167173,25.51214604422185],[71.32523546525242,25.502786992641404],[71.4284936705381,25.503297523812765],[71.43692276361745,25.512146468534517],[71.4584951906015,25.513297996711565],[71.46692358736622,25.522146006216143],[71.48074648586713,25.524655057405916],[71.49225114919551,25.53668613064423],[71.49438789791766,25.55069443882881],[71.52225329726924,25.576686138165634],[71.52225796085061,25.662477647148886],[71.51335058879735,25.670187586787304],[71.51161717415754,25.683560008913982],[71.49399236854693,25.699010643724154],[71.49226065573383,25.71247765886874],[71.4833537450752,25.72018644201494],[71.48226173614088,25.73247766091231],[71.47335500935246,25.74018598337963],[71.47162057799538,25.753560015772525],[71.4429646828762,25.78144637138048],[71.44354489352476,25.789383477937466],[71.45226515594682,25.79668614718997],[71.4535461945681,25.809383939641613],[71.46226623964476,25.816686148932792],[71.46354749530465,25.82938440165038],[71.47226732450936,25.83668615153344],[71.47354944664708,25.859385094580826],[71.48266496106382,25.8678605771951],[71.48266748643272,25.911303268923945],[71.47297310945874,25.921443133841333],[71.47171509639213,25.951533173291796],[71.4708605,25.9514221],[71.4658571,25.9506629],[71.4574338,25.9502155],[71.450331,25.9499059],[71.4491475,25.9549328],[71.4478193,25.9615807],[71.4438128,25.966514],[71.4438813,25.9703033],[71.445965,25.9789039],[71.44600826229197,25.97908744818033],[71.41971130135863,26.0052872444791],[71.40610915723225,26.00742749178619],[71.39971162871223,26.01528724499988],[71.38610988133001,26.017427574765634],[71.3772023597679,26.02622187582853],[71.28347985034432,26.02622187717778],[71.27457231933013,26.017427579277093],[71.2609705773494,26.015287245059504],[71.25457304382512,26.00742749706036],[71.24097090446911,26.005287245224725],[71.23457391529907,25.99742749588789],[71.22097123158782,25.99528724516934],[71.21457478630178,25.987427494521228],[71.20097155870569,25.985287244893335],[71.19457565683349,25.977427492960366],[71.18097188582279,25.97528724439668],[71.1745765268945,25.96742749120534],[71.1609722129392,25.965287243679388],[71.12574992120021,25.928207887622985],[71.11097352309581,25.925287240633516],[71.08905429493026,25.90356002234516],[71.08731767672973,25.890182520248768],[71.07801644605394,25.881303267991196],[71.07731958674908,25.860183210874137],[71.06801817632262,25.851303264930216],[71.06784771675787,25.819435398124536]]]}},{"type":"Feature","properties":{"zone":"Very High Fire Zone","color":"#FF0000","opacity":0.55,"fill":"#FF0000","fill-opacity":0.55,"stroke":"#FF0000","stroke-width":1,"stroke-opacity":0.8},"geometry":{"type":"MultiPolygon","coordinates":[[[[71.12784771697001,25.81943539742684],[71.16348791935503,25.782941412574267],[71.30849915435206,25.783297252949886],[71.33548817686778,25.811371540909963],[71.34970447232067,25.813876529334788],[71.35856263403099,25.82262549033522],[71.37970465937828,25.823876449313122],[71.4107601897616,25.854655145648938],[71.41355010004519,25.8693853174716],[71.42266553712057,25.87786057083357],[71.42266690750486,25.901303267279026],[71.41336579768748,25.9101820729533],[71.41162888230427,25.92356002407902],[71.40336707197875,25.93018161193213],[71.4016298628042,25.943560024426127],[71.37970998254787,25.96528724506959],[71.36610556506804,25.96742755420816],[71.35720131970956,25.9762219549958],[71.28217481302624,25.97586548591808],[71.25457739938813,25.95742749650725],[71.24097254635878,25.955287245088517],[71.2345782689647,25.947427495332864],[71.22097287311992,25.94528724482462],[71.20458000405704,25.927427893455345],[71.18097338814684,25.925287162426727],[71.13992057225258,25.884508726022045],[71.13731894845645,25.870182988854854],[71.12801760019413,25.861303265023224],[71.12784771697001,25.81943539742684]]],[[[71.29786122610608,25.58943538841263],[71.32993449476278,25.55465506068286],[71.34375581084403,25.55214600224856],[71.35218656742035,25.54329792059177],[71.39719383480092,25.542941797930947],[71.40692636902692,25.552146422764636],[71.42849607151716,25.553297994764648],[71.43692729632069,25.562146001641317],[71.44969637611639,25.563876530671084],[71.47074904031948,25.58465514190987],[71.47353260040748,25.59937911641355],[71.48265004557953,25.607860554183787],[71.4826513994668,25.631303248231927],[71.47334869742663,25.640188282646847],[71.4716162045612,25.66356001210877],[71.4197018165722,25.715287241747806],[71.40608393957811,25.717427541658036],[71.3971982113724,25.726221993049148],[71.33348398658946,25.726221995088608],[71.30906405339631,25.703560022398097],[71.30733034768073,25.690187145030478],[71.29802794165745,25.681303262223253],[71.29786122610608,25.58943538841263]]]]}},{"type":"Feature","properties":{"name":"Barmer District Boundary","stroke":"#FFFFFF","stroke-width":2,"stroke-opacity":0.9,"fill":"none","fill-opacity":0},"bbox":[70.0853411,24.6495821,71.9464588,26.5134184],"geometry":{"type":"Polygon","coordinates":[[[70.0853411,26.0819078],[70.0863912,26.068414],[70.0867633,26.0638142],[70.0876781,26.0544755],[70.0877487,26.050714],[70.0885187,26.0478376],[70.088755,26.0431543],[70.0897922,26.036264],[70.0916755,26.0205815],[70.0927005,26.0196783],[70.0938171,26.0186943],[70.094195,26.0156336],[70.0951015,26.0082905],[70.0959361,26.0015294],[70.0935553,25.998089],[70.095273,25.9827797],[70.0960877,25.9758197],[70.0971018,25.9656459],[70.0981124,25.9576266],[70.0988303,25.9508406],[70.0988478,25.9506757],[70.1002935,25.9424989],[70.1010293,25.9388802],[70.10134,25.9383967],[70.1065993,25.9304858],[70.1142386,25.9191023],[70.1144721,25.9187789],[70.1171743,25.9150357],[70.1179333,25.9139889],[70.1230866,25.9065481],[70.1278389,25.8993961],[70.1286644,25.8981691],[70.131955,25.893278],[70.1331942,25.8915844],[70.1385431,25.8835744],[70.1410342,25.8799399],[70.1444096,25.8750716],[70.1463621,25.8722993],[70.1495105,25.8673897],[70.1505435,25.865787],[70.1542896,25.8599998],[70.1569776,25.8562235],[70.1584111,25.8542839],[70.1620165,25.8486356],[70.1643122,25.8452796],[70.1690344,25.8381165],[70.1698381,25.8350386],[70.1743785,25.8283566],[70.1814591,25.8242818],[70.1883149,25.8209793],[70.1971529,25.8154582],[70.2023117,25.8110798],[70.2048835,25.8089147],[70.2145421,25.8002325],[70.2224741,25.7931023],[70.2233546,25.7919607],[70.2291367,25.7846383],[70.2371402,25.7745029],[70.2469594,25.7621266],[70.2523888,25.7560869],[70.2600041,25.7324853],[70.2634454,25.7210789],[70.2694211,25.7139835],[70.2954187,25.7031864],[70.3035909,25.7001198],[70.3119266,25.6970059],[70.3165371,25.6951836],[70.3238811,25.6925824],[70.3334378,25.6891446],[70.3397423,25.6868684],[70.3508388,25.6827895],[70.3579819,25.6802381],[70.3650655,25.6787164],[70.3696911,25.6777021],[70.3741901,25.6766602],[70.3812995,25.6750482],[70.3870233,25.6737397],[70.400178,25.6754589],[70.4156996,25.6775208],[70.4293873,25.6793391],[70.4370319,25.6804084],[70.4488251,25.6818896],[70.4637827,25.6826651],[70.4798764,25.6835812],[70.4833852,25.6837999],[70.489762,25.6841203],[70.497496,25.6845177],[70.5015084,25.6847416],[70.5084709,25.6843859],[70.5140388,25.6840854],[70.5284412,25.6834589],[70.5301665,25.6833728],[70.532949,25.6845258],[70.5375223,25.6863917],[70.5448014,25.6893532],[70.5497542,25.6911714],[70.5526474,25.6921906],[70.5551705,25.6934575],[70.5598798,25.6957981],[70.5730328,25.7014958],[70.5869668,25.7075317],[70.5902715,25.7089722],[70.5938556,25.7105161],[70.5997715,25.7122561],[70.6041708,25.7135409],[70.6086103,25.714852],[70.6132836,25.7147356],[70.6277483,25.7139669],[70.6321602,25.7136358],[70.6367818,25.713301],[70.6393155,25.713099],[70.6426842,25.7129218],[70.6448097,25.7127605],[70.6469726,25.7120523],[70.6510447,25.7094034],[70.6547972,25.7064147],[70.6597625,25.7023466],[70.6601499,25.7020206],[70.6611095,25.7001846],[70.6628319,25.6969073],[70.6646004,25.6935187],[70.6670369,25.6888753],[70.6694106,25.6844325],[70.6706911,25.6820374],[70.6726895,25.6783057],[70.6740233,25.6758045],[70.673993,25.6715993],[70.6739431,25.6639469],[70.673899,25.6591046],[70.6737881,25.6538153],[70.6737561,25.6515554],[70.6736304,25.6446355],[70.6723403,25.6400677],[70.6709595,25.6350588],[70.6702643,25.6324967],[70.6706295,25.6262584],[70.6708374,25.622753],[70.6710805,25.6183626],[70.6715133,25.6110092],[70.6694664,25.5928798],[70.6694169,25.5873453],[70.6694027,25.585106],[70.6693591,25.5787008],[70.6692742,25.5740083],[70.6691094,25.5699919],[70.6689235,25.5649689],[70.668768,25.5611327],[70.6686903,25.5591945],[70.6685457,25.5554438],[70.6683212,25.5499574],[70.6679301,25.5422664],[70.6674918,25.5354645],[70.6672296,25.5312741],[70.671877,25.5289068],[70.6785568,25.5255422],[70.678202,25.5215875],[70.6770747,25.5090122],[70.6766467,25.5045685],[70.6759146,25.4968562],[70.6755319,25.4928263],[70.675089,25.488192],[70.6741781,25.4785685],[70.6733635,25.4720383],[70.6723543,25.4662283],[70.6714325,25.4609638],[70.6724267,25.4588101],[70.6728709,25.457804],[70.6727838,25.4546277],[70.6727179,25.4523462],[70.6724405,25.4436396],[70.6724113,25.4415498],[70.6723067,25.434546],[70.6722639,25.4317885],[70.6721785,25.4280807],[70.6721191,25.4254863],[70.6720002,25.4203217],[70.6705221,25.4154064],[70.6688695,25.4100454],[70.667373,25.4050658],[70.6655604,25.3992786],[70.6648231,25.3968936],[70.6675718,25.3941912],[70.6709664,25.3908427],[70.6751001,25.3867637],[70.6804843,25.3815906],[70.687165,25.3751853],[70.6894847,25.3731067],[70.692049,25.3707901],[70.6938587,25.3691541],[70.6954517,25.3677274],[70.6986958,25.3647939],[70.7025073,25.3615069],[70.7062977,25.358241],[70.7088354,25.3560545],[70.71071,25.3544287],[70.7146951,25.351028],[70.7174215,25.3486898],[70.7206329,25.3459368],[70.7225279,25.3443088],[70.7264781,25.3410292],[70.7316423,25.3367221],[70.7367863,25.332444],[70.7372702,25.3308208],[70.7395797,25.3226015],[70.740757,25.3184062],[70.7422255,25.3127269],[70.7428632,25.3102808],[70.7456739,25.2994566],[70.7466849,25.2958805],[70.7473297,25.2934519],[70.7476782,25.2922305],[70.7485022,25.2891957],[70.7489634,25.2875225],[70.7501068,25.2834028],[70.7516714,25.2777077],[70.759785,25.2699967],[70.7619514,25.2679297],[70.7648323,25.2650777],[70.7740908,25.2559429],[70.7777397,25.2524887],[70.7833866,25.2471286],[70.7845741,25.2460215],[70.7875829,25.2431578],[70.7888506,25.2419632],[70.7954115,25.2357396],[70.7982291,25.2330986],[70.8003691,25.2311027],[70.8050187,25.2267768],[70.8090008,25.2230488],[70.8146906,25.2176758],[70.8185101,25.2140633],[70.8230712,25.2096196],[70.8311813,25.2016921],[70.834324,25.1985372],[70.8376863,25.1951448],[70.8421874,25.1906335],[70.8462614,25.1872033],[70.8535437,25.180108],[70.8584755,25.175528],[70.8618438,25.1724073],[70.8627956,25.1715255],[70.864044,25.1703704],[70.8677191,25.1670401],[70.8764402,25.15916],[70.8811467,25.1548669],[70.8869022,25.1496181],[70.8881581,25.1484338],[70.888493,25.1481038],[70.8887134,25.1471922],[70.8911068,25.1364448],[70.8916802,25.1338519],[70.8922011,25.1307666],[70.8951928,25.1132629],[70.8978681,25.0976104],[70.9018054,25.0766138],[70.9056341,25.0575227],[70.9075078,25.0481801],[70.9088646,25.0414146],[70.9123755,25.026329],[70.9139155,25.0198955],[70.9160749,25.0104332],[70.9169321,25.0069999],[70.9177263,25.0038837],[70.9198564,24.9956506],[70.921811,24.9892331],[70.9222448,24.9877917],[70.9245589,24.9801793],[70.9253469,24.9776922],[70.9279367,24.9693733],[70.9289461,24.966129],[70.9299204,24.9630733],[70.9324051,24.9553395],[70.9334635,24.9520862],[70.9348079,24.947759],[70.9377056,24.9386122],[70.9392376,24.9354607],[70.9407742,24.9322562],[70.9422047,24.9292726],[70.9433841,24.9268353],[70.9440225,24.9255288],[70.9445845,24.9248013],[70.9462054,24.9228015],[70.9498498,24.9183009],[70.9554884,24.9123614],[70.9581174,24.9089593],[70.9607705,24.9055244],[70.9625176,24.9032463],[70.9672732,24.8970126],[70.9704589,24.8927777],[70.9743489,24.8876412],[70.9816681,24.8779639],[70.9831789,24.8759557],[70.99091,24.865171],[70.9941748,24.8599067],[71.0006937,24.8491237],[71.0049102,24.8427119],[71.0077974,24.8383539],[71.0092928,24.8351863],[71.0158779,24.8232833],[71.018158,24.8192031],[71.0208739,24.8158954],[71.0240314,24.8120543],[71.0266801,24.8088347],[71.0287942,24.802176],[71.0317747,24.7939735],[71.0372625,24.7808981],[71.0402987,24.7742395],[71.0426369,24.7690782],[71.0452677,24.7632708],[71.0472412,24.7589255],[71.0488926,24.7552448],[71.0496465,24.7535659],[71.0519894,24.7483397],[71.0533547,24.7452933],[71.0540391,24.7437662],[71.0545927,24.742495],[71.0568348,24.7373347],[71.061739,24.7260876],[71.064304,24.7202244],[71.0655416,24.7173927],[71.069228,24.7140703],[71.0762381,24.7077472],[71.0777668,24.7063697],[71.0823325,24.7022246],[71.0870858,24.6979201],[71.0892,24.6960024],[71.0947638,24.6910085],[71.0980676,24.6893638],[71.0983465,24.6890858],[71.1057612,24.6831015],[71.1178036,24.6710594],[71.1876702,24.6495821],[71.2063192,24.6900914],[71.2102675,24.6981235],[71.2206101,24.7071297],[71.2298798,24.7142641],[71.2391066,24.7207743],[71.2488913,24.7318058],[71.2588477,24.7413553],[71.2612509,24.7455257],[71.2658,24.7482149],[71.2615943,24.7487995],[71.257646,24.7551131],[71.2517237,24.7745195],[71.2453722,24.7997666],[71.2544274,24.7950526],[71.2635684,24.8052206],[71.2687611,24.8073242],[71.2761426,24.8121156],[71.2798333,24.8143749],[71.2867856,24.8168289],[71.2846827,24.8252033],[71.2887597,24.8272287],[71.2902832,24.8269171],[71.2972784,24.8248333],[71.303544,24.822321],[71.3086939,24.826956],[71.3129425,24.831182],[71.3178348,24.8361087],[71.3191652,24.8400423],[71.3223195,24.8417753],[71.3256883,24.8432552],[71.3282847,24.8463707],[71.3294434,24.8497781],[71.329422,24.8533413],[71.3282203,24.8567875],[71.3283062,24.8575273],[71.3287139,24.8591628],[71.3280916,24.861246],[71.3263535,24.8667362],[71.3270402,24.868683],[71.3227701,24.8715253],[71.3168478,24.8772291],[71.3112902,24.8829911],[71.3074064,24.8860472],[71.3056254,24.8880716],[71.3079858,24.8902127],[71.3100672,24.8968694],[71.3112902,24.8995359],[71.3173198,24.9041486],[71.322062,24.9012097],[71.3252377,24.9000225],[71.3270616,24.8992829],[71.3293147,24.8959741],[71.3365888,24.9016574],[71.3423395,24.9075155],[71.3465881,24.9116024],[71.3460517,24.9174017],[71.3431334,24.9182385],[71.3416958,24.9242321],[71.3396573,24.9257499],[71.3391208,24.9387089],[71.3422107,24.9405573],[71.3429618,24.9434563],[71.3485837,24.9421139],[71.3488412,24.9421333],[71.3555789,24.947153],[71.3571024,24.946258],[71.3673806,24.9540401],[71.3730669,24.9578531],[71.3784528,24.9602264],[71.3818002,24.9640004],[71.3837528,24.9659651],[71.3876581,24.9747574],[71.3999748,24.9706726],[71.4113688,24.9721703],[71.413815,24.9697],[71.4211321,24.9767608],[71.4245653,24.975302],[71.4255309,24.9755743],[71.4308738,24.9778306],[71.4365601,24.9782586],[71.44068,24.9809816],[71.4435124,24.9835296],[71.4463877,24.986058],[71.4522242,24.9872834],[71.4550352,24.9891116],[71.4608502,24.9926123],[71.4634251,24.9950239],[71.4654851,24.9966575],[71.4748406,24.9979994],[71.4765358,24.9963464],[71.4781236,24.9960547],[71.4791751,24.9941876],[71.4799046,24.9930985],[71.4825225,24.9917372],[71.4837456,24.9880224],[71.4904189,24.9917955],[71.490097,24.9968715],[71.4907732,25.0001265],[71.4905262,25.0053504],[71.4992793,25.0073414],[71.5021992,25.008559],[71.5057611,25.0093757],[71.5082502,25.0093952],[71.5108037,25.0091424],[71.5134001,25.0089479],[71.5146875,25.0087924],[71.5179491,25.0064005],[71.5219188,25.0026668],[71.525824,24.9987579],[71.5264034,24.9956268],[71.5277552,24.9885086],[71.5273261,24.9868749],[71.5268326,24.9859802],[71.5255236,24.9847549],[71.5260386,24.9840158],[71.5253949,24.9833545],[71.5263819,24.9814873],[71.5288496,24.9775194],[71.5294504,24.9765663],[71.5304804,24.9735514],[71.5323043,24.9722287],[71.5344929,24.9738043],[71.5393638,24.9773833],[71.5417242,24.9780252],[71.5445995,24.9783947],[71.5459299,24.9786281],[71.5473032,24.9791144],[71.5477967,24.9795617],[71.5480113,24.9798146],[71.5494704,24.9796201],[71.551187,24.9801258],[71.5537834,24.980826],[71.5570235,24.9832378],[71.5583539,24.9852995],[71.5602207,24.9875556],[71.5636325,24.9912315],[71.5663576,24.9947127],[71.567173,24.9974549],[71.5675807,24.9992052],[71.5669584,24.9997691],[71.5665507,25.0006637],[71.5669584,25.0016944],[71.5675592,25.002589],[71.5730309,25.0075673],[71.5790391,25.0136732],[71.5840173,25.0193705],[71.5872788,25.0225981],[71.5908837,25.0248925],[71.5938449,25.0261952],[71.5989518,25.027459],[71.6059685,25.0294616],[71.6149807,25.032028],[71.6218042,25.0324751],[71.6293788,25.0334667],[71.6341543,25.0340647],[71.6388845,25.0302004],[71.6418028,25.0279062],[71.6431546,25.0265646],[71.6440558,25.0252036],[71.6453004,25.0252813],[71.6463303,25.0253786],[71.6473818,25.025048],[71.6517162,25.0220537],[71.6523814,25.0212954],[71.6553211,25.0150343],[71.6577458,25.0123509],[71.6640973,25.0039697],[71.6653418,25.0028223],[71.6653847,25.0013055],[71.6660929,25.0000414],[71.6672301,24.9991274],[71.6678309,24.998719],[71.6685819,24.9991468],[71.6696977,24.9979411],[71.6690969,24.996852],[71.6722727,24.994246],[71.6739464,24.9938765],[71.6784525,24.9905119],[71.6826153,24.9870111],[71.6848469,24.988178],[71.6866064,24.9901424],[71.6879797,24.9911342],[71.6922712,24.9936431],[71.6952538,24.9974549],[71.6988158,25.0010332],[71.7022919,25.0051948],[71.7042017,25.0083451],[71.7066479,25.0130509],[71.708343,25.0152288],[71.7106175,25.0168038],[71.7117548,25.0177955],[71.7126131,25.0196816],[71.7136216,25.0214899],[71.7176342,25.0210815],[71.7183852,25.0210038],[71.7194795,25.020751],[71.7210674,25.0229287],[71.7218399,25.0231426],[71.7246294,25.0242703],[71.7276335,25.0263507],[71.727612,25.0281978],[71.727612,25.0297727],[71.7276764,25.0314058],[71.7279982,25.0322418],[71.7288351,25.0339527],[71.7282986,25.0353914],[71.727333,25.0358969],[71.7274189,25.0367718],[71.7277407,25.0377244],[71.7273974,25.0393769],[71.7269039,25.0420403],[71.7269039,25.0433428],[71.7283201,25.0490776],[71.7300367,25.0504578],[71.7319035,25.0514492],[71.7332983,25.0524794],[71.733706,25.0533153],[71.735723,25.0577667],[71.7378044,25.0606435],[71.7381263,25.0648614],[71.7381906,25.0678741],[71.7429328,25.0681657],[71.7448425,25.0687293],[71.7467308,25.0691569],[71.7495417,25.0694485],[71.7527175,25.0698566],[71.7572665,25.0717808],[71.7615366,25.0741714],[71.763339,25.0741908],[71.7647767,25.0738993],[71.7656994,25.0737049],[71.7667293,25.0736077],[71.7674589,25.0742297],[71.7686391,25.073083],[71.7697978,25.0720335],[71.7724585,25.0680879],[71.7756986,25.0656389],[71.7771363,25.0654834],[71.7790031,25.0653668],[71.7805266,25.0653668],[71.782093,25.0653668],[71.7843675,25.0658138],[71.7862558,25.0658916],[71.7893028,25.0613238],[71.7922425,25.0571447],[71.7944956,25.0547343],[71.7962336,25.053082],[71.7969632,25.0522462],[71.7988515,25.0528293],[71.8008685,25.0538013],[71.8017697,25.0545788],[71.8020272,25.0552592],[71.8014478,25.0558812],[71.8009114,25.0568531],[71.8009543,25.0574946],[71.8013835,25.058],[71.8017268,25.058447],[71.8011045,25.0591468],[71.8014908,25.0599826],[71.8023062,25.0603908],[71.8030786,25.0608962],[71.8034005,25.0615182],[71.8032074,25.0623151],[71.8024134,25.0633453],[71.8015337,25.0650169],[71.8031215,25.0673105],[71.8042588,25.0685738],[71.8047094,25.0690986],[71.8004608,25.0729275],[71.7987871,25.073977],[71.7962765,25.0754735],[71.7942381,25.0764064],[71.792736,25.0770672],[71.7918348,25.0776892],[71.7911911,25.0784665],[71.7963195,25.0868815],[71.7980146,25.0895828],[71.8053317,25.0973557],[71.8010831,25.101825],[71.7999887,25.1049145],[71.8022203,25.1100441],[71.8050527,25.1148237],[71.8084859,25.1171163],[71.8137216,25.11937],[71.8168115,25.1203414],[71.8181634,25.1206134],[71.8194294,25.1207106],[71.8203735,25.1206717],[71.8227338,25.1200694],[71.8239701,25.1230857],[71.8239784,25.1258589],[71.8252659,25.1277627],[71.8281197,25.1322891],[71.8323469,25.1377672],[71.8344283,25.1404285],[71.8344712,25.1410695],[71.8336558,25.1423127],[71.8367457,25.150296],[71.8387198,25.1528987],[71.8362093,25.1561034],[71.8366384,25.1591916],[71.8372822,25.1615222],[71.838398,25.1652899],[71.8405223,25.1741262],[71.8412304,25.1778158],[71.8407798,25.1786314],[71.8414235,25.1806315],[71.8426251,25.1855443],[71.8468523,25.2014465],[71.8519163,25.2061837],[71.8554782,25.2088241],[71.8598985,25.2098724],[71.8634176,25.2114644],[71.8723869,25.216473],[71.877408,25.2196955],[71.8791675,25.2217143],[71.8797254,25.2232673],[71.8798971,25.2243155],[71.8801975,25.2254026],[71.8879652,25.2304882],[71.8944454,25.2351079],[71.8964195,25.2384852],[71.8994236,25.2437644],[71.8960332,25.2449289],[71.8889951,25.2503631],[71.8870639,25.2534682],[71.8858194,25.2558747],[71.8900251,25.2569226],[71.8926858,25.2582423],[71.8965482,25.2627444],[71.9000244,25.2656552],[71.9032001,25.2677121],[71.9057321,25.2682943],[71.9081783,25.269148],[71.9162035,25.2725244],[71.9316959,25.279626],[71.9341421,25.2807514],[71.9346141,25.2923147],[71.9374036,25.2997256],[71.9463729,25.3149727],[71.9464588,25.31699],[71.9445276,25.3184253],[71.9403004,25.321102],[71.9379186,25.3235459],[71.9356656,25.3254854],[71.9336486,25.3266298],[71.9306445,25.3259703],[71.9287777,25.3265328],[71.9243574,25.3293451],[71.9210315,25.3323318],[71.9173407,25.3374518],[71.9174051,25.3392942],[71.9179415,25.3404578],[71.918242,25.3412335],[71.9168257,25.3430758],[71.9168901,25.3444721],[71.9172549,25.3451508],[71.9167614,25.3458101],[71.9172978,25.3467216],[71.9132218,25.3493444],[71.893331,25.3507729],[71.8772602,25.3513681],[71.8712008,25.3429159],[71.8607943,25.3196989],[71.8320778,25.3272002],[71.8349758,25.3401777],[71.833922,25.3557726],[71.8265452,25.3666045],[71.8229886,25.3827911],[71.8248328,25.3911216],[71.7990142,25.3973095],[71.7834704,25.4036162],[71.7693756,25.3861234],[71.7465868,25.4114693],[71.7368389,25.4184891],[71.7299891,25.4200357],[71.7260373,25.4158716],[71.7180019,25.3986185],[71.7148405,25.3856473],[71.7037754,25.3861234],[71.6978477,25.4102795],[71.6837528,25.4400217],[71.6948179,25.4437093],[71.7097031,25.4256274],[71.7222172,25.4395459],[71.7019312,25.455128],[71.6911296,25.4501324],[71.6817769,25.4620263],[71.6641255,25.4523924],[71.6587247,25.4558416],[71.6527969,25.4588151],[71.6543777,25.4617884],[71.6562218,25.4726108],[71.6510845,25.4865239],[71.6398877,25.5064988],[71.6371214,25.5173172],[71.639756,25.5280752],[71.6410947,25.5303793],[71.6463803,25.5333721],[71.6532182,25.5375432],[71.6634106,25.5416477],[71.6685176,25.5422672],[71.6712856,25.5435063],[71.6756844,25.5451713],[71.6787529,25.548869],[71.6802764,25.5508824],[71.6804909,25.5571739],[71.6807914,25.5581225],[71.6861987,25.5641233],[71.6888165,25.5654396],[71.6925287,25.5678592],[71.6969275,25.5713433],[71.701498,25.5750208],[71.7039871,25.5764338],[71.7087936,25.5776531],[71.7129135,25.5790467],[71.7147159,25.5798208],[71.7164969,25.5831498],[71.713686,25.5864012],[71.711111,25.5904653],[71.7086434,25.5956324],[71.7057252,25.6000833],[71.7034936,25.604147],[71.6974211,25.6131446],[71.6951895,25.6166468],[71.6937303,25.6222771],[71.6936445,25.6229929],[71.6967988,25.6256822],[71.699996,25.6271719],[71.7042017,25.6300159],[71.7079997,25.6333821],[71.7129993,25.626843],[71.7151236,25.6275782],[71.7198443,25.6300159],[71.7243504,25.6313894],[71.7274403,25.6327243],[71.7293501,25.6346782],[71.7329979,25.6343107],[71.7366671,25.6326856],[71.7422032,25.6382378],[71.743598,25.6391277],[71.7490053,25.6417198],[71.7535231,25.6416076],[71.7576415,25.6391891],[71.7623174,25.6377632],[71.7663744,25.6359654],[71.7704314,25.6335476],[71.7753135,25.6305099],[71.7788892,25.6291459],[71.7845277,25.6323697],[71.7961017,25.6430936],[71.7958253,25.6490746],[71.7968758,25.6538092],[71.8041184,25.6627797],[71.8097025,25.6672647],[71.8091496,25.6696068],[71.8063852,25.6723973],[71.8008012,25.6760846],[71.7890249,25.6838576],[71.7768616,25.6878934],[71.7691767,25.6903845],[71.759833,25.6925767],[71.7509794,25.6947699],[71.7435557,25.6955959],[71.7286995,25.698495],[71.7227324,25.699382],[71.7146021,25.7007634],[71.7061269,25.7028104],[71.7006644,25.7063444],[71.7026376,25.7099852],[71.7098415,25.7223757],[71.7122483,25.7297434],[71.7143866,25.7378559],[71.7193277,25.7528089],[71.7213464,25.7599526],[71.7240758,25.7674684],[71.7264458,25.7737631],[71.7278537,25.7777098],[71.7228994,25.7820939],[71.7172027,25.7868325],[71.7116904,25.79141],[71.7075697,25.7947317],[71.7057466,25.7934772],[71.7007255,25.7930715],[71.6973752,25.7934746],[71.695404,25.7965269],[71.6941812,25.7975223],[71.6864619,25.8006866],[71.683296,25.8013946],[71.6806771,25.8009566],[71.6786764,25.8030402],[71.6742407,25.8076488],[71.6719221,25.8099679],[71.6668031,25.8064621],[71.6634678,25.8042894],[71.6591652,25.8016976],[71.6555605,25.8022331],[71.6542674,25.8032397],[71.6498106,25.8058169],[71.6463275,25.8074595],[71.6452259,25.8079844],[71.6436481,25.8089707],[71.6417396,25.8141622],[71.6354911,25.8189566],[71.6340351,25.8198265],[71.633842,25.8221057],[71.6322541,25.8209082],[71.6311168,25.8213524],[71.6300774,25.8199577],[71.6263747,25.8232067],[71.6248512,25.8223182],[71.6236897,25.8226761],[71.6162703,25.8205231],[71.6124487,25.8241531],[71.609509,25.8263163],[71.6083712,25.8332678],[71.6064098,25.8357274],[71.603756,25.8394594],[71.6004109,25.8399129],[71.5989294,25.8405361],[71.5980389,25.8435534],[71.5886791,25.849799],[71.5816559,25.8478613],[71.5778696,25.8445284],[71.5769939,25.8462318],[71.5757968,25.8451898],[71.5725152,25.8487294],[71.5695238,25.8529868],[71.5660796,25.8581288],[71.5637937,25.8613323],[71.5612195,25.8655528],[71.5684272,25.8708538],[71.5742819,25.874591],[71.5840602,25.8804423],[71.5868734,25.8815981],[71.5903044,25.884149],[71.5926647,25.8853073],[71.5940236,25.8860776],[71.5969027,25.8901809],[71.5996728,25.8866499],[71.6007024,25.8877385],[71.6022066,25.888788],[71.6073632,25.8905967],[71.6115374,25.8940677],[71.6178659,25.8987041],[71.6179633,25.9000745],[71.6178434,25.9101679],[71.6152167,25.9144539],[71.6164059,25.9154713],[71.6165065,25.9211499],[71.6167114,25.925733],[71.614454,25.9278466],[71.611967,25.9301918],[71.6078361,25.9337703],[71.6057624,25.9359227],[71.596944,25.9308199],[71.593607,25.9290471],[71.5902614,25.9267088],[71.5837902,25.9218487],[71.5762978,25.9170751],[71.5739643,25.9164728],[71.5716785,25.9132519],[71.5681906,25.914395],[71.5636314,25.915573],[71.5571701,25.9160412],[71.5548348,25.9169629],[71.551652,25.9165592],[71.5452906,25.9168337],[71.5386128,25.9184683],[71.5372088,25.9178584],[71.5335059,25.9161523],[71.5307808,25.9156698],[71.5265942,25.9186807],[71.5231204,25.9189508],[71.521039,25.9200122],[71.5202021,25.9219228],[71.5193224,25.9221544],[71.5186113,25.9227496],[71.5169835,25.9267281],[71.5135381,25.9348339],[71.5115976,25.9381134],[71.5089583,25.9401395],[71.5081967,25.9417796],[71.5081359,25.9478397],[71.5052247,25.9485715],[71.4994402,25.9493333],[71.4917491,25.9516631],[71.4856767,25.9537423],[71.482105,25.9532028],[71.4770657,25.9522286],[71.4708605,25.9514221],[71.4658571,25.9506629],[71.4574338,25.9502155],[71.450331,25.9499059],[71.4491475,25.9549328],[71.4478193,25.9615807],[71.4438128,25.966514],[71.4438813,25.9703033],[71.445965,25.9789039],[71.4481687,25.9882535],[71.4509367,25.9961433],[71.4538954,26.001761],[71.4567947,26.0116545],[71.4585927,26.0176075],[71.4669268,26.0356685],[71.473526,26.0468008],[71.4788889,26.0557664],[71.4818298,26.0595778],[71.484915,26.0634272],[71.4902687,26.069235],[71.4931074,26.0718753],[71.4981222,26.0760195],[71.5026384,26.0774056],[71.5091226,26.0779534],[71.513356,26.0768695],[71.5163863,26.0759728],[71.5152461,26.0773017],[71.5140684,26.0789436],[71.5116102,26.0814189],[71.5092103,26.0845053],[71.5067584,26.087678],[71.5086794,26.090994],[71.5094088,26.092391],[71.50854,26.094125],[71.5090012,26.0969101],[71.5100097,26.0986444],[71.5115435,26.101938],[71.5131211,26.1057162],[71.5176574,26.1094873],[71.5163827,26.1110535],[71.5180085,26.1161613],[71.5195675,26.1238584],[71.5206061,26.1249553],[71.5248007,26.1283029],[71.5350025,26.134533],[71.542874,26.1395539],[71.5462732,26.1416467],[71.5494767,26.1472937],[71.5570633,26.157172],[71.5657172,26.1687636],[71.5724436,26.1722778],[71.5751883,26.1734397],[71.5782437,26.1742763],[71.5803669,26.1762747],[71.5832491,26.1812217],[71.5884077,26.1910764],[71.592174,26.1988592],[71.5957375,26.2057041],[71.5986439,26.2078465],[71.6019559,26.2099708],[71.6067409,26.2103173],[71.6093159,26.2112029],[71.613325,26.215641],[71.617736,26.2176604],[71.6240346,26.2201119],[71.6285506,26.2279965],[71.6345074,26.2421149],[71.6379335,26.2492013],[71.6424432,26.2560966],[71.6480221,26.264336],[71.6517409,26.2706948],[71.6532182,26.2733292],[71.6555152,26.2757792],[71.6588224,26.2743879],[71.6630802,26.2722573],[71.6658827,26.2709358],[71.6672117,26.2701158],[71.6723903,26.2733199],[71.6833689,26.279635],[71.6903599,26.2842783],[71.6975582,26.2892928],[71.7033582,26.2933321],[71.7126131,26.2987822],[71.7180136,26.3007139],[71.7239689,26.3037692],[71.7267483,26.3048172],[71.7303586,26.3095543],[71.733135,26.3128302],[71.7428708,26.3256414],[71.7500222,26.3345554],[71.7556536,26.3484646],[71.757524,26.3504213],[71.7554758,26.3545036],[71.7519721,26.3624316],[71.7419028,26.3721085],[71.7388129,26.3748961],[71.7359474,26.3766797],[71.7311954,26.3776259],[71.7184126,26.3844019],[71.7184281,26.3850844],[71.7168188,26.3865261],[71.7159805,26.3854451],[71.7086967,26.3885694],[71.7044377,26.3916583],[71.7027211,26.3922349],[71.6991162,26.3901974],[71.6893474,26.3879148],[71.6862631,26.3872949],[71.6844821,26.3856034],[71.684215,26.3832249],[71.6835165,26.3817012],[71.6772079,26.38445],[71.6751265,26.383412],[71.6708779,26.3852958],[71.6695905,26.386603],[71.6626811,26.3906588],[71.6603422,26.3904665],[71.6593766,26.3911008],[71.6586853,26.3927462],[71.6507044,26.3995509],[71.64397,26.4041514],[71.6395497,26.4043052],[71.6344748,26.4047075],[71.6310524,26.4090138],[71.6285541,26.4119134],[71.6231345,26.417066],[71.6289496,26.4247718],[71.6317297,26.430019],[71.6284483,26.4310708],[71.6240928,26.4333958],[71.6224348,26.4375446],[71.6227402,26.4499706],[71.6209673,26.4622556],[71.6142817,26.4753896],[71.6132211,26.4811946],[71.6090584,26.4875517],[71.6042304,26.4855161],[71.6003895,26.4905286],[71.5978314,26.4944958],[71.594274,26.4978646],[71.5923214,26.5004378],[71.5848112,26.5027037],[71.5793825,26.50652],[71.5699884,26.5043415],[71.5655153,26.5011656],[71.5579165,26.4988817],[71.5537388,26.4961801],[71.5473676,26.4920265],[71.541591,26.4892351],[71.5368962,26.4887617],[71.5332055,26.4879743],[71.5259957,26.4873982],[71.5212965,26.4870524],[71.519494,26.486169],[71.5178847,26.4836722],[71.5174742,26.4812646],[71.5157977,26.4776626],[71.5120482,26.4713798],[71.5098291,26.4692358],[71.5019242,26.4648052],[71.4979291,26.462294],[71.4880115,26.4577044],[71.4817071,26.4619099],[71.4760718,26.46689],[71.4708066,26.4718408],[71.4683819,26.4732621],[71.4673519,26.4756247],[71.4658542,26.482494],[71.4655852,26.4871651],[71.4607909,26.4993495],[71.4610004,26.501878],[71.4608502,26.5043168],[71.4577603,26.5058721],[71.4516234,26.51194],[71.4481902,26.5134184],[71.4455509,26.5099814],[71.4457011,26.5079268],[71.4410877,26.5014555],[71.4359246,26.4966069],[71.4330202,26.4970941],[71.4305091,26.4970004],[71.4234279,26.4937359],[71.4191365,26.4906822],[71.4138363,26.4844791],[71.4102101,26.4777951],[71.4056609,26.4745876],[71.4005542,26.4702657],[71.3896106,26.4678648],[71.3775086,26.4591436],[71.3686035,26.4528427],[71.3629603,26.4498648],[71.3526819,26.4460034],[71.3473177,26.4404316],[71.3444638,26.439029],[71.33876,26.4354581],[71.3337779,26.4295756],[71.3289892,26.4222593],[71.3270616,26.420794],[71.3256883,26.4218702],[71.3241005,26.4265973],[71.3169765,26.4323618],[71.3073634,26.4357243],[71.3062476,26.4475019],[71.3068056,26.4524584],[71.3033938,26.453976],[71.298716,26.4582984],[71.2966664,26.4639348],[71.2836956,26.466693],[71.2796616,26.4655213],[71.2758851,26.463389],[71.2687826,26.4629856],[71.2622025,26.4605231],[71.260457,26.4618155],[71.2559044,26.4596504],[71.2526035,26.4592781],[71.2517258,26.4595441],[71.2491059,26.4577989],[71.2383985,26.4557435],[71.2314532,26.4511316],[71.2265145,26.4493349],[71.2154739,26.4422512],[71.2130122,26.4424337],[71.2119841,26.4402202],[71.2134007,26.4371418],[71.213529,26.4353016],[71.2050318,26.4322657],[71.1979937,26.4186419],[71.1928653,26.417571],[71.1864709,26.4138183],[71.1849689,26.4099747],[71.1823082,26.4073994],[71.1813854,26.4048818],[71.1830807,26.398078],[71.1868787,26.3944838],[71.1903119,26.3897746],[71.1904835,26.3864107],[71.1893171,26.3838288],[71.1875224,26.3817204],[71.1832522,26.376684],[71.1794543,26.370859],[71.1718153,26.3546899],[71.1656356,26.3431336],[71.1594558,26.3348454],[71.1544561,26.3274798],[71.1494136,26.3232679],[71.1488342,26.3196906],[71.1481046,26.3175365],[71.1453581,26.3147091],[71.1423969,26.3089772],[71.1375062,26.3054333],[71.1357222,26.3046504],[71.1315608,26.3048031],[71.1302733,26.3079],[71.1284065,26.3034951],[71.1265291,26.3027537],[71.117742,26.3076115],[71.1077428,26.3106506],[71.0910273,26.3132858],[71.080849,26.3187232],[71.0759854,26.3224602],[71.0734319,26.3216139],[71.0680675,26.3166517],[71.0593343,26.3125933],[71.0589408,26.3112251],[71.0641622,26.3064959],[71.0680128,26.3027253],[71.0708636,26.2947237],[71.0560083,26.283488],[71.0532188,26.2832187],[71.0463523,26.2821797],[71.042962,26.2811601],[71.0352802,26.2829493],[71.0264632,26.2829708],[71.016513,26.2815913],[71.0113334,26.2799095],[71.0016131,26.274984],[70.9992488,26.2653467],[70.9985447,26.2598983],[70.9965276,26.2597828],[70.9903049,26.2574351],[70.9791469,26.2535094],[70.9654569,26.2501224],[70.9576892,26.2496605],[70.9566807,26.2497567],[70.9531962,26.2482067],[70.9493208,26.2442718],[70.9474754,26.2367272],[70.9382486,26.2278733],[70.9407377,26.2237925],[70.9516758,26.2222917],[70.9631395,26.2200581],[70.9730529,26.2204046],[70.9740615,26.2205008],[70.9785032,26.2172861],[70.9820008,26.2188646],[70.9863138,26.2186336],[70.9879875,26.2214441],[70.9901762,26.2200581],[70.9934806,26.2191726],[70.9984588,26.2216366],[71.0063552,26.223754],[71.0076213,26.2233498],[71.0097845,26.2206971],[71.0095095,26.2167086],[71.0108828,26.2172284],[71.0127282,26.2132435],[71.0131144,26.2085077],[71.0113335,26.1995553],[71.0148525,26.1955313],[71.0182214,26.1937022],[71.0220522,26.1908304],[71.0296261,26.1788371],[71.0313427,26.1767862],[71.0339595,26.1784698],[71.0390568,26.1727711],[71.0383057,26.1668396],[71.0400653,26.1621404],[71.0409665,26.1585774],[71.0426402,26.1521829],[71.0436487,26.1475024],[71.0449791,26.1442664],[71.0502336,26.1395582],[71.0472536,26.1362145],[71.0433912,26.1318608],[71.035881,26.1247521],[71.029787,26.1196466],[71.0273623,26.1169879],[71.0252447,26.1147031],[71.0242295,26.1135968],[71.0165262,26.1166603],[71.0099172,26.1157933],[71.0033083,26.1145602],[70.9988519,26.1127764],[70.9939527,26.1095121],[70.989232,26.1066219],[70.9871292,26.1053501],[70.9827518,26.1043096],[70.9800911,26.1016505],[70.9739112,26.0991454],[70.9627533,26.0955227],[70.9599208,26.0940967],[70.958526,26.0881998],[70.9568309,26.0852319],[70.9508228,26.079797],[70.9467029,26.0788334],[70.9402174,26.0790185],[70.944643,26.0746703],[70.9522819,26.0628357],[70.9617233,26.052542],[70.9634828,26.0474719],[70.9636491,26.0442632],[70.9647036,26.039856],[70.967946,26.0333016],[70.9649193,26.0267266],[70.9638469,26.0233792],[70.9578394,26.0175869],[70.9529685,26.0193416],[70.9512145,26.0223302],[70.9488487,26.0267074],[70.9478402,26.0269773],[70.9448576,26.0289441],[70.9412741,26.0290019],[70.9386777,26.0361165],[70.939579,26.0393555],[70.9422084,26.04463],[70.942111,26.0509612],[70.9357595,26.0573227],[70.9262752,26.0674232],[70.9168338,26.075981],[70.9185504,26.0782167],[70.9049033,26.0950217],[70.9003543,26.1016505],[70.8836173,26.114252],[70.8784675,26.1199934],[70.8728671,26.125908],[70.8674383,26.1311095],[70.8664569,26.1299619],[70.8633184,26.1304738],[70.8558511,26.1297418],[70.8423542,26.1339992],[70.8310246,26.1342304],[70.809524,26.136542],[70.7958984,26.1385647],[70.7863711,26.1407993],[70.7812212,26.1401829],[70.7750415,26.1424557],[70.7606113,26.1429068],[70.7490778,26.1461541],[70.7417561,26.1415674],[70.7268905,26.1568248],[70.7202863,26.1604722],[70.7103681,26.16553],[70.7088017,26.1695358],[70.7104969,26.1761604],[70.7123422,26.180705],[70.7180915,26.1894832],[70.7196257,26.1950115],[70.7192516,26.1991318],[70.7157325,26.2098553],[70.7057547,26.2071216],[70.6943548,26.2096114],[70.6862926,26.2095473],[70.6837177,26.2116264],[70.6797054,26.2103728],[70.6631826,26.197553],[70.6537413,26.1962437],[70.6506514,26.1965903],[70.6375408,26.1973797],[70.6351805,26.1957816],[70.6256961,26.1961475],[70.6147098,26.1984194],[70.6056332,26.200826],[70.6030369,26.2005565],[70.5889183,26.2017732],[70.5766654,26.2007105],[70.5681037,26.199151],[70.5579113,26.1975145],[70.54214,26.1888886],[70.536797,26.1859426],[70.5238151,26.1783942],[70.5206609,26.1777587],[70.5145861,26.1769625],[70.5117345,26.1760834],[70.4989671,26.1720008],[70.4859209,26.1743117],[70.4763074,26.1763607],[70.4658912,26.1762368],[70.461307,26.1791125],[70.4418683,26.1777587],[70.4362679,26.1776239],[70.4304743,26.1746005],[70.4279852,26.1763722],[70.4311805,26.184116],[70.4257256,26.1869804],[70.425539,26.1880799],[70.4251742,26.1916227],[70.424273,26.1919115],[70.424273,26.1927394],[70.4151534,26.1949538],[70.4121065,26.1952233],[70.4077668,26.1977605],[70.3962707,26.1823417],[70.3908849,26.1758908],[70.3837107,26.1716614],[70.3785252,26.161736],[70.3772592,26.1594441],[70.3709507,26.152337],[70.3695559,26.1487159],[70.3627539,26.1423017],[70.3556728,26.140934],[70.3501797,26.1395278],[70.3482315,26.1400544],[70.3382277,26.1456533],[70.3372192,26.1456533],[70.3320264,26.1498523],[70.327217,26.1498515],[70.3179073,26.1468475],[70.3137016,26.1467705],[70.299282,26.1444206],[70.2934455,26.1503917],[70.2902698,26.155438],[70.2854204,26.155361],[70.277728,26.1507458],[70.2713227,26.1538201],[70.269885,26.1566706],[70.2691769,26.1628723],[70.2618813,26.1616397],[70.2541137,26.1601952],[70.2499938,26.157364],[70.2445435,26.150642],[70.2408743,26.1441508],[70.237441,26.1390847],[70.2351236,26.1348853],[70.2307892,26.1299922],[70.225017,26.1222668],[70.2223992,26.1201861],[70.2214444,26.1195117],[70.2202213,26.1196466],[70.2201676,26.1204461],[70.2195346,26.1217659],[70.2188836,26.1238871],[70.2168953,26.1298766],[70.2155864,26.1328337],[70.2107906,26.1380638],[70.2055692,26.1429254],[70.2002656,26.1460963],[70.1954269,26.1481766],[70.1928413,26.1492071],[70.1871335,26.1511236],[70.1849288,26.1519133],[70.1824236,26.1528474],[70.179559,26.1535793],[70.1763939,26.1541668],[70.1729875,26.1545472],[70.1649821,26.154172],[70.1577902,26.1538394],[70.151782,26.152703],[70.1464176,26.1515473],[70.144422,26.1517785],[70.1408887,26.1562293],[70.1272287,26.1388108],[70.1262387,26.1375484],[70.1155158,26.1239355],[70.1065506,26.112554],[70.0957908,26.0988942],[70.0853411,26.0819078]]]}},{"type":"Feature","properties":{"date":"2018-10-30","brightness":331.7,"marker-color":"#FF4444","marker-size":"small"},"geometry":{"type":"Point","coordinates":[71.3842,25.6233]}},{"type":"Feature","properties":{"date":"2019-03-31","brightness":349.3,"marker-color":"#FF4444","marker-size":"small"},"geometry":{"type":"Point","coordinates":[71.4672,25.6188]}},{"type":"Feature","properties":{"date":"2019-04-11","brightness":378.2,"marker-color":"#FF4444","marker-size":"small"},"geometry":{"type":"Point","coordinates":[71.1791,25.8468]}},{"type":"Feature","properties":{"date":"2020-04-13","brightness":333.2,"marker-color":"#FF4444","marker-size":"small"},"geometry":{"type":"Point","coordinates":[71.3186,25.9474]}},{"type":"Feature","properties":{"date":"2020-05-24","brightness":345.5,"marker-color":"#FF4444","marker-size":"small"},"geometry":{"type":"Point","coordinates":[71.3452,25.7548]}},{"type":"Feature","properties":{"date":"2021-03-26","brightness":383.9,"marker-color":"#FF4444","marker-size":"small"},"geometry":{"type":"Point","coordinates":[71.3283,25.596]}},{"type":"Feature","properties":{"date":"2021-04-29","brightness":318.1,"marker-color":"#FF4444","marker-size":"small"},"geometry":{"type":"Point","coordinates":[71.1621,25.8302]}},{"type":"Feature","properties":{"date":"2021-05-08","brightness":314.9,"marker-color":"#FF4444","marker-size":"small"},"geometry":{"type":"Point","coordinates":[71.3081,25.9062]}},{"type":"Feature","properties":{"date":"2023-06-20","brightness":323.5,"marker-color":"#FF4444","marker-size":"small"},"geometry":{"type":"Point","coordinates":[71.4364,25.8967]}}]}