<?xml version="1.0" encoding="UTF-8"?>
<kml xmlns="http://www.opengis.net/kml/2.2">
<Document>
  <name>Dholpur Forest Fire Risk Zones</name>
  <description>Forest fire density analysis for Dholpur District, Rajasthan. Generated using KDE on NASA FIRMS data (2018-2025).</description>
  <Style id="zone0">
    <PolyStyle><color>8c0000FF</color><outline>1</outline></PolyStyle>
    <LineStyle><color>e60000FF</color><width>1</width></LineStyle>
  </Style>
  <Style id="zone1">
    <PolyStyle><color>80008CFF</color><outline>1</outline></PolyStyle>
    <LineStyle><color>e6008CFF</color><width>1</width></LineStyle>
  </Style>
  <Style id="zone2">
    <PolyStyle><color>7300D7FF</color><outline>1</outline></PolyStyle>
    <LineStyle><color>e600D7FF</color><width>1</width></LineStyle>
  </Style>
  <Style id="zone3">
    <PolyStyle><color>59228B22</color><outline>1</outline></PolyStyle>
    <LineStyle><color>e6228B22</color><width>1</width></LineStyle>
  </Style>
  <Style id="boundary">
    <LineStyle><color>ccffffff</color><width>2</width></LineStyle>
    <PolyStyle><fill>0</fill></PolyStyle>
  </Style>
  <Style id="firepoint">
    <IconStyle><color>ff4444ff</color><scale>0.6</scale>
      <Icon><href>http://maps.google.com/mapfiles/kml/shapes/shaded_dot.png</href></Icon>
    </IconStyle>
  </Style>
  <Folder><name>Fire Risk Zones</name>
    <Placemark><name>Low Fire Zone</name><styleUrl>#zone0</styleUrl>
      <Polygon><extrude>0</extrude><altitudeMode>clampToGround</altitudeMode><outerBoundaryIs><LinearRing><coordinates>77.377842,26.619322,0 77.438407,26.55316,0 77.5257,26.512098,0 77.547372,26.443157,0 77.567671,26.356824,0 77.63759,26.309429,0 77.742553,26.338088,0 77.804133,26.264951,0 77.89,26.308581,0 77.960556,26.342522,0 78.055658,26.293389,0 78.096446,26.380553,0 78.216538,26.352342,0 78.241209,26.436724,0 78.246132,26.516311,0 78.26322,26.578644,0 78.33724,26.629548,0 78.3232,26.7,0 78.347337,26.772042,0 78.295645,26.8319,0 78.344443,26.934396,0 78.218385,26.946167,0 78.19557,27.025334,0 78.126485,27.065929,0 78.045812,27.082443,0 77.978129,27.146511,0 77.89,27.139821,0 77.803033,27.140626,0 77.724688,27.105761,0 77.662873,27.051448,0 77.629834,26.976993,0 77.563874,26.944473,0 77.485207,26.908788,0 77.410592,26.855885,0 77.436009,26.771515,0 77.407144,26.7,0 77.377842,26.619322,0</coordinates></LinearRing></outerBoundaryIs></Polygon>
    </Placemark>
    <Placemark><name>Moderate Fire Zone</name><styleUrl>#zone1</styleUrl>
      <Polygon><extrude>0</extrude><altitudeMode>clampToGround</altitudeMode><outerBoundaryIs><LinearRing><coordinates>77.51030249924888,26.58480425820243,0 77.51958612652597,26.574770778956587,0 77.52152249661651,26.56097270019876,0 77.52958748278405,26.55477030208151,0 77.53152357174815,26.540972622072424,0 77.54763470205401,26.53674050305351,0 77.56466586627947,26.518666624244883,0 77.6379449359515,26.518155871992775,0 77.65114045789493,26.527996222239246,0 77.69454360587439,26.527996211314672,0 77.7046650982348,26.518666890664367,0 77.72616513472639,26.51751534707903,0 77.73466533400791,26.508666888510376,0 77.75616614654318,26.507515329543487,0 77.77345621167066,26.489245421405947,0 77.78616806014472,26.487514904074548,0 77.81466646448341,26.468666816288334,0 77.84455004793301,26.46799487329481,0 77.85597869878725,26.458310694577758,0 77.88455114143672,26.457994876120456,0 77.89597929378476,26.44831061431052,0 77.94455241851978,26.447995792342596,0 77.95597944545125,26.438310611617975,0 78.01970458499092,26.438310613697706,0 78.02951211745926,26.447514936747787,0 78.04222643827215,26.449245421695398,0 78.04951301808332,26.457514908959254,0 78.06222677805859,26.459245422564138,0 78.08415743698663,26.4809726896163,0 78.08609245893744,26.494768841404756,0 78.09480498895681,26.502055023293856,0 78.09555892543675,26.523319245277307,0 78.10480668126567,26.532055024436364,0 78.10609584338165,26.54477002944175,0 78.1467973845396,26.5857055831978,0 78.16223118781186,26.58924543250673,0 78.17952765325919,26.607514917692463,0 78.19223186817622,26.609245436301332,0 78.20805693959313,26.626740491881442,0 78.22223254869802,26.62924544062062,0 78.25416659614226,26.66097270984501,0 78.25610467407627,26.674773149847553,0 78.26521397759608,26.68322945918059,0 78.26610671550138,26.70477386618021,0 78.27521578751737,26.713229463208116,0 78.27521722096301,26.736672143863732,0 78.26552504724044,26.746792612649195,0 78.2648206858695,26.77784654729486,0 78.2465704672728,26.794353874537265,0 78.24417429527286,26.80892890246794,0 78.21657336749607,26.83435292765051,0 78.21417635392275,26.84892890844573,0 78.16657772745192,26.894351505420033,0 78.164828119916,26.90784656862329,0 78.15593255806745,26.915527281111,0 78.15482926724903,26.927846570475314,0 78.14593390078555,26.935526804609985,0 78.14418151395303,26.948928919090747,0 78.1022455435729,26.990656133436033,0 78.08869843482702,26.992796418625474,0 78.07971374585418,27.001590962774493,0 78.05001950449935,27.00222061361262,0 78.03971528937326,27.01159072342485,0 77.95143705569913,27.01186956963425,0 77.93794758666482,27.021746353881678,0 77.85773641527119,27.021746354086496,0 77.84424713216656,27.01186863628547,0 77.77596919094435,27.011590806112338,0 77.76566450236422,27.00222016702708,0 77.74465255741117,27.00123464843055,0 77.73698554520506,26.992796412235396,0 77.72237394916813,26.989877537988765,0 77.69150197056454,26.95892891992951,0 77.6891026293598,26.944350321716076,0 77.67150352100393,26.928928918135387,0 77.66975144116635,26.915527289919496,0 77.66045646677378,26.90667216341532,0 77.66015198963309,26.85679002394495,0 77.65046011401508,26.84667215592031,0 77.64976015413582,26.785530391288578,0 77.64086331628755,26.77784655628784,0 77.63911570253607,26.764354611403217,0 77.61818654105669,26.743576793545184,0 77.60344707914803,26.7406561194821,0 77.58818814881595,26.723576788834738,0 77.57238578289099,26.719877515931405,0 77.53151637435478,26.678928888317692,0 77.52976813186278,26.66553322282378,0 77.5215173973986,26.658928884952918,0 77.51976945978576,26.645533696096503,0 77.51047281066987,26.636672120413813,0 77.51030249924888,26.58480425820243,0</coordinates></LinearRing></outerBoundaryIs></Polygon>
    </Placemark>
    <Placemark><name>High Fire Zone</name><styleUrl>#zone2</styleUrl>
      <Polygon><extrude>0</extrude><altitudeMode>clampToGround</altitudeMode><outerBoundaryIs><LinearRing><coordinates>77.71029199305221,26.754804296300197,0 77.71957455320921,26.74477478391887,0 77.720293655317,26.72809767348303,0 77.71086673617816,26.71784655003658,0 77.71029509066113,26.704804274667854,0 77.71957796188251,26.694773593876782,0 77.72151638455225,26.68097270002436,0 77.73011559898725,26.673322806591813,0 77.73151893623772,26.63097269846576,0 77.79239267839797,26.5700239488341,0 77.8061602371673,26.567514914251262,0 77.81466417062097,26.55866688701291,0 77.83616123446987,26.55751534255189,0 77.84466440688496,26.54866688563778,0 77.86616224596628,26.54751532664939,0 77.87466428084338,26.538667015423233,0 77.88970692219628,26.53831081163319,0 77.90114277307897,26.54799532764434,0 77.94101920120814,26.548666746792065,0 77.96952374484715,26.567514899784197,0 77.98223049441854,26.569245420818397,0 77.98952472284857,26.577514900411234,0 78.00223083571063,26.579245420808988,0 78.01805437116482,26.596740458936136,0 78.05223185910707,26.609245421781484,0 78.05952864011981,26.617514904115062,0 78.07223220045542,26.619245422544168,0 78.09680181770665,26.64570556346196,0 78.11223322377373,26.649245424885784,0 78.12806033546117,26.66674046871085,0 78.16329609173172,26.680023955037207,0 78.18521518383295,26.703229458929616,0 78.18521903641725,26.766672145318203,0 78.1759231925579,26.775530634451844,0 78.1741732652148,26.78892890761809,0 78.15657119688565,26.804353664960555,0 78.14417583714071,26.8389289119795,0 78.12657482616575,26.854352475599164,0 78.12417738256961,26.86892891409234,0 78.08745347044955,26.903299069456246,0 78.08482869403039,26.91784656478502,0 78.07224346108099,26.93065613569243,0 78.05869297922453,26.93279640654238,0 78.05224380550764,26.94065613635851,0 78.03869389491513,26.942796408102538,0 78.01103086376177,26.96123451281896,0 77.97143075237823,26.961867243633172,0 77.9597155193715,26.971590602652388,0 77.82596846744408,26.971590599388122,0 77.81566871324003,26.962220194899817,0 77.79343935436503,26.960656050820475,0 77.78698920820563,26.952796412957913,0 77.77237570851742,26.94987753567327,0 77.75699099622065,26.932796385802284,0 77.74237658710875,26.929877533983646,0 77.73085530479244,26.91784656646678,0 77.72975210830987,26.905527529630277,0 77.72085645195212,26.897846564920656,0 77.71910699531034,26.88435175218059,0 77.71085759405112,26.877846554004357,0 77.71029199305221,26.754804296300197,0</coordinates></LinearRing></outerBoundaryIs></Polygon>
    </Placemark>
    <Placemark><name>Very High Fire Zone</name><styleUrl>#zone3</styleUrl>
      <Polygon><extrude>0</extrude><altitudeMode>clampToGround</altitudeMode><outerBoundaryIs><LinearRing><coordinates>77.76028888657329,26.80480428405264,0 77.76957112844804,26.794775965003648,0 77.77086370325767,26.772055035471933,0 77.77957318083085,26.764775248140335,0 77.78086484420102,26.75205503370741,0 77.7895745486228,26.744774770226535,0 77.7915138279195,26.73097269638021,0 77.83344955927218,26.68924533721309,0 77.85614844050839,26.687515363396766,0 77.86597657725501,26.67831060976542,0 77.93102203872873,26.678666669831934,0 77.93953555962094,26.687515362117242,0 77.9610228693515,26.688666883820915,0 77.96953650660357,26.697514908477896,0 77.98223492593388,26.69924542082398,0 77.99953836301115,26.717516623261073,0 78.05102300399652,26.718666680192598,0 78.07521759924786,26.74322945625417,0 78.07522146013392,26.806672148149406,0 78.06592586564275,26.81552969257549,0 78.06482411262162,26.83784655765687,0 78.04657483112312,26.85435248025356,0 78.04417738329505,26.86892891306832,0 78.02224207943041,26.89065613512027,0 78.00868932334923,26.892796409404884,0 77.98102967373704,26.911234512326367,0 77.94142501123848,26.911867237836272,0 77.92971372446183,26.921590804718047,0 77.845970271471,26.92159080358273,0 77.83567379087498,26.912220172324215,0 77.81465470896762,26.911234649368364,0 77.80699378274471,26.90279641972753,0 77.79344157456427,26.900656134455893,0 77.77085759645175,26.877846559728845,0 77.76975545673153,26.855528736571845,0 77.76046011151067,26.846672152404395,0 77.76028888657329,26.80480428405264,0</coordinates></LinearRing></outerBoundaryIs></Polygon>
    </Placemark>
  </Folder>
  <Folder><name>District Boundary</name>
    <Placemark><name>Dholpur District</name><styleUrl>#boundary</styleUrl>
      <Polygon><extrude>0</extrude><altitudeMode>clampToGround</altitudeMode><outerBoundaryIs><LinearRing><coordinates>78.3232,26.7,0 78.347337,26.772042,0 78.295645,26.8319,0 78.344443,26.934396,0 78.218385,26.946167,0 78.19557,27.025334,0 78.126485,27.065929,0 78.045812,27.082443,0 77.978129,27.146511,0 77.89,27.139821,0 77.803033,27.140626,0 77.724688,27.105761,0 77.662873,27.051448,0 77.629834,26.976993,0 77.563874,26.944473,0 77.485207,26.908788,0 77.410592,26.855885,0 77.436009,26.771515,0 77.407144,26.7,0 77.377842,26.619322,0 77.438407,26.55316,0 77.5257,26.512098,0 77.547372,26.443157,0 77.567671,26.356824,0 77.63759,26.309429,0 77.742553,26.338088,0 77.804133,26.264951,0 77.89,26.308581,0 77.960556,26.342522,0 78.055658,26.293389,0 78.096446,26.380553,0 78.216538,26.352342,0 78.241209,26.436724,0 78.246132,26.516311,0 78.26322,26.578644,0 78.33724,26.629548,0 78.3232,26.7,0</coordinates></LinearRing></outerBoundaryIs></Polygon>
    </Placemark>
  </Folder>
  <Folder><name>Fire Incidents</name>
    <Placemark><name>Fire 2018-03-07</name>
      <description>Brightness: 332.2</description>
      <styleUrl>#firepoint</styleUrl>
      <Point><coordinates>77.9317,26.8254,0</coordinates></Point>
    </Placemark>
    <Placemark><name>Fire 2018-03-25</name>
      <description>Brightness: 346.9</description>
      <styleUrl>#firepoint</styleUrl>
      <Point><coordinates>78.1794,26.7246,0</coordinates></Point>
    </Placemark>
    <Placemark><name>Fire 2018-04-07</name>
      <description>Brightness: 378.3</description>
      <styleUrl>#firepoint</styleUrl>
      <Point><coordinates>78.127,26.7303,0</coordinates></Point>
    </Placemark>
    <Placemark><name>Fire 2018-10-02</name>
      <description>Brightness: 333.8</description>
      <styleUrl>#firepoint</styleUrl>
      <Point><coordinates>77.9275,26.737,0</coordinates></Point>
    </Placemark>
    <Placemark><name>Fire 2019-03-22</name>
      <description>Brightness: 319.9</description>
      <styleUrl>#firepoint</styleUrl>
      <Point><coordinates>77.8337,26.8538,0</coordinates></Point>
    </Placemark>
    <Placemark><name>Fire 2019-03-31</name>
      <description>Brightness: 383.7</description>
      <styleUrl>#firepoint</styleUrl>
      <Point><coordinates>77.8366,26.7615,0</coordinates></Point>
    </Placemark>
    <Placemark><name>Fire 2019-04-26</name>
      <description>Brightness: 358.4</description>
      <styleUrl>#firepoint</styleUrl>
      <Point><coordinates>77.8646,26.5561,0</coordinates></Point>
    </Placemark>
    <Placemark><name>Fire 2019-04-28</name>
      <description>Brightness: 309.5</description>
      <styleUrl>#firepoint</styleUrl>
      <Point><coordinates>78.0223,26.8986,0</coordinates></Point>
    </Placemark>
    <Placemark><name>Fire 2019-05-22</name>
      <description>Brightness: 351.7</description>
      <styleUrl>#firepoint</styleUrl>
      <Point><coordinates>77.9654,26.637,0</coordinates></Point>
    </Placemark>
    <Placemark><name>Fire 2019-06-17</name>
      <description>Brightness: 302.9</description>
      <styleUrl>#firepoint</styleUrl>
      <Point><coordinates>78.0399,26.7618,0</coordinates></Point>
    </Placemark>
    <Placemark><name>Fire 2020-03-30</name>
      <description>Brightness: 323.2</description>
      <styleUrl>#firepoint</styleUrl>
      <Point><coordinates>77.6585,26.6672,0</coordinates></Point>
    </Placemark>
    <Placemark><name>Fire 2020-04-26</name>
      <description>Brightness: 314.5</description>
      <styleUrl>#firepoint</styleUrl>
      <Point><coordinates>78.065,26.8689,0</coordinates></Point>
    </Placemark>
    <Placemark><name>Fire 2021-05-07</name>
      <description>Brightness: 363.3</description>
      <styleUrl>#firepoint</styleUrl>
      <Point><coordinates>77.7794,26.8637,0</coordinates></Point>
    </Placemark>
    <Placemark><name>Fire 2022-05-09</name>
      <description>Brightness: 355.9</description>
      <styleUrl>#firepoint</styleUrl>
      <Point><coordinates>77.8135,26.6929,0</coordinates></Point>
    </Placemark>
    <Placemark><name>Fire 2023-01-15</name>
      <description>Brightness: 352.5</description>
      <styleUrl>#firepoint</styleUrl>
      <Point><coordinates>77.8117,26.6165,0</coordinates></Point>
    </Placemark>
    <Placemark><name>Fire 2023-04-22</name>
      <description>Brightness: 318.8</description>
      <styleUrl>#firepoint</styleUrl>
      <Point><coordinates>77.7697,26.8478,0</coordinates></Point>
    </Placemark>
    <Placemark><name>Fire 2023-05-09</name>
      <description>Brightness: 322.7</description>
      <styleUrl>#firepoint</styleUrl>
      <Point><coordinates>77.9945,26.8594,0</coordinates></Point>
    </Placemark>
    <Placemark><name>Fire 2024-04-18</name>
      <description>Brightness: 341</description>
      <styleUrl>#firepoint</styleUrl>
      <Point><coordinates>77.5885,26.5926,0</coordinates></Point>
    </Placemark>
    <Placemark><name>Fire 2024-06-26</name>
      <description>Brightness: 305.7</description>
      <styleUrl>#firepoint</styleUrl>
      <Point><coordinates>77.9125,26.8391,0</coordinates></Point>
    </Placemark>
    <Placemark><name>Fire 2024-08-28</name>
      <description>Brightness: 328.7</description>
      <styleUrl>#firepoint</styleUrl>
      <Point><coordinates>78.0233,26.6914,0</coordinates></Point>
    </Placemark>
    <Placemark><name>Fire 2024-10-25</name>
      <description>Brightness: 386.9</description>
      <styleUrl>#firepoint</styleUrl>
      <Point><coordinates>77.8741,26.9205,0</coordinates></Point>
    </Placemark>
    <Placemark><name>Fire 2025-03-17</name>
      <description>Brightness: 350.2</description>
      <styleUrl>#firepoint</styleUrl>
      <Point><coordinates>78.0182,26.5042,0</coordinates></Point>
    </Placemark>
  </Folder>
</Document></kml>