{"type":"FeatureCollection","features":[{"type":"Feature","properties":{"zone":"Low Fire Zone","color":"#228B22","opacity":0.35,"fill":"#228B22","fill-opacity":0.35,"stroke":"#228B22","stroke-width":1,"stroke-opacity":0.8},"geometry":{"type":"Polygon","coordinates":[[[77.377842,26.619322],[77.438407,26.55316],[77.5257,26.512098],[77.547372,26.443157],[77.567671,26.356824],[77.63759,26.309429],[77.742553,26.338088],[77.804133,26.264951],[77.89,26.308581],[77.960556,26.342522],[78.055658,26.293389],[78.096446,26.380553],[78.216538,26.352342],[78.241209,26.436724],[78.246132,26.516311],[78.26322,26.578644],[78.33724,26.629548],[78.3232,26.7],[78.347337,26.772042],[78.295645,26.8319],[78.344443,26.934396],[78.218385,26.946167],[78.19557,27.025334],[78.126485,27.065929],[78.045812,27.082443],[77.978129,27.146511],[77.89,27.139821],[77.803033,27.140626],[77.724688,27.105761],[77.662873,27.051448],[77.629834,26.976993],[77.563874,26.944473],[77.485207,26.908788],[77.410592,26.855885],[77.436009,26.771515],[77.407144,26.7],[77.377842,26.619322]]]}},{"type":"Feature","properties":{"zone":"Moderate Fire Zone","color":"#FFD700","opacity":0.45,"fill":"#FFD700","fill-opacity":0.45,"stroke":"#FFD700","stroke-width":1,"stroke-opacity":0.8},"geometry":{"type":"Polygon","coordinates":[[[77.51030249924888,26.58480425820243],[77.51958612652597,26.574770778956587],[77.52152249661651,26.56097270019876],[77.52958748278405,26.55477030208151],[77.53152357174815,26.540972622072424],[77.54763470205401,26.53674050305351],[77.56466586627947,26.518666624244883],[77.6379449359515,26.518155871992775],[77.65114045789493,26.527996222239246],[77.69454360587439,26.527996211314672],[77.7046650982348,26.518666890664367],[77.72616513472639,26.51751534707903],[77.73466533400791,26.508666888510376],[77.75616614654318,26.507515329543487],[77.77345621167066,26.489245421405947],[77.78616806014472,26.487514904074548],[77.81466646448341,26.468666816288334],[77.84455004793301,26.46799487329481],[77.85597869878725,26.458310694577758],[77.88455114143672,26.457994876120456],[77.89597929378476,26.44831061431052],[77.94455241851978,26.447995792342596],[77.95597944545125,26.438310611617975],[78.01970458499092,26.438310613697706],[78.02951211745926,26.447514936747787],[78.04222643827215,26.449245421695398],[78.04951301808332,26.457514908959254],[78.06222677805859,26.459245422564138],[78.08415743698663,26.4809726896163],[78.08609245893744,26.494768841404756],[78.09480498895681,26.502055023293856],[78.09555892543675,26.523319245277307],[78.10480668126567,26.532055024436364],[78.10609584338165,26.54477002944175],[78.1467973845396,26.5857055831978],[78.16223118781186,26.58924543250673],[78.17952765325919,26.607514917692463],[78.19223186817622,26.609245436301332],[78.20805693959313,26.626740491881442],[78.22223254869802,26.62924544062062],[78.25416659614226,26.66097270984501],[78.25610467407627,26.674773149847553],[78.26521397759608,26.68322945918059],[78.26610671550138,26.70477386618021],[78.27521578751737,26.713229463208116],[78.27521722096301,26.736672143863732],[78.26552504724044,26.746792612649195],[78.2648206858695,26.77784654729486],[78.2465704672728,26.794353874537265],[78.24417429527286,26.80892890246794],[78.21657336749607,26.83435292765051],[78.21417635392275,26.84892890844573],[78.16657772745192,26.894351505420033],[78.164828119916,26.90784656862329],[78.15593255806745,26.915527281111],[78.15482926724903,26.927846570475314],[78.14593390078555,26.935526804609985],[78.14418151395303,26.948928919090747],[78.1022455435729,26.990656133436033],[78.08869843482702,26.992796418625474],[78.07971374585418,27.001590962774493],[78.05001950449935,27.00222061361262],[78.03971528937326,27.01159072342485],[77.95143705569913,27.01186956963425],[77.93794758666482,27.021746353881678],[77.85773641527119,27.021746354086496],[77.84424713216656,27.01186863628547],[77.77596919094435,27.011590806112338],[77.76566450236422,27.00222016702708],[77.74465255741117,27.00123464843055],[77.73698554520506,26.992796412235396],[77.72237394916813,26.989877537988765],[77.69150197056454,26.95892891992951],[77.6891026293598,26.944350321716076],[77.67150352100393,26.928928918135387],[77.66975144116635,26.915527289919496],[77.66045646677378,26.90667216341532],[77.66015198963309,26.85679002394495],[77.65046011401508,26.84667215592031],[77.64976015413582,26.785530391288578],[77.64086331628755,26.77784655628784],[77.63911570253607,26.764354611403217],[77.61818654105669,26.743576793545184],[77.60344707914803,26.7406561194821],[77.58818814881595,26.723576788834738],[77.57238578289099,26.719877515931405],[77.53151637435478,26.678928888317692],[77.52976813186278,26.66553322282378],[77.5215173973986,26.658928884952918],[77.51976945978576,26.645533696096503],[77.51047281066987,26.636672120413813],[77.51030249924888,26.58480425820243]]]}},{"type":"Feature","properties":{"zone":"High Fire Zone","color":"#FF8C00","opacity":0.5,"fill":"#FF8C00","fill-opacity":0.5,"stroke":"#FF8C00","stroke-width":1,"stroke-opacity":0.8},"geometry":{"type":"Polygon","coordinates":[[[77.71029199305221,26.754804296300197],[77.71957455320921,26.74477478391887],[77.720293655317,26.72809767348303],[77.71086673617816,26.71784655003658],[77.71029509066113,26.704804274667854],[77.71957796188251,26.694773593876782],[77.72151638455225,26.68097270002436],[77.73011559898725,26.673322806591813],[77.73151893623772,26.63097269846576],[77.79239267839797,26.5700239488341],[77.8061602371673,26.567514914251262],[77.81466417062097,26.55866688701291],[77.83616123446987,26.55751534255189],[77.84466440688496,26.54866688563778],[77.86616224596628,26.54751532664939],[77.87466428084338,26.538667015423233],[77.88970692219628,26.53831081163319],[77.90114277307897,26.54799532764434],[77.94101920120814,26.548666746792065],[77.96952374484715,26.567514899784197],[77.98223049441854,26.569245420818397],[77.98952472284857,26.577514900411234],[78.00223083571063,26.579245420808988],[78.01805437116482,26.596740458936136],[78.05223185910707,26.609245421781484],[78.05952864011981,26.617514904115062],[78.07223220045542,26.619245422544168],[78.09680181770665,26.64570556346196],[78.11223322377373,26.649245424885784],[78.12806033546117,26.66674046871085],[78.16329609173172,26.680023955037207],[78.18521518383295,26.703229458929616],[78.18521903641725,26.766672145318203],[78.1759231925579,26.775530634451844],[78.1741732652148,26.78892890761809],[78.15657119688565,26.804353664960555],[78.14417583714071,26.8389289119795],[78.12657482616575,26.854352475599164],[78.12417738256961,26.86892891409234],[78.08745347044955,26.903299069456246],[78.08482869403039,26.91784656478502],[78.07224346108099,26.93065613569243],[78.05869297922453,26.93279640654238],[78.05224380550764,26.94065613635851],[78.03869389491513,26.942796408102538],[78.01103086376177,26.96123451281896],[77.97143075237823,26.961867243633172],[77.9597155193715,26.971590602652388],[77.82596846744408,26.971590599388122],[77.81566871324003,26.962220194899817],[77.79343935436503,26.960656050820475],[77.78698920820563,26.952796412957913],[77.77237570851742,26.94987753567327],[77.75699099622065,26.932796385802284],[77.74237658710875,26.929877533983646],[77.73085530479244,26.91784656646678],[77.72975210830987,26.905527529630277],[77.72085645195212,26.897846564920656],[77.71910699531034,26.88435175218059],[77.71085759405112,26.877846554004357],[77.71029199305221,26.754804296300197]]]}},{"type":"Feature","properties":{"zone":"Very High Fire Zone","color":"#FF0000","opacity":0.55,"fill":"#FF0000","fill-opacity":0.55,"stroke":"#FF0000","stroke-width":1,"stroke-opacity":0.8},"geometry":{"type":"Polygon","coordinates":[[[77.76028888657329,26.80480428405264],[77.76957112844804,26.794775965003648],[77.77086370325767,26.772055035471933],[77.77957318083085,26.764775248140335],[77.78086484420102,26.75205503370741],[77.7895745486228,26.744774770226535],[77.7915138279195,26.73097269638021],[77.83344955927218,26.68924533721309],[77.85614844050839,26.687515363396766],[77.86597657725501,26.67831060976542],[77.93102203872873,26.678666669831934],[77.93953555962094,26.687515362117242],[77.9610228693515,26.688666883820915],[77.96953650660357,26.697514908477896],[77.98223492593388,26.69924542082398],[77.99953836301115,26.717516623261073],[78.05102300399652,26.718666680192598],[78.07521759924786,26.74322945625417],[78.07522146013392,26.806672148149406],[78.06592586564275,26.81552969257549],[78.06482411262162,26.83784655765687],[78.04657483112312,26.85435248025356],[78.04417738329505,26.86892891306832],[78.02224207943041,26.89065613512027],[78.00868932334923,26.892796409404884],[77.98102967373704,26.911234512326367],[77.94142501123848,26.911867237836272],[77.92971372446183,26.921590804718047],[77.845970271471,26.92159080358273],[77.83567379087498,26.912220172324215],[77.81465470896762,26.911234649368364],[77.80699378274471,26.90279641972753],[77.79344157456427,26.900656134455893],[77.77085759645175,26.877846559728845],[77.76975545673153,26.855528736571845],[77.76046011151067,26.846672152404395],[77.76028888657329,26.80480428405264]]]}},{"type":"Feature","properties":{"name":"Dholpur District Boundary","stroke":"#FFFFFF","stroke-width":2,"stroke-opacity":0.9,"fill":"none","fill-opacity":0},"geometry":{"type":"Polygon","coordinates":[[[78.3232,26.7],[78.347337,26.772042],[78.295645,26.8319],[78.344443,26.934396],[78.218385,26.946167],[78.19557,27.025334],[78.126485,27.065929],[78.045812,27.082443],[77.978129,27.146511],[77.89,27.139821],[77.803033,27.140626],[77.724688,27.105761],[77.662873,27.051448],[77.629834,26.976993],[77.563874,26.944473],[77.485207,26.908788],[77.410592,26.855885],[77.436009,26.771515],[77.407144,26.7],[77.377842,26.619322],[77.438407,26.55316],[77.5257,26.512098],[77.547372,26.443157],[77.567671,26.356824],[77.63759,26.309429],[77.742553,26.338088],[77.804133,26.264951],[77.89,26.308581],[77.960556,26.342522],[78.055658,26.293389],[78.096446,26.380553],[78.216538,26.352342],[78.241209,26.436724],[78.246132,26.516311],[78.26322,26.578644],[78.33724,26.629548],[78.3232,26.7]]]}},{"type":"Feature","properties":{"date":"2018-03-07","brightness":332.2,"marker-color":"#FF4444","marker-size":"small"},"geometry":{"type":"Point","coordinates":[77.9317,26.8254]}},{"type":"Feature","properties":{"date":"2018-03-25","brightness":346.9,"marker-color":"#FF4444","marker-size":"small"},"geometry":{"type":"Point","coordinates":[78.1794,26.7246]}},{"type":"Feature","properties":{"date":"2018-04-07","brightness":378.3,"marker-color":"#FF4444","marker-size":"small"},"geometry":{"type":"Point","coordinates":[78.127,26.7303]}},{"type":"Feature","properties":{"date":"2018-10-02","brightness":333.8,"marker-color":"#FF4444","marker-size":"small"},"geometry":{"type":"Point","coordinates":[77.9275,26.737]}},{"type":"Feature","properties":{"date":"2019-03-22","brightness":319.9,"marker-color":"#FF4444","marker-size":"small"},"geometry":{"type":"Point","coordinates":[77.8337,26.8538]}},{"type":"Feature","properties":{"date":"2019-03-31","brightness":383.7,"marker-color":"#FF4444","marker-size":"small"},"geometry":{"type":"Point","coordinates":[77.8366,26.7615]}},{"type":"Feature","properties":{"date":"2019-04-26","brightness":358.4,"marker-color":"#FF4444","marker-size":"small"},"geometry":{"type":"Point","coordinates":[77.8646,26.5561]}},{"type":"Feature","properties":{"date":"2019-04-28","brightness":309.5,"marker-color":"#FF4444","marker-size":"small"},"geometry":{"type":"Point","coordinates":[78.0223,26.8986]}},{"type":"Feature","properties":{"date":"2019-05-22","brightness":351.7,"marker-color":"#FF4444","marker-size":"small"},"geometry":{"type":"Point","coordinates":[77.9654,26.637]}},{"type":"Feature","properties":{"date":"2019-06-17","brightness":302.9,"marker-color":"#FF4444","marker-size":"small"},"geometry":{"type":"Point","coordinates":[78.0399,26.7618]}},{"type":"Feature","properties":{"date":"2020-03-30","brightness":323.2,"marker-color":"#FF4444","marker-size":"small"},"geometry":{"type":"Point","coordinates":[77.6585,26.6672]}},{"type":"Feature","properties":{"date":"2020-04-26","brightness":314.5,"marker-color":"#FF4444","marker-size":"small"},"geometry":{"type":"Point","coordinates":[78.065,26.8689]}},{"type":"Feature","properties":{"date":"2021-05-07","brightness":363.3,"marker-color":"#FF4444","marker-size":"small"},"geometry":{"type":"Point","coordinates":[77.7794,26.8637]}},{"type":"Feature","properties":{"date":"2022-05-09","brightness":355.9,"marker-color":"#FF4444","marker-size":"small"},"geometry":{"type":"Point","coordinates":[77.8135,26.6929]}},{"type":"Feature","properties":{"date":"2023-01-15","brightness":352.5,"marker-color":"#FF4444","marker-size":"small"},"geometry":{"type":"Point","coordinates":[77.8117,26.6165]}},{"type":"Feature","properties":{"date":"2023-04-22","brightness":318.8,"marker-color":"#FF4444","marker-size":"small"},"geometry":{"type":"Point","coordinates":[77.7697,26.8478]}},{"type":"Feature","properties":{"date":"2023-05-09","brightness":322.7,"marker-color":"#FF4444","marker-size":"small"},"geometry":{"type":"Point","coordinates":[77.9945,26.8594]}},{"type":"Feature","properties":{"date":"2024-04-18","brightness":341,"marker-color":"#FF4444","marker-size":"small"},"geometry":{"type":"Point","coordinates":[77.5885,26.5926]}},{"type":"Feature","properties":{"date":"2024-06-26","brightness":305.7,"marker-color":"#FF4444","marker-size":"small"},"geometry":{"type":"Point","coordinates":[77.9125,26.8391]}},{"type":"Feature","properties":{"date":"2024-08-28","brightness":328.7,"marker-color":"#FF4444","marker-size":"small"},"geometry":{"type":"Point","coordinates":[78.0233,26.6914]}},{"type":"Feature","properties":{"date":"2024-10-25","brightness":386.9,"marker-color":"#FF4444","marker-size":"small"},"geometry":{"type":"Point","coordinates":[77.8741,26.9205]}},{"type":"Feature","properties":{"date":"2025-03-17","brightness":350.2,"marker-color":"#FF4444","marker-size":"small"},"geometry":{"type":"Point","coordinates":[78.0182,26.5042]}}]}