<?xml version="1.0" encoding="UTF-8"?>
<kml xmlns="http://www.opengis.net/kml/2.2">
<Document>
  <name>Dungarpur Forest Fire Risk Zones</name>
  <description>Forest fire density analysis for Dungarpur District, Rajasthan. Generated using KDE on NASA FIRMS data (2018-2025).</description>
  <Style id="zone0">
    <PolyStyle><color>8c0000FF</color><outline>1</outline></PolyStyle>
    <LineStyle><color>e60000FF</color><width>1</width></LineStyle>
  </Style>
  <Style id="zone1">
    <PolyStyle><color>80008CFF</color><outline>1</outline></PolyStyle>
    <LineStyle><color>e6008CFF</color><width>1</width></LineStyle>
  </Style>
  <Style id="zone2">
    <PolyStyle><color>7300D7FF</color><outline>1</outline></PolyStyle>
    <LineStyle><color>e600D7FF</color><width>1</width></LineStyle>
  </Style>
  <Style id="zone3">
    <PolyStyle><color>59228B22</color><outline>1</outline></PolyStyle>
    <LineStyle><color>e6228B22</color><width>1</width></LineStyle>
  </Style>
  <Style id="boundary">
    <LineStyle><color>ccffffff</color><width>2</width></LineStyle>
    <PolyStyle><fill>0</fill></PolyStyle>
  </Style>
  <Style id="firepoint">
    <IconStyle><color>ff4444ff</color><scale>0.6</scale>
      <Icon><href>http://maps.google.com/mapfiles/kml/shapes/shaded_dot.png</href></Icon>
    </IconStyle>
  </Style>
  <Folder><name>Fire Risk Zones</name>
    <Placemark><name>Low Fire Zone</name><styleUrl>#zone0</styleUrl>
      <Polygon><extrude>0</extrude><altitudeMode>clampToGround</altitudeMode><outerBoundaryIs><LinearRing><coordinates>73.3520269,23.7910198,0 73.3526575,23.7891557,0 73.3549373,23.7856493,0 73.356344,23.7847615,0 73.3591088,23.7840514,0 73.3607095,23.7832524,0 73.3633773,23.7822759,0 73.3633773,23.7809887,0 73.3637653,23.7793463,0 73.3637653,23.778503,0 73.365172,23.7777927,0 73.3668212,23.776683,0 73.3671122,23.7749518,0 73.3675973,23.7739753,0 73.369004,23.7730875,0 73.3713322,23.7701577,0 73.3699256,23.7674942,0 73.3699256,23.7654522,0 73.3718173,23.7649638,0 73.3743396,23.7660293,0 73.3759888,23.7667395,0 73.3780746,23.7671391,0 73.3807909,23.7672279,0 73.3821975,23.7682045,0 73.3830221,23.7707792,0 73.3841863,23.7733982,0 73.3857385,23.7757952,0 73.3875332,23.7782366,0 73.3887943,23.779879,0 73.3914622,23.7811662,0 73.3932084,23.782054,0 73.3956337,23.782631,0 73.3978649,23.7825422,0 73.3988108,23.7831414,0 73.3994656,23.7848947,0 73.4014059,23.7833412,0 73.4032491,23.7817654,0 73.4040252,23.781033,0 73.4050923,23.7804338,0 73.4069598,23.7800787,0 73.4075904,23.7793685,0 73.4089,23.7795017,0 73.4098216,23.7799233,0 73.4111555,23.7800565,0 73.4118831,23.7797236,0 73.4131685,23.7788358,0 73.4137506,23.7781034,0 73.4144782,23.7772601,0 73.4162729,23.7772379,0 73.4179949,23.7768827,0 73.4184557,23.7761281,0 73.4183101,23.7752182,0 73.4179463,23.774064,0 73.417049,23.7722218,0 73.4163699,23.7710455,0 73.4164427,23.7699579,0 73.4180919,23.7693142,0 73.4195228,23.7685374,0 73.4199108,23.7675608,0 73.4204929,23.7665842,0 73.4228939,23.7638984,0 73.4240096,23.7622114,0 73.4249312,23.7606577,0 73.4259256,23.7599473,0 73.4273322,23.7601471,0 73.4283994,23.7605467,0 73.4295877,23.7608574,0 73.4309459,23.7610572,0 73.4313097,23.7606133,0 73.4308731,23.7597032,0 73.4306791,23.7583491,0 73.4308489,23.7574612,0 73.4315522,23.7566177,0 73.4329346,23.7563513,0 73.4348264,23.7566399,0 73.4354812,23.7568619,0 73.4368636,23.7567287,0 73.4380278,23.7563069,0 73.439774,23.7551082,0 73.4407926,23.7546643,0 73.4429753,23.7548419,0 73.4445518,23.7547309,0 73.4461525,23.7539317,0 73.4469528,23.7527996,0 73.4478502,23.7515787,0 73.448117,23.7501358,0 73.4478987,23.7484487,0 73.4474379,23.7466283,0 73.4467103,23.7454295,0 73.4465648,23.7439643,0 73.4470013,23.7416111,0 73.4479714,23.7375706,0 73.4490628,23.734418,0 73.4498389,23.7334189,0 73.4516094,23.7335965,0 73.4531616,23.7336853,0 73.454544,23.7336853,0 73.4563144,23.7333967,0 73.4577696,23.7326196,0 73.4584487,23.7306659,0 73.4597341,23.7278239,0 73.461262,23.7260921,0 73.4634933,23.7255148,0 73.4646089,23.7249153,0 73.4663551,23.7230281,0 73.4704054,23.7207633,0 73.4715695,23.719098,0 73.471812,23.7166999,0 73.4724668,23.710971,0 73.4726609,23.7082619,0 73.4727579,23.7063521,0 73.4743586,23.7048865,0 73.4762018,23.7047089,0 73.4784331,23.7044424,0 73.4805673,23.7043091,0 73.4825561,23.7044868,0 73.4852724,23.7054195,0 73.4875036,23.7059968,0 73.4895894,23.7063077,0 73.4923542,23.7063966,0 73.494246,23.7057304,0 73.4958466,23.7046644,0 73.4981264,23.7040871,0 73.4990965,23.7039538,0 73.5020554,23.7039538,0 73.5043594,23.7037095,0 73.507294,23.70311,0 73.5070515,23.7021773,0 73.5062269,23.7010891,0 73.5056691,23.6998233,0 73.5052083,23.6988239,0 73.5058631,23.6979578,0 73.5071485,23.6969585,0 73.5083127,23.695737,0 73.5083612,23.6948487,0 73.5078761,23.6922281,0 73.5075608,23.687653,0 73.506615,23.6816785,0 73.5062027,23.6753483,0 73.5049658,23.670284,0 73.5044564,23.6627759,0 73.5041505,23.6605161,0 73.503641,23.6559004,0 73.500369,23.6538115,0 73.4973449,23.6493612,0 73.4992057,23.6487027,0 73.4994786,23.648686,0 73.4995574,23.6484528,0 73.499618,23.6475752,0 73.4995816,23.6471364,0 73.4998181,23.6469365,0 73.5003274,23.6471309,0 73.501631,23.6476474,0 73.503741,23.6473808,0 73.504893,23.6470698,0 73.5066635,23.6461256,0 73.5085309,23.6449925,0 73.5087128,23.6442927,0 73.5085795,23.6435595,0 73.5081065,23.6428042,0 73.5076457,23.6423709,0 73.5064695,23.6398048,0 73.5052811,23.638905,0 73.5044686,23.6384717,0 73.503741,23.6381496,0 73.5028315,23.6376941,0 73.5013036,23.6370387,0 73.4992785,23.6361055,0 73.4971442,23.6350057,0 73.4958588,23.6342169,0 73.495301,23.6337503,0 73.4948644,23.6332837,0 73.4945734,23.6325727,0 73.4950827,23.6313063,0 73.4954465,23.630262,0 73.4968774,23.6284177,0 73.5004184,23.6269401,0 73.5034136,23.6245404,0 73.5037167,23.6237404,0 73.5030377,23.6231294,0 73.5027224,23.6220961,0 73.5028315,23.6211406,0 73.5031589,23.6187185,0 73.5037289,23.6180074,0 73.504505,23.6179741,0 73.5051598,23.6181074,0 73.5056085,23.6185963,0 73.5062997,23.6187852,0 73.5071122,23.6183519,0 73.5093555,23.6165741,0 73.5117808,23.6148186,0 73.5138666,23.6126853,0 73.5160493,23.6112742,0 73.5180138,23.610163,0 73.5195418,23.6090852,0 73.5218943,23.6072629,0 73.5229736,23.6069851,0 73.523786,23.6070518,0 73.5241134,23.6076518,0 73.5243075,23.6091297,0 73.5245257,23.6101853,0 73.5250108,23.6114408,0 73.5254716,23.6118964,0 73.5291459,23.6128964,0 73.5311832,23.614152,0 73.5319714,23.6158297,0 73.5326626,23.6177519,0 73.5332689,23.6192852,0 73.5364339,23.6204073,0 73.5389198,23.6216961,0 73.5428488,23.6238293,0 73.5450194,23.6251625,0 73.5461836,23.6257625,0 73.5469839,23.6265957,0 73.5485967,23.6280289,0 73.5498821,23.6298842,0 73.5511918,23.6312618,0 73.5522347,23.6327505,0 73.5543326,23.6345947,0 73.5560545,23.6374164,0 73.5574976,23.6398715,0 73.5595712,23.6422265,0 73.5615235,23.644015,0 73.5631,23.6459034,0 73.566362,23.650169,0 73.5685205,23.6527793,0 73.5701818,23.653157,0 73.5719159,23.6534902,0 73.5732862,23.6535568,0 73.5748626,23.6532236,0 73.5765603,23.6528682,0 73.5775183,23.6527016,0 73.580368,23.6524239,0 73.5825872,23.6525238,0 73.586698,23.6535457,0 73.5903845,23.6539456,0 73.5924824,23.6538679,0 73.5954533,23.6537679,0 73.6005707,23.6535568,0 73.6059185,23.6532014,0 73.6103931,23.652746,0 73.6139098,23.6522017,0 73.6158258,23.6518907,0 73.6176084,23.6507688,0 73.6193303,23.6488693,0 73.6201064,23.646781,0 73.6205187,23.6458035,0 73.6226894,23.6444038,0 73.6276854,23.6412712,0 73.636465,23.632695,0 73.6409275,23.6278067,0 73.6480579,23.6247848,0 73.6555763,23.6212295,0 73.6543151,23.6175408,0 73.6504346,23.611052,0 73.6475728,23.6066074,0 73.644711,23.6034961,0 73.6441289,23.6021626,0 73.6445654,23.5987845,0 73.6445169,23.5966954,0 73.6442259,23.5953174,0 73.6436923,23.5947396,0 73.6433043,23.5924281,0 73.6440804,23.5870494,0 73.6462146,23.5853157,0 73.6465057,23.5820261,0 73.6470877,23.5764691,0 73.6473303,23.5737127,0 73.6439834,23.5729569,0 73.6447595,23.5701116,0 73.6457781,23.5695336,0 73.6481064,23.5688223,0 73.64961,23.5678886,0 73.649222,23.5666437,0 73.6484459,23.5657545,0 73.6452445,23.5653989,0 73.6448565,23.5656656,0 73.6424312,23.5673551,0 73.6405395,23.5675329,0 73.6391328,23.5667327,0 73.6372896,23.5654878,0 73.6367075,23.5644207,0 73.6344762,23.5572178,0 73.6335061,23.5535718,0 73.6337971,23.5491697,0 73.6338457,23.5444562,0 73.6349613,23.5381861,0 73.6349613,23.5350287,0 73.6343792,23.5327162,0 73.6339427,23.5292474,0 73.6337486,23.5284024,0 73.6363194,23.527335,0 73.6387932,23.5256895,0 73.6416551,23.5238661,0 73.6428192,23.5228876,0 73.6465057,23.5211086,0 73.6498526,23.5195519,0 73.6517928,23.5168389,0 73.6551882,23.512569,0 73.6560128,23.5089217,0 73.6559643,23.5071425,0 73.6559158,23.5060305,0 73.6555277,23.504963,0 73.6538301,23.5035173,0 73.6526417,23.5005815,0 73.6514775,23.497868,0 73.6496343,23.4969116,0 73.6484217,23.4967337,0 73.6475243,23.4970451,0 73.646724,23.4972897,0 73.6453416,23.4974009,0 73.6437651,23.4973342,0 73.6418006,23.4968449,0 73.6405637,23.4958885,0 73.6405637,23.4949543,0 73.6398361,23.4908172,0 73.6391571,23.4862573,0 73.6399332,23.4835881,0 73.6398361,23.4814081,0 73.6381869,23.4785163,0 73.6355434,23.4722653,0 73.6341125,23.4700629,0 73.6333364,23.4693288,0 73.6333121,23.4679718,0 73.6338699,23.466548,0 73.6339912,23.4647682,0 73.6343065,23.4632109,0 73.634161,23.461876,0 73.6335061,23.4609638,0 73.6319054,23.4599404,0 73.6303775,23.4568702,0 73.6297469,23.4537553,0 73.6289951,23.4525983,0 73.628219,23.4518196,0 73.6273702,23.4509741,0 73.6269821,23.4497949,0 73.6267881,23.4488826,0 73.6269336,23.4484376,0 73.6272095,23.4485713,0 73.6306807,23.4492609,0 73.6337244,23.4494389,0 73.6359557,23.4487603,0 73.637132,23.4479036,0 73.639242,23.4462682,0 73.6413156,23.4439875,0 73.6421523,23.443498,0 73.6446382,23.4429751,0 73.6454992,23.442252,0 73.6459479,23.4415622,0 73.6461419,23.4407611,0 73.6462632,23.4394817,0 73.6463238,23.4379574,0 73.6468938,23.4369005,0 73.6473546,23.4364443,0 73.64807,23.4368115,0 73.6490886,23.4381132,0 73.6506044,23.4395707,0 73.6516352,23.440572,0 73.6537573,23.442697,0 73.6590808,23.4468579,0 73.6617729,23.4485155,0 73.6638223,23.4495613,0 73.6683697,23.4510965,0 73.6715226,23.4524426,0 73.6731718,23.4536774,0 73.6746269,23.4539444,0 73.6777313,23.4537442,0 73.680957,23.453644,0 73.6825698,23.4536663,0 73.6843402,23.4539333,0 73.6855529,23.4541558,0 73.6865351,23.4547565,0 73.6880509,23.4561582,0 73.6899427,23.4567923,0 73.6912038,23.4576933,0 73.6928409,23.458294,0 73.69352,23.4574375,0 73.6940171,23.4568256,0 73.69563,23.4559357,0 73.6966486,23.4564697,0 73.6972913,23.4566922,0 73.6977763,23.4563362,0 73.6982008,23.4555241,0 73.7002623,23.4542448,0 73.7021782,23.4530211,0 73.7045793,23.4514414,0 73.7047369,23.4494945,0 73.7055615,23.4472473,0 73.7067014,23.4460457,0 73.7068954,23.4452336,0 73.7066408,23.4445216,0 73.706277,23.4427637,0 73.7054888,23.4392035,0 73.7053675,23.4382801,0 73.7060587,23.4380576,0 73.7067742,23.4382356,0 73.7077928,23.4378128,0 73.7079019,23.4374123,0 73.7085689,23.4357879,0 73.7097815,23.4359325,0 73.7105697,23.4359103,0 73.7120007,23.435621,0 73.7121826,23.4342302,0 73.7116611,23.4333624,0 73.7110548,23.4328172,0 73.7093814,23.4319271,0 73.7087144,23.4313262,0 73.7082051,23.4304472,0 73.7080959,23.4296684,0 73.7084476,23.4289118,0 73.7090539,23.4284222,0 73.7099755,23.4269757,0 73.7105819,23.4260856,0 73.7103757,23.4250174,0 73.7100847,23.4245278,0 73.7092358,23.4238045,0 73.7079747,23.4227474,0 73.7085689,23.4224248,0 73.7101574,23.4222467,0 73.7106789,23.4218573,0 73.7114065,23.4210116,0 73.71194,23.4196095,0 73.7128253,23.4184745,0 73.7134073,23.4179515,0 73.7142441,23.4172394,0 73.7144866,23.4166051,0 73.7142562,23.4159486,0 73.7135892,23.4149693,0 73.7137105,23.4142571,0 73.7138803,23.4137897,0 73.7153718,23.4131443,0 73.7197495,23.4107184,0 73.7205255,23.4102733,0 73.7214229,23.4101397,0 73.7219621,23.4116331,0 73.7239169,23.4144803,0 73.7241859,23.4154348,0 73.7247778,23.4167514,0 73.7264098,23.4185453,0 73.7277011,23.4211126,0 73.7287054,23.4231203,0 73.7303195,23.4237456,0 73.7322743,23.4244532,0 73.7343906,23.4249963,0 73.7350183,23.425309,0 73.735108,23.4259179,0 73.7351618,23.4271685,0 73.7360764,23.4287647,0 73.7374215,23.4298179,0 73.7384617,23.4304103,0 73.7390536,23.4312989,0 73.7395737,23.4321052,0 73.7401296,23.4329609,0 73.741385,23.4329938,0 73.7418872,23.4341128,0 73.7428377,23.4353634,0 73.7447388,23.4366139,0 73.7456176,23.4373215,0 73.7476083,23.4390328,0 73.7499039,23.440382,0 73.7503881,23.441287,0 73.7510338,23.4428995,0 73.7517332,23.4443639,0 73.7530424,23.445598,0 73.7539929,23.4469636,0 73.7553022,23.4494316,0 73.7557146,23.4498923,0 73.7561271,23.4506163,0 73.755894,23.4514225,0 73.7555891,23.4521629,0 73.755338,23.452821,0 73.7553739,23.4534626,0 73.7562706,23.4538081,0 73.7581537,23.4537423,0 73.7610232,23.453331,0 73.7644846,23.45315,0 73.7659014,23.4528703,0 73.7673003,23.4522616,0 73.7686274,23.450896,0 73.7696318,23.4493658,0 73.7703491,23.4472762,0 73.7711383,23.4432615,0 73.7715687,23.4407276,0 73.7720888,23.4387366,0 73.7722323,23.437848,0 73.7726627,23.437124,0 73.7734518,23.4372228,0 73.7745817,23.4374696,0 73.7762496,23.4372392,0 73.7772001,23.4360874,0 73.7774153,23.4339976,0 73.7780609,23.4322862,0 73.7789039,23.4309204,0 73.7800337,23.4304761,0 73.7824369,23.4302293,0 73.7856472,23.4298837,0 73.7912966,23.4298508,0 73.7934666,23.4302787,0 73.7949014,23.4308875,0 73.7968024,23.432566,0 73.7991877,23.4343761,0 73.800479,23.4354785,0 73.8014474,23.436219,0 73.802936,23.4367785,0 73.804299,23.4371405,0 73.8059669,23.4373873,0 73.8082625,23.4373379,0 73.8124771,23.4370747,0 73.8154363,23.4373379,0 73.8172656,23.4378316,0 73.8190411,23.4381607,0 73.820727,23.4391315,0 73.8229867,23.4406947,0 73.8246187,23.4416655,0 73.8254975,23.4425211,0 73.8261431,23.4436235,0 73.8266991,23.4445614,0 73.8273806,23.4456473,0 73.8279007,23.4463713,0 73.8284029,23.4465358,0 73.8290306,23.4463878,0 73.8290485,23.4456802,0 73.8288333,23.4450879,0 73.8285822,23.444331,0 73.8286002,23.4435577,0 73.8290485,23.4426692,0 73.8301425,23.4421097,0 73.8304833,23.4411719,0 73.8314876,23.4394606,0 73.8325637,23.4369759,0 73.8328327,23.4352975,0 73.8328327,23.4343267,0 73.8326533,23.4335039,0 73.8319539,23.4320394,0 73.8314876,23.4306736,0 73.830824,23.4290116,0 73.8304833,23.4281559,0 73.8304474,23.4267242,0 73.8306985,23.4253254,0 73.8325099,23.4235646,0 73.8342316,23.4217873,0 73.8347158,23.4208986,0 73.8353435,23.4194833,0 73.8368141,23.4189896,0 73.8383027,23.4185782,0 73.8390021,23.4179034,0 73.8391456,23.4172781,0 73.8390201,23.416521,0 73.8394684,23.4157969,0 73.8402037,23.415188,0 73.8403831,23.414398,0 73.8408852,23.4125548,0 73.8419075,23.4116989,0 73.8430553,23.410909,0 73.8444363,23.4096911,0 73.8453689,23.4084567,0 73.8453509,23.4061196,0 73.8463194,23.4056917,0 73.847234,23.40556,0 73.8485612,23.4052308,0 73.8496193,23.4045231,0 73.8501394,23.4030089,0 73.8501394,23.401544,0 73.8515742,23.399717,0 73.8549996,23.3971987,0 73.8569904,23.3958325,0 73.858461,23.3940548,0 73.8594115,23.3921619,0 73.859555,23.3916516,0 73.8594115,23.3908286,0 73.8599137,23.3901537,0 73.8608642,23.3899233,0 73.8616174,23.3889356,0 73.8624424,23.3884583,0 73.8641103,23.3881784,0 73.8631957,23.3856434,0 73.862568,23.3850838,0 73.8617968,23.3846229,0 73.8610794,23.3843924,0 73.8608104,23.3838327,0 73.8611512,23.3829767,0 73.8619582,23.3825158,0 73.8626935,23.3822689,0 73.8635902,23.3823182,0 73.8640745,23.3830096,0 73.8647739,23.3830755,0 73.8653478,23.3830096,0 73.86585,23.3827298,0 73.8660652,23.381775,0 73.8659396,23.3810507,0 73.8659934,23.3803758,0 73.866675,23.3800959,0 73.8671951,23.3801288,0 73.8677869,23.3805075,0 73.8686298,23.3805898,0 73.8689706,23.3797831,0 73.8685222,23.3788448,0 73.8682353,23.3784826,0 73.8675896,23.3779723,0 73.8671054,23.3775772,0 73.8671771,23.3767047,0 73.8680738,23.376145,0 73.8695265,23.3759639,0 73.8707281,23.3759804,0 73.8718939,23.3764413,0 73.8724678,23.3773138,0 73.873221,23.3773303,0 73.8732748,23.3759639,0 73.8729879,23.3745975,0 73.8729161,23.371947,0 73.8722346,23.3707452,0 73.8725574,23.3699715,0 73.8735438,23.3693788,0 73.874046,23.3688684,0 73.8737949,23.3680453,0 73.8732928,23.3672056,0 73.8738308,23.3662507,0 73.8739563,23.3647361,0 73.8742433,23.3628263,0 73.874046,23.3617067,0 73.8748531,23.3604884,0 73.877328,23.359023,0 73.8791394,23.358101,0 73.8798388,23.3573766,0 73.8802872,23.3566521,0 73.8820089,23.3564545,0 73.8835871,23.3564875,0 73.8853985,23.3563393,0 73.8867974,23.35601,0 73.8878555,23.3550386,0 73.8885729,23.3536061,0 73.8888957,23.3521078,0 73.8891827,23.3513174,0 73.8891289,23.3506094,0 73.8892185,23.3497203,0 73.8895593,23.3491769,0 73.8904381,23.3487488,0 73.8911555,23.3480902,0 73.8910479,23.3466329,0 73.8924099,23.345579,0 73.8917268,23.3437987,0 73.8907082,23.3397237,0 73.8907567,23.3382763,0 73.8906839,23.337096,0 73.8902888,23.3362959,0 73.8898821,23.3351638,0 73.8899,23.3335994,0 73.8903125,23.3329901,0 73.8918908,23.3324302,0 73.8943836,23.3321338,0 73.8963744,23.333056,0 73.8992618,23.3340934,0 73.9039965,23.3342417,0 73.9078165,23.3340111,0 73.9123719,23.3336653,0 73.9181288,23.3341428,0 73.9228277,23.3349168,0 73.9283694,23.3359707,0 73.9314362,23.3366459,0 73.9334269,23.337107,0 73.9357942,23.3382926,0 73.9370676,23.3399722,0 73.9390942,23.3424752,0 73.9390942,23.3440889,0 73.9384665,23.3472175,0 73.9380181,23.3506423,0 73.9374083,23.353639,0 73.936673,23.3584138,0 73.9366013,23.362036,0 73.9370109,23.3642554,0 73.9369702,23.3659635,0 73.9380891,23.3678445,0 73.9400725,23.3691422,0 73.9441864,23.3714458,0 73.9488873,23.3734044,0 73.9507009,23.374319,0 73.9526071,23.3753351,0 73.9545428,23.37681,0 73.9561333,23.3781931,0 73.9573477,23.3795433,0 73.9624501,23.3842589,0 73.9643642,23.3858557,0 73.9661347,23.3876254,0 73.9693594,23.391461,0 73.9725265,23.3924037,0 73.9739397,23.3932119,0 73.9752295,23.3942031,0 73.9761996,23.3950045,0 73.9769304,23.3955472,0 73.9776197,23.3959428,0 73.9780646,23.396707,0 73.9781178,23.3981551,0 73.9783864,23.3995429,0 73.9785188,23.4012407,0 73.9787061,23.4034901,0 73.978734,23.4053512,0 73.9790027,23.4072282,0 73.9796745,23.4095198,0 73.9811204,23.4119672,0 73.9841766,23.4143811,0 73.9991919,23.4230203,0 74.0019361,23.4266117,0 74.0028762,23.427457,0 74.0051943,23.430322,0 74.0076933,23.4346169,0 74.0095073,23.4376829,0 74.011634,23.4421614,0 74.0123859,23.4437719,0 74.0132411,23.4456581,0 74.0141415,23.4488766,0 74.014077,23.4519607,0 74.0132534,23.4569933,0 74.0117597,23.4603135,0 74.0112002,23.4624986,0 74.0107512,23.463955,0 74.0105836,23.4691331,0 74.0113141,23.4711094,0 74.0122962,23.4728515,0 74.0157663,23.4775829,0 74.0170383,23.4797991,0 74.0180116,23.4840552,0 74.0193698,23.4920406,0 74.0194201,23.4960546,0 74.0200246,23.4993582,0 74.0204163,23.5055332,0 74.0223009,23.5102411,0 74.024055,23.5152398,0 74.0256426,23.5196293,0 74.0283215,23.524139,0 74.0293212,23.5299077,0 74.0304749,23.5351491,0 74.0303574,23.5429066,0 74.0326169,23.5495885,0 74.0367766,23.5527335,0 74.0440423,23.5560514,0 74.0510545,23.5592422,0 74.0566651,23.5627247,0 74.061924,23.5655102,0 74.065535,23.5692432,0 74.0659396,23.5735046,0 74.0649086,23.5788424,0 74.0654383,23.5831951,0 74.0660624,23.5882737,0 74.0662366,23.5920466,0 74.0672545,23.594335,0 74.0684577,23.5969843,0 74.0692459,23.5988709,0 74.0708587,23.6007403,0 74.0724594,23.6019626,0 74.0766485,23.6044952,0 74.0829367,23.6061184,0 74.0886118,23.605874,0 74.0940687,23.605874,0 74.1015719,23.6055615,0 74.1042064,23.6054518,0 74.1096391,23.6053184,0 74.1144365,23.6063768,0 74.1166722,23.6074658,0 74.1175151,23.609972,0 74.1181745,23.6130022,0 74.11893,23.6153971,0 74.1199514,23.6182187,0 74.120568,23.6211229,0 74.1230821,23.6305085,0 74.1258353,23.6380192,0 74.1279258,23.642071,0 74.1287742,23.6441601,0 74.1292143,23.6471297,0 74.1290247,23.6497667,0 74.1282046,23.6523513,0 74.1275657,23.657779,0 74.1285358,23.6627961,0 74.128311,23.6667679,0 74.1281683,23.6686402,0 74.1276347,23.6743266,0 74.1269071,23.6788133,0 74.1277802,23.6811677,0 74.130254,23.6840994,0 74.1319442,23.6863855,0 74.1333099,23.6900072,0 74.1335535,23.6943435,0 74.1326308,23.6967586,0 74.13006,23.7037762,0 74.1222021,23.7135468,0 74.1195828,23.7179878,0 74.1189522,23.7201638,0 74.1187582,23.7219845,0 74.1204067,23.7252037,0 74.123528,23.7290771,0 74.1292095,23.7345668,0 74.1305619,23.738744,0 74.1316655,23.7419845,0 74.1323269,23.7451549,0 74.1323883,23.7465395,0 74.1334554,23.7570617,0 74.1368508,23.768382,0 74.1419439,23.7781922,0 74.1475221,23.7858268,0 74.1514511,23.7887118,0 74.1547495,23.7896883,0 74.1581449,23.789999,0 74.1697378,23.7937272,0 74.1839809,23.7975677,0 74.1963377,23.7985279,0 74.2001571,23.8004483,0 74.2033663,23.8026278,0 74.204751,23.8037868,0 74.2071111,23.805162,0 74.2106199,23.8075054,0 74.2132122,23.8092067,0 74.2166803,23.8112023,0 74.2207902,23.8131018,0 74.2240755,23.8135574,0 74.2274112,23.8136092,0 74.2315099,23.814053,0 74.2363529,23.8156175,0 74.2425682,23.8180914,0 74.2488198,23.8218045,0 74.2569678,23.8280432,0 74.2617202,23.8316166,0 74.266478,23.8336755,0 74.2729834,23.8352982,0 74.2799672,23.8368381,0 74.2861283,23.8409875,0 74.2893936,23.8442237,0 74.2927257,23.8484422,0 74.2954841,23.8522969,0 74.2984198,23.8544586,0 74.3004665,23.8553721,0 74.3019515,23.8559289,0 74.3032743,23.8563809,0 74.3075913,23.8562034,0 74.3114717,23.8567801,0 74.3140425,23.8573568,0 74.3166619,23.8586876,0 74.320033,23.8615489,0 74.3224341,23.8642992,0 74.330389,23.8725275,0 74.335094,23.8760759,0 74.3383924,23.8796243,0 74.343049,23.8817976,0 74.3483361,23.8830838,0 74.351586,23.8833499,0 74.355224,23.8842813,0 74.3579403,23.8857893,0 74.3588619,23.8879625,0 74.3585223,23.8902687,0 74.3571157,23.8942601,0 74.3561456,23.8962558,0 74.3558545,23.8985175,0 74.3570672,23.9010009,0 74.3588134,23.9021539,0 74.3612872,23.9023313,0 74.364246,23.902287,0 74.3674474,23.9016218,0 74.3708913,23.9006905,0 74.3726375,23.9004244,0 74.3777215,23.9014849,0 74.3788576,23.9035631,0 74.3811709,23.9053403,0 74.3756934,23.9183613,0 74.374214,23.9230613,0 74.3715704,23.9268965,0 74.3679082,23.9312415,0 74.36558,23.9324386,0 74.3650464,23.934345,0 74.3644401,23.9361184,0 74.363664,23.9367169,0 74.3619663,23.9363844,0 74.3600988,23.9356972,0 74.3586679,23.9347884,0 74.3578918,23.9337908,0 74.3566549,23.9336135,0 74.3555878,23.934079,0 74.3545934,23.9346997,0 74.3538173,23.9355642,0 74.3530655,23.9359854,0 74.3520226,23.9357637,0 74.3497428,23.9350987,0 74.3481179,23.9350322,0 74.3424669,23.9351652,0 74.3386835,23.9352317,0 74.3373981,23.9362292,0 74.336234,23.9375149,0 74.3351911,23.9386676,0 74.3330811,23.9398202,0 74.3318442,23.9403079,0 74.3298554,23.9403744,0 74.3229434,23.9414606,0 74.3171712,23.9413941,0 74.3130967,23.9452731,0 74.3097983,23.947268,0 74.3081976,23.950504,0 74.3059663,23.9559121,0 74.3035168,23.9591036,0 74.3022799,23.9610097,0 74.3007277,23.9620956,0 74.2994908,23.9617632,0 74.2988602,23.9589928,0 74.2982539,23.9566435,0 74.2974293,23.9555353,0 74.2958286,23.9543606,0 74.2949313,23.9539838,0 74.293088,23.9539174,0 74.290687,23.9546044,0 74.2874371,23.9566435,0 74.2845753,23.9574857,0 74.2814466,23.9576187,0 74.2793366,23.9573971,0 74.2778815,23.9570646,0 74.2761353,23.9564884,0 74.2742435,23.9556905,0 74.2731037,23.9542055,0 74.2723518,23.9519004,0 74.2712366,23.9494102,0 74.270668,23.9479296,0 74.270153,23.944841,0 74.2690674,23.9367802,0 74.2661189,23.9334661,0 74.246292,23.9260131,0 74.2380094,23.9193834,0 74.2335033,23.9145189,0 74.2299413,23.9115765,0 74.2196899,23.9070832,0 74.2186975,23.9127927,0 74.2156076,23.9172258,0 74.2123889,23.9267584,0 74.2056942,23.940448,0 74.2015067,23.9504928,0 74.1988277,23.9557834,0 74.1888742,23.9621351,0 74.1861677,23.9638622,0 74.175641,23.9664276,0 74.166212,23.971313,0 74.1625642,23.9770381,0 74.1612768,23.9911929,0 74.1614637,24.0014474,0 74.1603862,24.0069826,0 74.1570925,24.0098937,0 74.1526723,24.0110501,0 74.1470933,24.0100897,0 74.1420982,24.0080525,0 74.1261368,23.9984078,0 74.1198068,23.9922283,0 74.1124316,23.9883319,0 74.1058301,23.9894678,0 74.0984058,23.9907224,0 74.0935564,23.9894286,0 74.0891361,23.9850371,0 74.0838899,23.9754468,0 74.0752315,23.9675877,0 74.0666055,23.9676269,0 74.0545034,23.9754304,0 74.0455314,23.9800094,0 74.0303421,23.9780576,0 74.018741,23.9719626,0 74.0100608,23.9734276,0 74.0035757,23.9702266,0 73.998174,23.967921,0 73.9894437,23.9691562,0 73.9696727,23.9801124,0 73.9554832,23.9800885,0 73.9491623,23.9773628,0 73.9402325,23.9761303,0 73.9326225,23.98097,0 73.9203097,23.9862836,0 73.9140952,23.9853746,0 73.9070737,23.98271,0 73.8992316,23.9774836,0 73.8972294,23.9764499,0 73.8933134,23.9736658,0 73.8860607,23.9671955,0 73.8763189,23.9649994,0 73.8761043,23.9609602,0 73.8738216,23.9591303,0 73.8667917,23.9593522,0 73.8625002,23.9473903,0 73.8581361,23.937609,0 73.8547539,23.9360353,0 73.8443496,23.9349917,0 73.8373089,23.9342702,0 73.8305282,23.9359569,0 73.8274169,23.9391144,0 73.8228678,23.9408402,0 73.8190269,23.9405265,0 73.8150573,23.9386437,0 73.8109585,23.9387515,0 73.8084268,23.9425268,0 73.8062501,23.9450925,0 73.799994,23.9450763,0 73.7935138,23.9454685,0 73.7886214,23.947959,0 73.7854761,23.9483721,0 73.7830639,23.9434878,0 73.779695,23.9390164,0 73.7747886,23.9358236,0 73.7705111,23.9356431,0 73.7634301,23.9391144,0 73.7578511,23.9436054,0 73.7554002,23.9468666,0 73.7532806,23.9486454,0 73.7499761,23.9478022,0 73.7455344,23.9455273,0 73.7402344,23.9406441,0 73.7361789,23.9389575,0 73.7317677,23.9416023,0 73.7292909,23.9458803,0 73.7223601,23.9473511,0 73.7157726,23.9473315,0 73.7108159,23.9496063,0 73.7078118,23.9493906,0 73.7046146,23.9504496,0 73.7038421,23.9541166,0 73.697739,23.9563654,0 73.6925125,23.9575678,0 73.6888325,23.9551657,0 73.6846161,23.9518027,0 73.6809254,23.9468805,0 73.6739732,23.9403439,0 73.6711406,23.9396832,0 73.6694026,23.9405657,0 73.6674285,23.946096,0 73.6659479,23.9481748,0 73.661828,23.9500377,0 73.6512756,23.9472784,0 73.6506486,23.9454685,0 73.6501339,23.9429303,0 73.63698,23.9463314,0 73.6320877,23.9506065,0 73.6130474,23.959904,0 73.6119175,23.9626465,0 73.6023044,23.9636661,0 73.5926914,23.9646857,0 73.5884428,23.9639014,0 73.575866,23.958958,0 73.5726499,23.9622151,0 73.5522382,23.9438651,0 73.549819,23.9413305,0 73.5472441,23.9374866,0 73.5455704,23.9357411,0 73.5441112,23.9349763,0 73.5402274,23.9337995,0 73.5338115,23.9323089,0 73.5295844,23.9313871,0 73.5280823,23.9308772,0 73.5244345,23.9296219,0 73.5213017,23.9294062,0 73.5191774,23.9296416,0 73.5176539,23.9300142,0 73.5154223,23.9303672,0 73.5144567,23.9291708,0 73.5135984,23.9277391,0 73.5129118,23.9265819,0 73.5101867,23.922561,0 73.5073757,23.9181869,0 73.5049724,23.9166569,0 73.502934,23.915735,0 73.5020327,23.9134988,0 73.5010242,23.9115765,0 73.4991542,23.9097341,0 73.4980425,23.908914,0 73.4978056,23.9079846,0 73.4990266,23.9065813,0 73.4993182,23.9050687,0 73.4985528,23.9043398,0 73.4979332,23.9037201,0 73.4979332,23.9027361,0 73.4975323,23.9018431,0 73.4968033,23.9009865,0 73.4963113,23.9000571,0 73.4960197,23.8981254,0 73.4941973,23.8974693,0 73.4934137,23.8965946,0 73.4920651,23.8949544,0 73.4918464,23.8932414,0 73.4913725,23.891747,0 73.4891857,23.8875919,0 73.4879829,23.8856966,0 73.4867436,23.8847125,0 73.4867801,23.8832911,0 73.4864156,23.8818696,0 73.4851035,23.8788808,0 73.4834269,23.8754183,0 73.4828073,23.8728669,0 73.4817867,23.8694044,0 73.4803288,23.8693679,0 73.4768662,23.8694773,0 73.4746429,23.8691857,0 73.4738046,23.8699511,0 73.4714719,23.8695137,0 73.4703785,23.8667072,0 73.4688477,23.86124,0 73.4696495,23.859126,0 73.4693944,23.8524196,0 73.4694308,23.8492486,0 73.4694308,23.8468795,0 73.4687383,23.8449477,0 73.4661141,23.8432347,0 73.4646926,23.8417403,0 73.4628337,23.8397721,0 73.4504414,23.8373301,0 73.4459219,23.8367105,0 73.4434799,23.8369656,0 73.440892,23.8369656,0 73.4375388,23.8373301,0 73.4349146,23.8382778,0 73.4309782,23.8373666,0 73.4297025,23.8364554,0 73.4281352,23.8344143,0 73.4268596,23.8324461,0 73.4256203,23.8312797,0 73.4235792,23.8307695,0 73.4227774,23.8299312,0 73.4222671,23.8278901,0 73.4151233,23.8265779,0 73.4151962,23.8255938,0 73.41567,23.8241359,0 73.414613,23.8227873,0 73.4146495,23.8214752,0 73.4147953,23.8208556,0 73.4140663,23.819908,0 73.413556,23.8189603,0 73.4143579,23.8180491,0 73.4141756,23.8169557,0 73.4141028,23.8154248,0 73.4139205,23.8136389,0 73.4134467,23.8112333,0 73.411843,23.8080624,0 73.4092916,23.807625,0 73.4067038,23.807224,0 73.4051548,23.8056568,0 73.4031866,23.8035975,0 73.4019656,23.8025405,0 73.4014371,23.8032147,0 73.4008904,23.8050189,0 73.4003436,23.8057479,0 73.3973731,23.8064039,0 73.3959699,23.8074063,0 73.3939835,23.8086455,0 73.3919788,23.8089918,0 73.3899377,23.8089189,0 73.3814818,23.8120716,0 73.3791673,23.8068595,0 73.3762151,23.8114155,0 73.3743927,23.8136024,0 73.3733725,23.8138715,0 73.368337,23.8141549,0 73.3635228,23.805932,0 73.3623102,23.8023372,0 73.3608793,23.8010502,0 73.3589875,23.7974997,0 73.3573626,23.7942598,0 73.3549858,23.7937716,0 73.352803,23.7924845,0 73.3520269,23.7910198,0</coordinates></LinearRing></outerBoundaryIs></Polygon>
    </Placemark>
    <Placemark><name>Moderate Fire Zone</name><styleUrl>#zone1</styleUrl>
      <Polygon><extrude>0</extrude><altitudeMode>clampToGround</altitudeMode><outerBoundaryIs><LinearRing><coordinates>73.3520269,23.7910198,0 73.3526575,23.7891557,0 73.3549373,23.7856493,0 73.356344,23.7847615,0 73.3591088,23.7840514,0 73.3607095,23.7832524,0 73.3633773,23.7822759,0 73.3633773,23.7809887,0 73.3637653,23.7793463,0 73.3637653,23.778503,0 73.365172,23.7777927,0 73.3668212,23.776683,0 73.3671122,23.7749518,0 73.3675973,23.7739753,0 73.369004,23.7730875,0 73.3713322,23.7701577,0 73.3699256,23.7674942,0 73.3699256,23.7654522,0 73.3718173,23.7649638,0 73.3743396,23.7660293,0 73.3759888,23.7667395,0 73.3780746,23.7671391,0 73.3807909,23.7672279,0 73.3821975,23.7682045,0 73.3830221,23.7707792,0 73.3841863,23.7733982,0 73.3857385,23.7757952,0 73.3875332,23.7782366,0 73.3887943,23.779879,0 73.3914622,23.7811662,0 73.3932084,23.782054,0 73.3956337,23.782631,0 73.3978649,23.7825422,0 73.3988108,23.7831414,0 73.3994656,23.7848947,0 73.4014059,23.7833412,0 73.4032491,23.7817654,0 73.4040252,23.781033,0 73.4050923,23.7804338,0 73.4069598,23.7800787,0 73.4075904,23.7793685,0 73.4089,23.7795017,0 73.4098216,23.7799233,0 73.4111555,23.7800565,0 73.4118831,23.7797236,0 73.4131685,23.7788358,0 73.4137506,23.7781034,0 73.4144782,23.7772601,0 73.4162729,23.7772379,0 73.4179949,23.7768827,0 73.4184557,23.7761281,0 73.4183101,23.7752182,0 73.4179463,23.774064,0 73.417049,23.7722218,0 73.4163699,23.7710455,0 73.4164427,23.7699579,0 73.4180919,23.7693142,0 73.4195228,23.7685374,0 73.4199108,23.7675608,0 73.4204929,23.7665842,0 73.4228939,23.7638984,0 73.4240096,23.7622114,0 73.4249312,23.7606577,0 73.4259256,23.7599473,0 73.4273322,23.7601471,0 73.4283994,23.7605467,0 73.4295877,23.7608574,0 73.4309459,23.7610572,0 73.4313097,23.7606133,0 73.4308731,23.7597032,0 73.4306791,23.7583491,0 73.4308489,23.7574612,0 73.4315522,23.7566177,0 73.4329346,23.7563513,0 73.4348264,23.7566399,0 73.4354812,23.7568619,0 73.4368636,23.7567287,0 73.4380278,23.7563069,0 73.439774,23.7551082,0 73.4407926,23.7546643,0 73.4429753,23.7548419,0 73.4445518,23.7547309,0 73.4461525,23.7539317,0 73.4469528,23.7527996,0 73.4478502,23.7515787,0 73.448117,23.7501358,0 73.4478987,23.7484487,0 73.4474379,23.7466283,0 73.4467103,23.7454295,0 73.4465648,23.7439643,0 73.4470013,23.7416111,0 73.4479714,23.7375706,0 73.4490628,23.734418,0 73.4498389,23.7334189,0 73.4516094,23.7335965,0 73.4531616,23.7336853,0 73.454544,23.7336853,0 73.4563144,23.7333967,0 73.4577696,23.7326196,0 73.4584487,23.7306659,0 73.4597341,23.7278239,0 73.461262,23.7260921,0 73.4634933,23.7255148,0 73.4646089,23.7249153,0 73.4663551,23.7230281,0 73.4704054,23.7207633,0 73.4715695,23.719098,0 73.471812,23.7166999,0 73.4724668,23.710971,0 73.4726609,23.7082619,0 73.4727579,23.7063521,0 73.4743586,23.7048865,0 73.4762018,23.7047089,0 73.4784331,23.7044424,0 73.4805673,23.7043091,0 73.4825561,23.7044868,0 73.4852724,23.7054195,0 73.4875036,23.7059968,0 73.4895894,23.7063077,0 73.4923542,23.7063966,0 73.494246,23.7057304,0 73.4958466,23.7046644,0 73.4981264,23.7040871,0 73.4990965,23.7039538,0 73.5020554,23.7039538,0 73.5043594,23.7037095,0 73.507294,23.70311,0 73.5070515,23.7021773,0 73.5062269,23.7010891,0 73.5056691,23.6998233,0 73.5052083,23.6988239,0 73.5058631,23.6979578,0 73.5071485,23.6969585,0 73.5083127,23.695737,0 73.5083612,23.6948487,0 73.5078761,23.6922281,0 73.5075608,23.687653,0 73.506615,23.6816785,0 73.5062027,23.6753483,0 73.5049658,23.670284,0 73.5044564,23.6627759,0 73.5041505,23.6605161,0 73.503641,23.6559004,0 73.500369,23.6538115,0 73.4973449,23.6493612,0 73.4992057,23.6487027,0 73.4994786,23.648686,0 73.4995574,23.6484528,0 73.499618,23.6475752,0 73.4995816,23.6471364,0 73.4998181,23.6469365,0 73.5003274,23.6471309,0 73.501631,23.6476474,0 73.503741,23.6473808,0 73.504893,23.6470698,0 73.5066635,23.6461256,0 73.5085309,23.6449925,0 73.5087128,23.6442927,0 73.5085795,23.6435595,0 73.5081065,23.6428042,0 73.5076457,23.6423709,0 73.5064695,23.6398048,0 73.5052811,23.638905,0 73.5044686,23.6384717,0 73.503741,23.6381496,0 73.5028315,23.6376941,0 73.5013036,23.6370387,0 73.4992785,23.6361055,0 73.4971442,23.6350057,0 73.4958588,23.6342169,0 73.495301,23.6337503,0 73.4948644,23.6332837,0 73.4945734,23.6325727,0 73.4950827,23.6313063,0 73.4954465,23.630262,0 73.4968774,23.6284177,0 73.5004184,23.6269401,0 73.5034136,23.6245404,0 73.5037167,23.6237404,0 73.5030377,23.6231294,0 73.5027224,23.6220961,0 73.5028315,23.6211406,0 73.5031589,23.6187185,0 73.5037289,23.6180074,0 73.504505,23.6179741,0 73.5051598,23.6181074,0 73.5056085,23.6185963,0 73.5062997,23.6187852,0 73.5071122,23.6183519,0 73.5093555,23.6165741,0 73.5117808,23.6148186,0 73.5138666,23.6126853,0 73.5160493,23.6112742,0 73.5180138,23.610163,0 73.5195418,23.6090852,0 73.5218943,23.6072629,0 73.5229736,23.6069851,0 73.523786,23.6070518,0 73.5241134,23.6076518,0 73.5243075,23.6091297,0 73.5245257,23.6101853,0 73.5250108,23.6114408,0 73.5254716,23.6118964,0 73.5291459,23.6128964,0 73.5311832,23.614152,0 73.5319714,23.6158297,0 73.5326626,23.6177519,0 73.5332689,23.6192852,0 73.5364339,23.6204073,0 73.5389198,23.6216961,0 73.5428488,23.6238293,0 73.5450194,23.6251625,0 73.5461836,23.6257625,0 73.5469839,23.6265957,0 73.5485967,23.6280289,0 73.5498821,23.6298842,0 73.5511918,23.6312618,0 73.5522347,23.6327505,0 73.5543326,23.6345947,0 73.5560545,23.6374164,0 73.5574976,23.6398715,0 73.5595712,23.6422265,0 73.5615235,23.644015,0 73.5631,23.6459034,0 73.566362,23.650169,0 73.5685205,23.6527793,0 73.5701818,23.653157,0 73.5719159,23.6534902,0 73.5732862,23.6535568,0 73.5748626,23.6532236,0 73.5765603,23.6528682,0 73.5775183,23.6527016,0 73.580368,23.6524239,0 73.5825872,23.6525238,0 73.586698,23.6535457,0 73.5903845,23.6539456,0 73.5924824,23.6538679,0 73.5954533,23.6537679,0 73.6005707,23.6535568,0 73.6059185,23.6532014,0 73.6103931,23.652746,0 73.6139098,23.6522017,0 73.6158258,23.6518907,0 73.6176084,23.6507688,0 73.6193303,23.6488693,0 73.6201064,23.646781,0 73.6205187,23.6458035,0 73.6226894,23.6444038,0 73.6276854,23.6412712,0 73.636465,23.632695,0 73.6409275,23.6278067,0 73.6480579,23.6247848,0 73.6555763,23.6212295,0 73.6543151,23.6175408,0 73.6504346,23.611052,0 73.6475728,23.6066074,0 73.64593851506572,23.60483063337899,0 73.6651409353943,23.605849708628828,0 73.69344279829913,23.624697664397246,0 73.70632296792186,23.62642824450847,0 73.71344363391668,23.634697665196917,0 73.72632325978773,23.63642824455997,0 73.7334444700298,23.644697666202507,0 73.74632355164235,23.646428244838127,0 73.77344693209331,23.674698435742624,0 73.80385967547586,23.67549351621867,0 73.81503139482055,23.68517756345597,0 73.8463244679899,23.686428099041727,0 73.85344868999391,23.69469768973389,0 73.88736152207535,23.707206782186333,0 73.92201460481432,23.74392323423169,0 73.93736300691931,23.747206787847787,0 73.95821462469806,23.768155527958253,0 73.9601070432537,23.78189063309828,0 73.9682154994564,23.78815553049079,0 73.97010821087183,23.80189106273076,0 73.97821637489223,23.808155533174464,0 73.98010937937799,23.821891492505756,0 73.9892392961048,23.8304122902198,0 73.98958773865438,23.86044203349161,0 73.99941106864853,23.87198712160889,0 73.99924519728492,23.94385497762778,0 73.98993302200732,23.952777389567082,0 73.98913262822039,23.969328582005552,0 73.9696727,23.9801124,0 73.9554832,23.9800885,0 73.9491623,23.9773628,0 73.9402325,23.9761303,0 73.9326225,23.98097,0 73.9203097,23.9862836,0 73.9140952,23.9853746,0 73.9070737,23.98271,0 73.8992316,23.9774836,0 73.8972294,23.9764499,0 73.8933134,23.9736658,0 73.8860607,23.9671955,0 73.8763189,23.9649994,0 73.8761043,23.9609602,0 73.8738216,23.9591303,0 73.8667917,23.9593522,0 73.8625002,23.9473903,0 73.8581361,23.937609,0 73.8547539,23.9360353,0 73.8443496,23.9349917,0 73.8373089,23.9342702,0 73.8305282,23.9359569,0 73.8274169,23.9391144,0 73.8228678,23.9408402,0 73.8190269,23.9405265,0 73.8150573,23.9386437,0 73.8109585,23.9387515,0 73.8084268,23.9425268,0 73.8062501,23.9450925,0 73.799994,23.9450763,0 73.7935138,23.9454685,0 73.7886214,23.947959,0 73.7854761,23.9483721,0 73.7830639,23.9434878,0 73.779695,23.9390164,0 73.7747886,23.9358236,0 73.7705111,23.9356431,0 73.7634301,23.9391144,0 73.7578511,23.9436054,0 73.7554002,23.9468666,0 73.7532806,23.9486454,0 73.7499761,23.9478022,0 73.7455344,23.9455273,0 73.7402344,23.9406441,0 73.7361789,23.9389575,0 73.7317677,23.9416023,0 73.7292909,23.9458803,0 73.7223601,23.9473511,0 73.7157726,23.9473315,0 73.7108159,23.9496063,0 73.7078118,23.9493906,0 73.7046146,23.9504496,0 73.7038421,23.9541166,0 73.697739,23.9563654,0 73.6925125,23.9575678,0 73.6888325,23.9551657,0 73.6846161,23.9518027,0 73.6809254,23.9468805,0 73.6739732,23.9403439,0 73.6711406,23.9396832,0 73.6694026,23.9405657,0 73.6674285,23.946096,0 73.6659479,23.9481748,0 73.661828,23.9500377,0 73.6512756,23.9472784,0 73.6506486,23.9454685,0 73.6501339,23.9429303,0 73.63698,23.9463314,0 73.6320877,23.9506065,0 73.6130474,23.959904,0 73.6119175,23.9626465,0 73.6023044,23.9636661,0 73.5926914,23.9646857,0 73.5884428,23.9639014,0 73.575866,23.958958,0 73.5726499,23.9622151,0 73.5522382,23.9438651,0 73.549819,23.9413305,0 73.5472441,23.9374866,0 73.5455704,23.9357411,0 73.5441112,23.9349763,0 73.5402274,23.9337995,0 73.5338115,23.9323089,0 73.5295844,23.9313871,0 73.5280823,23.9308772,0 73.5244345,23.9296219,0 73.5213017,23.9294062,0 73.5191774,23.9296416,0 73.5176539,23.9300142,0 73.5154223,23.9303672,0 73.5144567,23.9291708,0 73.5135984,23.9277391,0 73.5129118,23.9265819,0 73.5101867,23.922561,0 73.5073757,23.9181869,0 73.5049724,23.9166569,0 73.502934,23.915735,0 73.5020327,23.9134988,0 73.5010242,23.9115765,0 73.4991542,23.9097341,0 73.4980425,23.908914,0 73.4978056,23.9079846,0 73.4990266,23.9065813,0 73.4993182,23.9050687,0 73.4985528,23.9043398,0 73.4979332,23.9037201,0 73.4979332,23.9027361,0 73.4975323,23.9018431,0 73.4968033,23.9009865,0 73.4963113,23.9000571,0 73.4960197,23.8981254,0 73.4941973,23.8974693,0 73.4934137,23.8965946,0 73.4920651,23.8949544,0 73.4918464,23.8932414,0 73.4913725,23.891747,0 73.4891857,23.8875919,0 73.4879829,23.8856966,0 73.4867436,23.8847125,0 73.4867801,23.8832911,0 73.4864156,23.8818696,0 73.4851035,23.8788808,0 73.4834269,23.8754183,0 73.4828073,23.8728669,0 73.4817867,23.8694044,0 73.4803288,23.8693679,0 73.4768662,23.8694773,0 73.4746429,23.8691857,0 73.4738046,23.8699511,0 73.4714719,23.8695137,0 73.4703785,23.8667072,0 73.4688477,23.86124,0 73.4696495,23.859126,0 73.4693944,23.8524196,0 73.4694308,23.8492486,0 73.4694308,23.8468795,0 73.4687383,23.8449477,0 73.4661141,23.8432347,0 73.4646926,23.8417403,0 73.4628337,23.8397721,0 73.4504414,23.8373301,0 73.4459219,23.8367105,0 73.4434799,23.8369656,0 73.440892,23.8369656,0 73.4375388,23.8373301,0 73.4349146,23.8382778,0 73.4309782,23.8373666,0 73.4297025,23.8364554,0 73.4281352,23.8344143,0 73.4268596,23.8324461,0 73.4256203,23.8312797,0 73.4235792,23.8307695,0 73.4227774,23.8299312,0 73.4222671,23.8278901,0 73.4151233,23.8265779,0 73.4151962,23.8255938,0 73.41567,23.8241359,0 73.414613,23.8227873,0 73.4146495,23.8214752,0 73.4147953,23.8208556,0 73.4140663,23.819908,0 73.413556,23.8189603,0 73.4143579,23.8180491,0 73.4141756,23.8169557,0 73.4141028,23.8154248,0 73.4139205,23.8136389,0 73.4134467,23.8112333,0 73.411843,23.8080624,0 73.4092916,23.807625,0 73.4067038,23.807224,0 73.4051548,23.8056568,0 73.4031866,23.8035975,0 73.4019656,23.8025405,0 73.4014371,23.8032147,0 73.4008904,23.8050189,0 73.4003436,23.8057479,0 73.3973731,23.8064039,0 73.3959699,23.8074063,0 73.3939835,23.8086455,0 73.3919788,23.8089918,0 73.3899377,23.8089189,0 73.3814818,23.8120716,0 73.3791673,23.8068595,0 73.3762151,23.8114155,0 73.3743927,23.8136024,0 73.3733725,23.8138715,0 73.368337,23.8141549,0 73.3635228,23.805932,0 73.3623102,23.8023372,0 73.3608793,23.8010502,0 73.3589875,23.7974997,0 73.3573626,23.7942598,0 73.3549858,23.7937716,0 73.352803,23.7924845,0 73.3520269,23.7910198,0</coordinates></LinearRing></outerBoundaryIs></Polygon>
    </Placemark>
    <Placemark><name>High Fire Zone</name><styleUrl>#zone2</styleUrl>
      <Polygon><extrude>0</extrude><altitudeMode>clampToGround</altitudeMode><outerBoundaryIs><LinearRing><coordinates>73.4446485644114,23.761987095438805,0 73.45394850700801,23.751889980021048,0 73.45584048730699,23.738155521075704,0 73.48788216148628,23.706053226678534,0 73.4895894,23.7063077,0 73.4923542,23.7063966,0 73.494246,23.7057304,0 73.4958466,23.7046644,0 73.4981264,23.7040871,0 73.4990965,23.7039538,0 73.5020554,23.7039538,0 73.5043594,23.7037095,0 73.507294,23.70311,0 73.5070515,23.7021773,0 73.5062269,23.7010891,0 73.5056691,23.6998233,0 73.5052083,23.6988239,0 73.5058631,23.6979578,0 73.5071485,23.6969585,0 73.5083127,23.695737,0 73.5083612,23.6948487,0 73.5078761,23.6922281,0 73.5075608,23.687653,0 73.50746803446154,23.687067011726,0 73.52060590287127,23.68469770864323,0 73.53191458790998,23.675338652813497,0 73.60385901237369,23.675493402041987,0 73.61344789866506,23.68469769827166,0 73.62632470550875,23.686428247235305,0 73.63821155954018,23.698155521724352,0 73.6401029700563,23.711889101171995,0 73.64923361404384,23.720412280869848,0 73.65000350280201,23.760897885852934,0 73.6663270435178,23.766428245033637,0 73.67504011015902,23.77517710100989,0 73.68890965559461,23.765849708080488,0 73.71059922317966,23.764698077687008,0 73.71891036118355,23.755849522782622,0 73.76901582507922,23.755178384169387,0 73.78019344704524,23.745493509456413,0 73.82386036487473,23.74549351152061,0 73.83345370718273,23.754698071693184,0 73.8551439495737,23.755849713558156,0 73.86345454818041,23.76469767999145,0 73.87736374776276,23.767206781132952,0 73.89201751914082,23.783923223169772,0 73.90736449203067,23.78720678370942,0 73.91884830258954,23.799237860191994,0 73.9209554339565,23.813207730000414,0 73.9388497643014,23.829237864634493,0 73.9395871994158,23.850441797144537,0 73.94941053765668,23.861987114457335,0 73.94885547595723,23.94502937845465,0 73.93993302864247,23.952777411804497,0 73.93822342769165,23.966111734542128,0 73.91842050905728,23.986007266494983,0 73.9140952,23.9853746,0 73.9070737,23.98271,0 73.8992316,23.9774836,0 73.8972294,23.9764499,0 73.8933134,23.9736658,0 73.8860607,23.9671955,0 73.8763189,23.9649994,0 73.8761043,23.9609602,0 73.8738216,23.9591303,0 73.8667917,23.9593522,0 73.8625002,23.9473903,0 73.8581361,23.937609,0 73.8547539,23.9360353,0 73.8443496,23.9349917,0 73.8373089,23.9342702,0 73.8305282,23.9359569,0 73.8274169,23.9391144,0 73.8228678,23.9408402,0 73.8190269,23.9405265,0 73.8150573,23.9386437,0 73.8109585,23.9387515,0 73.8084268,23.9425268,0 73.8062501,23.9450925,0 73.799994,23.9450763,0 73.7935138,23.9454685,0 73.7886214,23.947959,0 73.7854761,23.9483721,0 73.7830639,23.9434878,0 73.779695,23.9390164,0 73.7747886,23.9358236,0 73.7705111,23.9356431,0 73.7634301,23.9391144,0 73.7578511,23.9436054,0 73.7554002,23.9468666,0 73.7532806,23.9486454,0 73.7499761,23.9478022,0 73.7455344,23.9455273,0 73.7402344,23.9406441,0 73.7361789,23.9389575,0 73.7317677,23.9416023,0 73.7292909,23.9458803,0 73.7223601,23.9473511,0 73.7157726,23.9473315,0 73.7108159,23.9496063,0 73.7078118,23.9493906,0 73.7046146,23.9504496,0 73.7038421,23.9541166,0 73.697739,23.9563654,0 73.6925125,23.9575678,0 73.6888325,23.9551657,0 73.6846161,23.9518027,0 73.6809254,23.9468805,0 73.6739732,23.9403439,0 73.6711406,23.9396832,0 73.6694026,23.9405657,0 73.6674285,23.946096,0 73.6659479,23.9481748,0 73.661828,23.9500377,0 73.6512756,23.9472784,0 73.6506486,23.9454685,0 73.6501339,23.9429303,0 73.63698,23.9463314,0 73.63486656495006,23.948178209513323,0 73.6341219149799,23.93277786653529,0 73.62464005422235,23.922280207740997,0 73.62234088360617,23.831037511656127,0 73.60390119870925,23.829403214517956,0 73.57386270455463,23.848773853069126,0 73.47890646158415,23.84841727224219,0 73.4452046786376,23.815029368963817,0 73.4446485644114,23.761987095438805,0</coordinates></LinearRing></outerBoundaryIs></Polygon>
    </Placemark>
    <Placemark><name>Very High Fire Zone</name><styleUrl>#zone3</styleUrl>
      <Polygon><extrude>0</extrude><altitudeMode>clampToGround</altitudeMode><outerBoundaryIs><LinearRing><coordinates>73.70464273024626,23.871987103410557,0 73.713942078282,23.861892310282443,0 73.71583567278654,23.848155518823418,0 73.7239432492484,23.84189188126508,0 73.72583655096496,23.828155518263447,0 73.73772529166078,23.816428244683664,0 73.75059504831599,23.814697672375797,0 73.7601925979931,23.805493547421907,0 73.7805959061707,23.804698060173195,0 73.79019272281634,23.795493543435494,0 73.82386107769639,23.79549354350947,0 73.8334578937824,23.8046980603944,0 73.85632808870317,23.806428169032507,0 73.88821768809815,23.838155518609174,0 73.89011113600041,23.851892096064088,0 73.89924084872654,23.86041228013406,0 73.89924415770102,23.92385497523695,0 73.88993188744183,23.932777864515746,0 73.88822254342303,23.946111735955377,0 73.87433245470527,23.95953982075401,0 73.8738216,23.9591303,0 73.8667917,23.9593522,0 73.8625002,23.9473903,0 73.8581361,23.937609,0 73.8547539,23.9360353,0 73.8443496,23.9349917,0 73.8373089,23.9342702,0 73.8305282,23.9359569,0 73.8274169,23.9391144,0 73.8228678,23.9408402,0 73.8190269,23.9405265,0 73.8150573,23.9386437,0 73.8109585,23.9387515,0 73.8084268,23.9425268,0 73.8062501,23.9450925,0 73.799994,23.9450763,0 73.7935138,23.9454685,0 73.7886214,23.947959,0 73.7854761,23.9483721,0 73.7830639,23.9434878,0 73.779695,23.9390164,0 73.7747886,23.9358236,0 73.7705111,23.9356431,0 73.7634301,23.9391144,0 73.7578511,23.9436054,0 73.7554002,23.9468666,0 73.7532806,23.9486454,0 73.7499761,23.9478022,0 73.7455344,23.9455273,0 73.7402344,23.9406441,0 73.7361789,23.9389575,0 73.7317677,23.9416023,0 73.7292909,23.9458803,0 73.7223601,23.9473511,0 73.71711253102467,23.947335486739746,0 73.70583169680931,23.936111734419995,0 73.70464273024626,23.871987103410557,0</coordinates></LinearRing></outerBoundaryIs></Polygon>
    </Placemark>
  </Folder>
  <Folder><name>District Boundary</name>
    <Placemark><name>Dungarpur District</name><styleUrl>#boundary</styleUrl>
      <Polygon><extrude>0</extrude><altitudeMode>clampToGround</altitudeMode><outerBoundaryIs><LinearRing><coordinates>73.3520269,23.7910198,0 73.3526575,23.7891557,0 73.3549373,23.7856493,0 73.356344,23.7847615,0 73.3591088,23.7840514,0 73.3607095,23.7832524,0 73.3633773,23.7822759,0 73.3633773,23.7809887,0 73.3637653,23.7793463,0 73.3637653,23.778503,0 73.365172,23.7777927,0 73.3668212,23.776683,0 73.3671122,23.7749518,0 73.3675973,23.7739753,0 73.369004,23.7730875,0 73.3713322,23.7701577,0 73.3699256,23.7674942,0 73.3699256,23.7654522,0 73.3718173,23.7649638,0 73.3743396,23.7660293,0 73.3759888,23.7667395,0 73.3780746,23.7671391,0 73.3807909,23.7672279,0 73.3821975,23.7682045,0 73.3830221,23.7707792,0 73.3841863,23.7733982,0 73.3857385,23.7757952,0 73.3875332,23.7782366,0 73.3887943,23.779879,0 73.3914622,23.7811662,0 73.3932084,23.782054,0 73.3956337,23.782631,0 73.3978649,23.7825422,0 73.3988108,23.7831414,0 73.3994656,23.7848947,0 73.4014059,23.7833412,0 73.4032491,23.7817654,0 73.4040252,23.781033,0 73.4050923,23.7804338,0 73.4069598,23.7800787,0 73.4075904,23.7793685,0 73.4089,23.7795017,0 73.4098216,23.7799233,0 73.4111555,23.7800565,0 73.4118831,23.7797236,0 73.4131685,23.7788358,0 73.4137506,23.7781034,0 73.4144782,23.7772601,0 73.4162729,23.7772379,0 73.4179949,23.7768827,0 73.4184557,23.7761281,0 73.4183101,23.7752182,0 73.4179463,23.774064,0 73.417049,23.7722218,0 73.4163699,23.7710455,0 73.4164427,23.7699579,0 73.4180919,23.7693142,0 73.4195228,23.7685374,0 73.4199108,23.7675608,0 73.4204929,23.7665842,0 73.4228939,23.7638984,0 73.4240096,23.7622114,0 73.4249312,23.7606577,0 73.4259256,23.7599473,0 73.4273322,23.7601471,0 73.4283994,23.7605467,0 73.4295877,23.7608574,0 73.4309459,23.7610572,0 73.4313097,23.7606133,0 73.4308731,23.7597032,0 73.4306791,23.7583491,0 73.4308489,23.7574612,0 73.4315522,23.7566177,0 73.4329346,23.7563513,0 73.4348264,23.7566399,0 73.4354812,23.7568619,0 73.4368636,23.7567287,0 73.4380278,23.7563069,0 73.439774,23.7551082,0 73.4407926,23.7546643,0 73.4429753,23.7548419,0 73.4445518,23.7547309,0 73.4461525,23.7539317,0 73.4469528,23.7527996,0 73.4478502,23.7515787,0 73.448117,23.7501358,0 73.4478987,23.7484487,0 73.4474379,23.7466283,0 73.4467103,23.7454295,0 73.4465648,23.7439643,0 73.4470013,23.7416111,0 73.4479714,23.7375706,0 73.4490628,23.734418,0 73.4498389,23.7334189,0 73.4516094,23.7335965,0 73.4531616,23.7336853,0 73.454544,23.7336853,0 73.4563144,23.7333967,0 73.4577696,23.7326196,0 73.4584487,23.7306659,0 73.4597341,23.7278239,0 73.461262,23.7260921,0 73.4634933,23.7255148,0 73.4646089,23.7249153,0 73.4663551,23.7230281,0 73.4704054,23.7207633,0 73.4715695,23.719098,0 73.471812,23.7166999,0 73.4724668,23.710971,0 73.4726609,23.7082619,0 73.4727579,23.7063521,0 73.4743586,23.7048865,0 73.4762018,23.7047089,0 73.4784331,23.7044424,0 73.4805673,23.7043091,0 73.4825561,23.7044868,0 73.4852724,23.7054195,0 73.4875036,23.7059968,0 73.4895894,23.7063077,0 73.4923542,23.7063966,0 73.494246,23.7057304,0 73.4958466,23.7046644,0 73.4981264,23.7040871,0 73.4990965,23.7039538,0 73.5020554,23.7039538,0 73.5043594,23.7037095,0 73.507294,23.70311,0 73.5070515,23.7021773,0 73.5062269,23.7010891,0 73.5056691,23.6998233,0 73.5052083,23.6988239,0 73.5058631,23.6979578,0 73.5071485,23.6969585,0 73.5083127,23.695737,0 73.5083612,23.6948487,0 73.5078761,23.6922281,0 73.5075608,23.687653,0 73.506615,23.6816785,0 73.5062027,23.6753483,0 73.5049658,23.670284,0 73.5044564,23.6627759,0 73.5041505,23.6605161,0 73.503641,23.6559004,0 73.500369,23.6538115,0 73.4973449,23.6493612,0 73.4992057,23.6487027,0 73.4994786,23.648686,0 73.4995574,23.6484528,0 73.499618,23.6475752,0 73.4995816,23.6471364,0 73.4998181,23.6469365,0 73.5003274,23.6471309,0 73.501631,23.6476474,0 73.503741,23.6473808,0 73.504893,23.6470698,0 73.5066635,23.6461256,0 73.5085309,23.6449925,0 73.5087128,23.6442927,0 73.5085795,23.6435595,0 73.5081065,23.6428042,0 73.5076457,23.6423709,0 73.5064695,23.6398048,0 73.5052811,23.638905,0 73.5044686,23.6384717,0 73.503741,23.6381496,0 73.5028315,23.6376941,0 73.5013036,23.6370387,0 73.4992785,23.6361055,0 73.4971442,23.6350057,0 73.4958588,23.6342169,0 73.495301,23.6337503,0 73.4948644,23.6332837,0 73.4945734,23.6325727,0 73.4950827,23.6313063,0 73.4954465,23.630262,0 73.4968774,23.6284177,0 73.5004184,23.6269401,0 73.5034136,23.6245404,0 73.5037167,23.6237404,0 73.5030377,23.6231294,0 73.5027224,23.6220961,0 73.5028315,23.6211406,0 73.5031589,23.6187185,0 73.5037289,23.6180074,0 73.504505,23.6179741,0 73.5051598,23.6181074,0 73.5056085,23.6185963,0 73.5062997,23.6187852,0 73.5071122,23.6183519,0 73.5093555,23.6165741,0 73.5117808,23.6148186,0 73.5138666,23.6126853,0 73.5160493,23.6112742,0 73.5180138,23.610163,0 73.5195418,23.6090852,0 73.5218943,23.6072629,0 73.5229736,23.6069851,0 73.523786,23.6070518,0 73.5241134,23.6076518,0 73.5243075,23.6091297,0 73.5245257,23.6101853,0 73.5250108,23.6114408,0 73.5254716,23.6118964,0 73.5291459,23.6128964,0 73.5311832,23.614152,0 73.5319714,23.6158297,0 73.5326626,23.6177519,0 73.5332689,23.6192852,0 73.5364339,23.6204073,0 73.5389198,23.6216961,0 73.5428488,23.6238293,0 73.5450194,23.6251625,0 73.5461836,23.6257625,0 73.5469839,23.6265957,0 73.5485967,23.6280289,0 73.5498821,23.6298842,0 73.5511918,23.6312618,0 73.5522347,23.6327505,0 73.5543326,23.6345947,0 73.5560545,23.6374164,0 73.5574976,23.6398715,0 73.5595712,23.6422265,0 73.5615235,23.644015,0 73.5631,23.6459034,0 73.566362,23.650169,0 73.5685205,23.6527793,0 73.5701818,23.653157,0 73.5719159,23.6534902,0 73.5732862,23.6535568,0 73.5748626,23.6532236,0 73.5765603,23.6528682,0 73.5775183,23.6527016,0 73.580368,23.6524239,0 73.5825872,23.6525238,0 73.586698,23.6535457,0 73.5903845,23.6539456,0 73.5924824,23.6538679,0 73.5954533,23.6537679,0 73.6005707,23.6535568,0 73.6059185,23.6532014,0 73.6103931,23.652746,0 73.6139098,23.6522017,0 73.6158258,23.6518907,0 73.6176084,23.6507688,0 73.6193303,23.6488693,0 73.6201064,23.646781,0 73.6205187,23.6458035,0 73.6226894,23.6444038,0 73.6276854,23.6412712,0 73.636465,23.632695,0 73.6409275,23.6278067,0 73.6480579,23.6247848,0 73.6555763,23.6212295,0 73.6543151,23.6175408,0 73.6504346,23.611052,0 73.6475728,23.6066074,0 73.644711,23.6034961,0 73.6441289,23.6021626,0 73.6445654,23.5987845,0 73.6445169,23.5966954,0 73.6442259,23.5953174,0 73.6436923,23.5947396,0 73.6433043,23.5924281,0 73.6440804,23.5870494,0 73.6462146,23.5853157,0 73.6465057,23.5820261,0 73.6470877,23.5764691,0 73.6473303,23.5737127,0 73.6439834,23.5729569,0 73.6447595,23.5701116,0 73.6457781,23.5695336,0 73.6481064,23.5688223,0 73.64961,23.5678886,0 73.649222,23.5666437,0 73.6484459,23.5657545,0 73.6452445,23.5653989,0 73.6448565,23.5656656,0 73.6424312,23.5673551,0 73.6405395,23.5675329,0 73.6391328,23.5667327,0 73.6372896,23.5654878,0 73.6367075,23.5644207,0 73.6344762,23.5572178,0 73.6335061,23.5535718,0 73.6337971,23.5491697,0 73.6338457,23.5444562,0 73.6349613,23.5381861,0 73.6349613,23.5350287,0 73.6343792,23.5327162,0 73.6339427,23.5292474,0 73.6337486,23.5284024,0 73.6363194,23.527335,0 73.6387932,23.5256895,0 73.6416551,23.5238661,0 73.6428192,23.5228876,0 73.6465057,23.5211086,0 73.6498526,23.5195519,0 73.6517928,23.5168389,0 73.6551882,23.512569,0 73.6560128,23.5089217,0 73.6559643,23.5071425,0 73.6559158,23.5060305,0 73.6555277,23.504963,0 73.6538301,23.5035173,0 73.6526417,23.5005815,0 73.6514775,23.497868,0 73.6496343,23.4969116,0 73.6484217,23.4967337,0 73.6475243,23.4970451,0 73.646724,23.4972897,0 73.6453416,23.4974009,0 73.6437651,23.4973342,0 73.6418006,23.4968449,0 73.6405637,23.4958885,0 73.6405637,23.4949543,0 73.6398361,23.4908172,0 73.6391571,23.4862573,0 73.6399332,23.4835881,0 73.6398361,23.4814081,0 73.6381869,23.4785163,0 73.6355434,23.4722653,0 73.6341125,23.4700629,0 73.6333364,23.4693288,0 73.6333121,23.4679718,0 73.6338699,23.466548,0 73.6339912,23.4647682,0 73.6343065,23.4632109,0 73.634161,23.461876,0 73.6335061,23.4609638,0 73.6319054,23.4599404,0 73.6303775,23.4568702,0 73.6297469,23.4537553,0 73.6289951,23.4525983,0 73.628219,23.4518196,0 73.6273702,23.4509741,0 73.6269821,23.4497949,0 73.6267881,23.4488826,0 73.6269336,23.4484376,0 73.6272095,23.4485713,0 73.6306807,23.4492609,0 73.6337244,23.4494389,0 73.6359557,23.4487603,0 73.637132,23.4479036,0 73.639242,23.4462682,0 73.6413156,23.4439875,0 73.6421523,23.443498,0 73.6446382,23.4429751,0 73.6454992,23.442252,0 73.6459479,23.4415622,0 73.6461419,23.4407611,0 73.6462632,23.4394817,0 73.6463238,23.4379574,0 73.6468938,23.4369005,0 73.6473546,23.4364443,0 73.64807,23.4368115,0 73.6490886,23.4381132,0 73.6506044,23.4395707,0 73.6516352,23.440572,0 73.6537573,23.442697,0 73.6590808,23.4468579,0 73.6617729,23.4485155,0 73.6638223,23.4495613,0 73.6683697,23.4510965,0 73.6715226,23.4524426,0 73.6731718,23.4536774,0 73.6746269,23.4539444,0 73.6777313,23.4537442,0 73.680957,23.453644,0 73.6825698,23.4536663,0 73.6843402,23.4539333,0 73.6855529,23.4541558,0 73.6865351,23.4547565,0 73.6880509,23.4561582,0 73.6899427,23.4567923,0 73.6912038,23.4576933,0 73.6928409,23.458294,0 73.69352,23.4574375,0 73.6940171,23.4568256,0 73.69563,23.4559357,0 73.6966486,23.4564697,0 73.6972913,23.4566922,0 73.6977763,23.4563362,0 73.6982008,23.4555241,0 73.7002623,23.4542448,0 73.7021782,23.4530211,0 73.7045793,23.4514414,0 73.7047369,23.4494945,0 73.7055615,23.4472473,0 73.7067014,23.4460457,0 73.7068954,23.4452336,0 73.7066408,23.4445216,0 73.706277,23.4427637,0 73.7054888,23.4392035,0 73.7053675,23.4382801,0 73.7060587,23.4380576,0 73.7067742,23.4382356,0 73.7077928,23.4378128,0 73.7079019,23.4374123,0 73.7085689,23.4357879,0 73.7097815,23.4359325,0 73.7105697,23.4359103,0 73.7120007,23.435621,0 73.7121826,23.4342302,0 73.7116611,23.4333624,0 73.7110548,23.4328172,0 73.7093814,23.4319271,0 73.7087144,23.4313262,0 73.7082051,23.4304472,0 73.7080959,23.4296684,0 73.7084476,23.4289118,0 73.7090539,23.4284222,0 73.7099755,23.4269757,0 73.7105819,23.4260856,0 73.7103757,23.4250174,0 73.7100847,23.4245278,0 73.7092358,23.4238045,0 73.7079747,23.4227474,0 73.7085689,23.4224248,0 73.7101574,23.4222467,0 73.7106789,23.4218573,0 73.7114065,23.4210116,0 73.71194,23.4196095,0 73.7128253,23.4184745,0 73.7134073,23.4179515,0 73.7142441,23.4172394,0 73.7144866,23.4166051,0 73.7142562,23.4159486,0 73.7135892,23.4149693,0 73.7137105,23.4142571,0 73.7138803,23.4137897,0 73.7153718,23.4131443,0 73.7197495,23.4107184,0 73.7205255,23.4102733,0 73.7214229,23.4101397,0 73.7219621,23.4116331,0 73.7239169,23.4144803,0 73.7241859,23.4154348,0 73.7247778,23.4167514,0 73.7264098,23.4185453,0 73.7277011,23.4211126,0 73.7287054,23.4231203,0 73.7303195,23.4237456,0 73.7322743,23.4244532,0 73.7343906,23.4249963,0 73.7350183,23.425309,0 73.735108,23.4259179,0 73.7351618,23.4271685,0 73.7360764,23.4287647,0 73.7374215,23.4298179,0 73.7384617,23.4304103,0 73.7390536,23.4312989,0 73.7395737,23.4321052,0 73.7401296,23.4329609,0 73.741385,23.4329938,0 73.7418872,23.4341128,0 73.7428377,23.4353634,0 73.7447388,23.4366139,0 73.7456176,23.4373215,0 73.7476083,23.4390328,0 73.7499039,23.440382,0 73.7503881,23.441287,0 73.7510338,23.4428995,0 73.7517332,23.4443639,0 73.7530424,23.445598,0 73.7539929,23.4469636,0 73.7553022,23.4494316,0 73.7557146,23.4498923,0 73.7561271,23.4506163,0 73.755894,23.4514225,0 73.7555891,23.4521629,0 73.755338,23.452821,0 73.7553739,23.4534626,0 73.7562706,23.4538081,0 73.7581537,23.4537423,0 73.7610232,23.453331,0 73.7644846,23.45315,0 73.7659014,23.4528703,0 73.7673003,23.4522616,0 73.7686274,23.450896,0 73.7696318,23.4493658,0 73.7703491,23.4472762,0 73.7711383,23.4432615,0 73.7715687,23.4407276,0 73.7720888,23.4387366,0 73.7722323,23.437848,0 73.7726627,23.437124,0 73.7734518,23.4372228,0 73.7745817,23.4374696,0 73.7762496,23.4372392,0 73.7772001,23.4360874,0 73.7774153,23.4339976,0 73.7780609,23.4322862,0 73.7789039,23.4309204,0 73.7800337,23.4304761,0 73.7824369,23.4302293,0 73.7856472,23.4298837,0 73.7912966,23.4298508,0 73.7934666,23.4302787,0 73.7949014,23.4308875,0 73.7968024,23.432566,0 73.7991877,23.4343761,0 73.800479,23.4354785,0 73.8014474,23.436219,0 73.802936,23.4367785,0 73.804299,23.4371405,0 73.8059669,23.4373873,0 73.8082625,23.4373379,0 73.8124771,23.4370747,0 73.8154363,23.4373379,0 73.8172656,23.4378316,0 73.8190411,23.4381607,0 73.820727,23.4391315,0 73.8229867,23.4406947,0 73.8246187,23.4416655,0 73.8254975,23.4425211,0 73.8261431,23.4436235,0 73.8266991,23.4445614,0 73.8273806,23.4456473,0 73.8279007,23.4463713,0 73.8284029,23.4465358,0 73.8290306,23.4463878,0 73.8290485,23.4456802,0 73.8288333,23.4450879,0 73.8285822,23.444331,0 73.8286002,23.4435577,0 73.8290485,23.4426692,0 73.8301425,23.4421097,0 73.8304833,23.4411719,0 73.8314876,23.4394606,0 73.8325637,23.4369759,0 73.8328327,23.4352975,0 73.8328327,23.4343267,0 73.8326533,23.4335039,0 73.8319539,23.4320394,0 73.8314876,23.4306736,0 73.830824,23.4290116,0 73.8304833,23.4281559,0 73.8304474,23.4267242,0 73.8306985,23.4253254,0 73.8325099,23.4235646,0 73.8342316,23.4217873,0 73.8347158,23.4208986,0 73.8353435,23.4194833,0 73.8368141,23.4189896,0 73.8383027,23.4185782,0 73.8390021,23.4179034,0 73.8391456,23.4172781,0 73.8390201,23.416521,0 73.8394684,23.4157969,0 73.8402037,23.415188,0 73.8403831,23.414398,0 73.8408852,23.4125548,0 73.8419075,23.4116989,0 73.8430553,23.410909,0 73.8444363,23.4096911,0 73.8453689,23.4084567,0 73.8453509,23.4061196,0 73.8463194,23.4056917,0 73.847234,23.40556,0 73.8485612,23.4052308,0 73.8496193,23.4045231,0 73.8501394,23.4030089,0 73.8501394,23.401544,0 73.8515742,23.399717,0 73.8549996,23.3971987,0 73.8569904,23.3958325,0 73.858461,23.3940548,0 73.8594115,23.3921619,0 73.859555,23.3916516,0 73.8594115,23.3908286,0 73.8599137,23.3901537,0 73.8608642,23.3899233,0 73.8616174,23.3889356,0 73.8624424,23.3884583,0 73.8641103,23.3881784,0 73.8631957,23.3856434,0 73.862568,23.3850838,0 73.8617968,23.3846229,0 73.8610794,23.3843924,0 73.8608104,23.3838327,0 73.8611512,23.3829767,0 73.8619582,23.3825158,0 73.8626935,23.3822689,0 73.8635902,23.3823182,0 73.8640745,23.3830096,0 73.8647739,23.3830755,0 73.8653478,23.3830096,0 73.86585,23.3827298,0 73.8660652,23.381775,0 73.8659396,23.3810507,0 73.8659934,23.3803758,0 73.866675,23.3800959,0 73.8671951,23.3801288,0 73.8677869,23.3805075,0 73.8686298,23.3805898,0 73.8689706,23.3797831,0 73.8685222,23.3788448,0 73.8682353,23.3784826,0 73.8675896,23.3779723,0 73.8671054,23.3775772,0 73.8671771,23.3767047,0 73.8680738,23.376145,0 73.8695265,23.3759639,0 73.8707281,23.3759804,0 73.8718939,23.3764413,0 73.8724678,23.3773138,0 73.873221,23.3773303,0 73.8732748,23.3759639,0 73.8729879,23.3745975,0 73.8729161,23.371947,0 73.8722346,23.3707452,0 73.8725574,23.3699715,0 73.8735438,23.3693788,0 73.874046,23.3688684,0 73.8737949,23.3680453,0 73.8732928,23.3672056,0 73.8738308,23.3662507,0 73.8739563,23.3647361,0 73.8742433,23.3628263,0 73.874046,23.3617067,0 73.8748531,23.3604884,0 73.877328,23.359023,0 73.8791394,23.358101,0 73.8798388,23.3573766,0 73.8802872,23.3566521,0 73.8820089,23.3564545,0 73.8835871,23.3564875,0 73.8853985,23.3563393,0 73.8867974,23.35601,0 73.8878555,23.3550386,0 73.8885729,23.3536061,0 73.8888957,23.3521078,0 73.8891827,23.3513174,0 73.8891289,23.3506094,0 73.8892185,23.3497203,0 73.8895593,23.3491769,0 73.8904381,23.3487488,0 73.8911555,23.3480902,0 73.8910479,23.3466329,0 73.8924099,23.345579,0 73.8917268,23.3437987,0 73.8907082,23.3397237,0 73.8907567,23.3382763,0 73.8906839,23.337096,0 73.8902888,23.3362959,0 73.8898821,23.3351638,0 73.8899,23.3335994,0 73.8903125,23.3329901,0 73.8918908,23.3324302,0 73.8943836,23.3321338,0 73.8963744,23.333056,0 73.8992618,23.3340934,0 73.9039965,23.3342417,0 73.9078165,23.3340111,0 73.9123719,23.3336653,0 73.9181288,23.3341428,0 73.9228277,23.3349168,0 73.9283694,23.3359707,0 73.9314362,23.3366459,0 73.9334269,23.337107,0 73.9357942,23.3382926,0 73.9370676,23.3399722,0 73.9390942,23.3424752,0 73.9390942,23.3440889,0 73.9384665,23.3472175,0 73.9380181,23.3506423,0 73.9374083,23.353639,0 73.936673,23.3584138,0 73.9366013,23.362036,0 73.9370109,23.3642554,0 73.9369702,23.3659635,0 73.9380891,23.3678445,0 73.9400725,23.3691422,0 73.9441864,23.3714458,0 73.9488873,23.3734044,0 73.9507009,23.374319,0 73.9526071,23.3753351,0 73.9545428,23.37681,0 73.9561333,23.3781931,0 73.9573477,23.3795433,0 73.9624501,23.3842589,0 73.9643642,23.3858557,0 73.9661347,23.3876254,0 73.9693594,23.391461,0 73.9725265,23.3924037,0 73.9739397,23.3932119,0 73.9752295,23.3942031,0 73.9761996,23.3950045,0 73.9769304,23.3955472,0 73.9776197,23.3959428,0 73.9780646,23.396707,0 73.9781178,23.3981551,0 73.9783864,23.3995429,0 73.9785188,23.4012407,0 73.9787061,23.4034901,0 73.978734,23.4053512,0 73.9790027,23.4072282,0 73.9796745,23.4095198,0 73.9811204,23.4119672,0 73.9841766,23.4143811,0 73.9991919,23.4230203,0 74.0019361,23.4266117,0 74.0028762,23.427457,0 74.0051943,23.430322,0 74.0076933,23.4346169,0 74.0095073,23.4376829,0 74.011634,23.4421614,0 74.0123859,23.4437719,0 74.0132411,23.4456581,0 74.0141415,23.4488766,0 74.014077,23.4519607,0 74.0132534,23.4569933,0 74.0117597,23.4603135,0 74.0112002,23.4624986,0 74.0107512,23.463955,0 74.0105836,23.4691331,0 74.0113141,23.4711094,0 74.0122962,23.4728515,0 74.0157663,23.4775829,0 74.0170383,23.4797991,0 74.0180116,23.4840552,0 74.0193698,23.4920406,0 74.0194201,23.4960546,0 74.0200246,23.4993582,0 74.0204163,23.5055332,0 74.0223009,23.5102411,0 74.024055,23.5152398,0 74.0256426,23.5196293,0 74.0283215,23.524139,0 74.0293212,23.5299077,0 74.0304749,23.5351491,0 74.0303574,23.5429066,0 74.0326169,23.5495885,0 74.0367766,23.5527335,0 74.0440423,23.5560514,0 74.0510545,23.5592422,0 74.0566651,23.5627247,0 74.061924,23.5655102,0 74.065535,23.5692432,0 74.0659396,23.5735046,0 74.0649086,23.5788424,0 74.0654383,23.5831951,0 74.0660624,23.5882737,0 74.0662366,23.5920466,0 74.0672545,23.594335,0 74.0684577,23.5969843,0 74.0692459,23.5988709,0 74.0708587,23.6007403,0 74.0724594,23.6019626,0 74.0766485,23.6044952,0 74.0829367,23.6061184,0 74.0886118,23.605874,0 74.0940687,23.605874,0 74.1015719,23.6055615,0 74.1042064,23.6054518,0 74.1096391,23.6053184,0 74.1144365,23.6063768,0 74.1166722,23.6074658,0 74.1175151,23.609972,0 74.1181745,23.6130022,0 74.11893,23.6153971,0 74.1199514,23.6182187,0 74.120568,23.6211229,0 74.1230821,23.6305085,0 74.1258353,23.6380192,0 74.1279258,23.642071,0 74.1287742,23.6441601,0 74.1292143,23.6471297,0 74.1290247,23.6497667,0 74.1282046,23.6523513,0 74.1275657,23.657779,0 74.1285358,23.6627961,0 74.128311,23.6667679,0 74.1281683,23.6686402,0 74.1276347,23.6743266,0 74.1269071,23.6788133,0 74.1277802,23.6811677,0 74.130254,23.6840994,0 74.1319442,23.6863855,0 74.1333099,23.6900072,0 74.1335535,23.6943435,0 74.1326308,23.6967586,0 74.13006,23.7037762,0 74.1222021,23.7135468,0 74.1195828,23.7179878,0 74.1189522,23.7201638,0 74.1187582,23.7219845,0 74.1204067,23.7252037,0 74.123528,23.7290771,0 74.1292095,23.7345668,0 74.1305619,23.738744,0 74.1316655,23.7419845,0 74.1323269,23.7451549,0 74.1323883,23.7465395,0 74.1334554,23.7570617,0 74.1368508,23.768382,0 74.1419439,23.7781922,0 74.1475221,23.7858268,0 74.1514511,23.7887118,0 74.1547495,23.7896883,0 74.1581449,23.789999,0 74.1697378,23.7937272,0 74.1839809,23.7975677,0 74.1963377,23.7985279,0 74.2001571,23.8004483,0 74.2033663,23.8026278,0 74.204751,23.8037868,0 74.2071111,23.805162,0 74.2106199,23.8075054,0 74.2132122,23.8092067,0 74.2166803,23.8112023,0 74.2207902,23.8131018,0 74.2240755,23.8135574,0 74.2274112,23.8136092,0 74.2315099,23.814053,0 74.2363529,23.8156175,0 74.2425682,23.8180914,0 74.2488198,23.8218045,0 74.2569678,23.8280432,0 74.2617202,23.8316166,0 74.266478,23.8336755,0 74.2729834,23.8352982,0 74.2799672,23.8368381,0 74.2861283,23.8409875,0 74.2893936,23.8442237,0 74.2927257,23.8484422,0 74.2954841,23.8522969,0 74.2984198,23.8544586,0 74.3004665,23.8553721,0 74.3019515,23.8559289,0 74.3032743,23.8563809,0 74.3075913,23.8562034,0 74.3114717,23.8567801,0 74.3140425,23.8573568,0 74.3166619,23.8586876,0 74.320033,23.8615489,0 74.3224341,23.8642992,0 74.330389,23.8725275,0 74.335094,23.8760759,0 74.3383924,23.8796243,0 74.343049,23.8817976,0 74.3483361,23.8830838,0 74.351586,23.8833499,0 74.355224,23.8842813,0 74.3579403,23.8857893,0 74.3588619,23.8879625,0 74.3585223,23.8902687,0 74.3571157,23.8942601,0 74.3561456,23.8962558,0 74.3558545,23.8985175,0 74.3570672,23.9010009,0 74.3588134,23.9021539,0 74.3612872,23.9023313,0 74.364246,23.902287,0 74.3674474,23.9016218,0 74.3708913,23.9006905,0 74.3726375,23.9004244,0 74.3777215,23.9014849,0 74.3788576,23.9035631,0 74.3811709,23.9053403,0 74.3756934,23.9183613,0 74.374214,23.9230613,0 74.3715704,23.9268965,0 74.3679082,23.9312415,0 74.36558,23.9324386,0 74.3650464,23.934345,0 74.3644401,23.9361184,0 74.363664,23.9367169,0 74.3619663,23.9363844,0 74.3600988,23.9356972,0 74.3586679,23.9347884,0 74.3578918,23.9337908,0 74.3566549,23.9336135,0 74.3555878,23.934079,0 74.3545934,23.9346997,0 74.3538173,23.9355642,0 74.3530655,23.9359854,0 74.3520226,23.9357637,0 74.3497428,23.9350987,0 74.3481179,23.9350322,0 74.3424669,23.9351652,0 74.3386835,23.9352317,0 74.3373981,23.9362292,0 74.336234,23.9375149,0 74.3351911,23.9386676,0 74.3330811,23.9398202,0 74.3318442,23.9403079,0 74.3298554,23.9403744,0 74.3229434,23.9414606,0 74.3171712,23.9413941,0 74.3130967,23.9452731,0 74.3097983,23.947268,0 74.3081976,23.950504,0 74.3059663,23.9559121,0 74.3035168,23.9591036,0 74.3022799,23.9610097,0 74.3007277,23.9620956,0 74.2994908,23.9617632,0 74.2988602,23.9589928,0 74.2982539,23.9566435,0 74.2974293,23.9555353,0 74.2958286,23.9543606,0 74.2949313,23.9539838,0 74.293088,23.9539174,0 74.290687,23.9546044,0 74.2874371,23.9566435,0 74.2845753,23.9574857,0 74.2814466,23.9576187,0 74.2793366,23.9573971,0 74.2778815,23.9570646,0 74.2761353,23.9564884,0 74.2742435,23.9556905,0 74.2731037,23.9542055,0 74.2723518,23.9519004,0 74.2712366,23.9494102,0 74.270668,23.9479296,0 74.270153,23.944841,0 74.2690674,23.9367802,0 74.2661189,23.9334661,0 74.246292,23.9260131,0 74.2380094,23.9193834,0 74.2335033,23.9145189,0 74.2299413,23.9115765,0 74.2196899,23.9070832,0 74.2186975,23.9127927,0 74.2156076,23.9172258,0 74.2123889,23.9267584,0 74.2056942,23.940448,0 74.2015067,23.9504928,0 74.1988277,23.9557834,0 74.1888742,23.9621351,0 74.1861677,23.9638622,0 74.175641,23.9664276,0 74.166212,23.971313,0 74.1625642,23.9770381,0 74.1612768,23.9911929,0 74.1614637,24.0014474,0 74.1603862,24.0069826,0 74.1570925,24.0098937,0 74.1526723,24.0110501,0 74.1470933,24.0100897,0 74.1420982,24.0080525,0 74.1261368,23.9984078,0 74.1198068,23.9922283,0 74.1124316,23.9883319,0 74.1058301,23.9894678,0 74.0984058,23.9907224,0 74.0935564,23.9894286,0 74.0891361,23.9850371,0 74.0838899,23.9754468,0 74.0752315,23.9675877,0 74.0666055,23.9676269,0 74.0545034,23.9754304,0 74.0455314,23.9800094,0 74.0303421,23.9780576,0 74.018741,23.9719626,0 74.0100608,23.9734276,0 74.0035757,23.9702266,0 73.998174,23.967921,0 73.9894437,23.9691562,0 73.9696727,23.9801124,0 73.9554832,23.9800885,0 73.9491623,23.9773628,0 73.9402325,23.9761303,0 73.9326225,23.98097,0 73.9203097,23.9862836,0 73.9140952,23.9853746,0 73.9070737,23.98271,0 73.8992316,23.9774836,0 73.8972294,23.9764499,0 73.8933134,23.9736658,0 73.8860607,23.9671955,0 73.8763189,23.9649994,0 73.8761043,23.9609602,0 73.8738216,23.9591303,0 73.8667917,23.9593522,0 73.8625002,23.9473903,0 73.8581361,23.937609,0 73.8547539,23.9360353,0 73.8443496,23.9349917,0 73.8373089,23.9342702,0 73.8305282,23.9359569,0 73.8274169,23.9391144,0 73.8228678,23.9408402,0 73.8190269,23.9405265,0 73.8150573,23.9386437,0 73.8109585,23.9387515,0 73.8084268,23.9425268,0 73.8062501,23.9450925,0 73.799994,23.9450763,0 73.7935138,23.9454685,0 73.7886214,23.947959,0 73.7854761,23.9483721,0 73.7830639,23.9434878,0 73.779695,23.9390164,0 73.7747886,23.9358236,0 73.7705111,23.9356431,0 73.7634301,23.9391144,0 73.7578511,23.9436054,0 73.7554002,23.9468666,0 73.7532806,23.9486454,0 73.7499761,23.9478022,0 73.7455344,23.9455273,0 73.7402344,23.9406441,0 73.7361789,23.9389575,0 73.7317677,23.9416023,0 73.7292909,23.9458803,0 73.7223601,23.9473511,0 73.7157726,23.9473315,0 73.7108159,23.9496063,0 73.7078118,23.9493906,0 73.7046146,23.9504496,0 73.7038421,23.9541166,0 73.697739,23.9563654,0 73.6925125,23.9575678,0 73.6888325,23.9551657,0 73.6846161,23.9518027,0 73.6809254,23.9468805,0 73.6739732,23.9403439,0 73.6711406,23.9396832,0 73.6694026,23.9405657,0 73.6674285,23.946096,0 73.6659479,23.9481748,0 73.661828,23.9500377,0 73.6512756,23.9472784,0 73.6506486,23.9454685,0 73.6501339,23.9429303,0 73.63698,23.9463314,0 73.6320877,23.9506065,0 73.6130474,23.959904,0 73.6119175,23.9626465,0 73.6023044,23.9636661,0 73.5926914,23.9646857,0 73.5884428,23.9639014,0 73.575866,23.958958,0 73.5726499,23.9622151,0 73.5522382,23.9438651,0 73.549819,23.9413305,0 73.5472441,23.9374866,0 73.5455704,23.9357411,0 73.5441112,23.9349763,0 73.5402274,23.9337995,0 73.5338115,23.9323089,0 73.5295844,23.9313871,0 73.5280823,23.9308772,0 73.5244345,23.9296219,0 73.5213017,23.9294062,0 73.5191774,23.9296416,0 73.5176539,23.9300142,0 73.5154223,23.9303672,0 73.5144567,23.9291708,0 73.5135984,23.9277391,0 73.5129118,23.9265819,0 73.5101867,23.922561,0 73.5073757,23.9181869,0 73.5049724,23.9166569,0 73.502934,23.915735,0 73.5020327,23.9134988,0 73.5010242,23.9115765,0 73.4991542,23.9097341,0 73.4980425,23.908914,0 73.4978056,23.9079846,0 73.4990266,23.9065813,0 73.4993182,23.9050687,0 73.4985528,23.9043398,0 73.4979332,23.9037201,0 73.4979332,23.9027361,0 73.4975323,23.9018431,0 73.4968033,23.9009865,0 73.4963113,23.9000571,0 73.4960197,23.8981254,0 73.4941973,23.8974693,0 73.4934137,23.8965946,0 73.4920651,23.8949544,0 73.4918464,23.8932414,0 73.4913725,23.891747,0 73.4891857,23.8875919,0 73.4879829,23.8856966,0 73.4867436,23.8847125,0 73.4867801,23.8832911,0 73.4864156,23.8818696,0 73.4851035,23.8788808,0 73.4834269,23.8754183,0 73.4828073,23.8728669,0 73.4817867,23.8694044,0 73.4803288,23.8693679,0 73.4768662,23.8694773,0 73.4746429,23.8691857,0 73.4738046,23.8699511,0 73.4714719,23.8695137,0 73.4703785,23.8667072,0 73.4688477,23.86124,0 73.4696495,23.859126,0 73.4693944,23.8524196,0 73.4694308,23.8492486,0 73.4694308,23.8468795,0 73.4687383,23.8449477,0 73.4661141,23.8432347,0 73.4646926,23.8417403,0 73.4628337,23.8397721,0 73.4504414,23.8373301,0 73.4459219,23.8367105,0 73.4434799,23.8369656,0 73.440892,23.8369656,0 73.4375388,23.8373301,0 73.4349146,23.8382778,0 73.4309782,23.8373666,0 73.4297025,23.8364554,0 73.4281352,23.8344143,0 73.4268596,23.8324461,0 73.4256203,23.8312797,0 73.4235792,23.8307695,0 73.4227774,23.8299312,0 73.4222671,23.8278901,0 73.4151233,23.8265779,0 73.4151962,23.8255938,0 73.41567,23.8241359,0 73.414613,23.8227873,0 73.4146495,23.8214752,0 73.4147953,23.8208556,0 73.4140663,23.819908,0 73.413556,23.8189603,0 73.4143579,23.8180491,0 73.4141756,23.8169557,0 73.4141028,23.8154248,0 73.4139205,23.8136389,0 73.4134467,23.8112333,0 73.411843,23.8080624,0 73.4092916,23.807625,0 73.4067038,23.807224,0 73.4051548,23.8056568,0 73.4031866,23.8035975,0 73.4019656,23.8025405,0 73.4014371,23.8032147,0 73.4008904,23.8050189,0 73.4003436,23.8057479,0 73.3973731,23.8064039,0 73.3959699,23.8074063,0 73.3939835,23.8086455,0 73.3919788,23.8089918,0 73.3899377,23.8089189,0 73.3814818,23.8120716,0 73.3791673,23.8068595,0 73.3762151,23.8114155,0 73.3743927,23.8136024,0 73.3733725,23.8138715,0 73.368337,23.8141549,0 73.3635228,23.805932,0 73.3623102,23.8023372,0 73.3608793,23.8010502,0 73.3589875,23.7974997,0 73.3573626,23.7942598,0 73.3549858,23.7937716,0 73.352803,23.7924845,0 73.3520269,23.7910198,0</coordinates></LinearRing></outerBoundaryIs></Polygon>
    </Placemark>
  </Folder>
  <Folder><name>Fire Incidents</name>
    <Placemark><name>Fire 2018-01-15</name>
      <description>Brightness: 321.9</description>
      <styleUrl>#firepoint</styleUrl>
      <Point><coordinates>73.8752,23.9075,0</coordinates></Point>
    </Placemark>
    <Placemark><name>Fire 2019-04-07</name>
      <description>Brightness: 388.3</description>
      <styleUrl>#firepoint</styleUrl>
      <Point><coordinates>73.6061,23.6929,0</coordinates></Point>
    </Placemark>
    <Placemark><name>Fire 2019-04-15</name>
      <description>Brightness: 374.7</description>
      <styleUrl>#firepoint</styleUrl>
      <Point><coordinates>73.5291,23.9052,0</coordinates></Point>
    </Placemark>
    <Placemark><name>Fire 2019-04-27</name>
      <description>Brightness: 354.1</description>
      <styleUrl>#firepoint</styleUrl>
      <Point><coordinates>73.815,23.9349,0</coordinates></Point>
    </Placemark>
    <Placemark><name>Fire 2019-05-15</name>
      <description>Brightness: 351.1</description>
      <styleUrl>#firepoint</styleUrl>
      <Point><coordinates>73.6581,23.9402,0</coordinates></Point>
    </Placemark>
    <Placemark><name>Fire 2019-05-18</name>
      <description>Brightness: 337.6</description>
      <styleUrl>#firepoint</styleUrl>
      <Point><coordinates>73.7221,23.9268,0</coordinates></Point>
    </Placemark>
    <Placemark><name>Fire 2019-11-24</name>
      <description>Brightness: 353.6</description>
      <styleUrl>#firepoint</styleUrl>
      <Point><coordinates>73.5196,23.8375,0</coordinates></Point>
    </Placemark>
    <Placemark><name>Fire 2020-03-25</name>
      <description>Brightness: 350.3</description>
      <styleUrl>#firepoint</styleUrl>
      <Point><coordinates>73.809,23.869,0</coordinates></Point>
    </Placemark>
    <Placemark><name>Fire 2020-05-19</name>
      <description>Brightness: 309.7</description>
      <styleUrl>#firepoint</styleUrl>
      <Point><coordinates>73.7192,23.9216,0</coordinates></Point>
    </Placemark>
    <Placemark><name>Fire 2020-06-25</name>
      <description>Brightness: 329.6</description>
      <styleUrl>#firepoint</styleUrl>
      <Point><coordinates>73.5269,23.7254,0</coordinates></Point>
    </Placemark>
    <Placemark><name>Fire 2021-02-27</name>
      <description>Brightness: 330.7</description>
      <styleUrl>#firepoint</styleUrl>
      <Point><coordinates>73.8546,23.9351,0</coordinates></Point>
    </Placemark>
    <Placemark><name>Fire 2021-03-06</name>
      <description>Brightness: 388.9</description>
      <styleUrl>#firepoint</styleUrl>
      <Point><coordinates>73.3763,23.7967,0</coordinates></Point>
    </Placemark>
    <Placemark><name>Fire 2021-03-07</name>
      <description>Brightness: 332.9</description>
      <styleUrl>#firepoint</styleUrl>
      <Point><coordinates>73.7097,23.9378,0</coordinates></Point>
    </Placemark>
    <Placemark><name>Fire 2021-04-28</name>
      <description>Brightness: 351</description>
      <styleUrl>#firepoint</styleUrl>
      <Point><coordinates>73.5425,23.7551,0</coordinates></Point>
    </Placemark>
    <Placemark><name>Fire 2021-05-19</name>
      <description>Brightness: 303.3</description>
      <styleUrl>#firepoint</styleUrl>
      <Point><coordinates>73.8424,23.7956,0</coordinates></Point>
    </Placemark>
    <Placemark><name>Fire 2022-02-04</name>
      <description>Brightness: 388.1</description>
      <styleUrl>#firepoint</styleUrl>
      <Point><coordinates>73.87,23.9192,0</coordinates></Point>
    </Placemark>
    <Placemark><name>Fire 2022-02-20</name>
      <description>Brightness: 397.3</description>
      <styleUrl>#firepoint</styleUrl>
      <Point><coordinates>73.7956,23.9179,0</coordinates></Point>
    </Placemark>
    <Placemark><name>Fire 2022-05-16</name>
      <description>Brightness: 309.2</description>
      <styleUrl>#firepoint</styleUrl>
      <Point><coordinates>73.7312,23.7078,0</coordinates></Point>
    </Placemark>
    <Placemark><name>Fire 2023-01-03</name>
      <description>Brightness: 387</description>
      <styleUrl>#firepoint</styleUrl>
      <Point><coordinates>73.6106,23.725,0</coordinates></Point>
    </Placemark>
    <Placemark><name>Fire 2023-03-17</name>
      <description>Brightness: 351.7</description>
      <styleUrl>#firepoint</styleUrl>
      <Point><coordinates>73.4215,23.8269,0</coordinates></Point>
    </Placemark>
    <Placemark><name>Fire 2023-03-30</name>
      <description>Brightness: 349.8</description>
      <styleUrl>#firepoint</styleUrl>
      <Point><coordinates>73.8303,23.8393,0</coordinates></Point>
    </Placemark>
    <Placemark><name>Fire 2023-04-09</name>
      <description>Brightness: 329.1</description>
      <styleUrl>#firepoint</styleUrl>
      <Point><coordinates>73.8353,23.8674,0</coordinates></Point>
    </Placemark>
    <Placemark><name>Fire 2023-05-17</name>
      <description>Brightness: 340.2</description>
      <styleUrl>#firepoint</styleUrl>
      <Point><coordinates>73.7828,23.7924,0</coordinates></Point>
    </Placemark>
    <Placemark><name>Fire 2024-04-06</name>
      <description>Brightness: 308.6</description>
      <styleUrl>#firepoint</styleUrl>
      <Point><coordinates>73.8928,23.9214,0</coordinates></Point>
    </Placemark>
    <Placemark><name>Fire 2024-05-22</name>
      <description>Brightness: 314.9</description>
      <styleUrl>#firepoint</styleUrl>
      <Point><coordinates>73.513,23.7204,0</coordinates></Point>
    </Placemark>
    <Placemark><name>Fire 2025-06-14</name>
      <description>Brightness: 352.7</description>
      <styleUrl>#firepoint</styleUrl>
      <Point><coordinates>73.7226,23.8604,0</coordinates></Point>
    </Placemark>
  </Folder>
</Document></kml>