{"type":"FeatureCollection","features":[{"type":"Feature","properties":{"zone":"Low Fire Zone","color":"#228B22","opacity":0.35,"fill":"#228B22","fill-opacity":0.35,"stroke":"#228B22","stroke-width":1,"stroke-opacity":0.8},"geometry":{"type":"Polygon","coordinates":[[[69.4844368,26.8048731],[69.4858385,26.7996282],[69.4859964,26.7987916],[69.4862569,26.7980581],[69.4867482,26.7969609],[69.4936191,26.7814476],[69.499329,26.7685423],[69.5017416,26.7630945],[69.5103004,26.7435391],[69.5203798,26.7394328],[69.5276255,26.7363461],[69.5331255,26.7340174],[69.5430299,26.7297994],[69.552603,26.725732],[69.5599895,26.7225889],[69.566058,26.720003],[69.575166,26.71613],[69.5809517,26.7136705],[69.5863606,26.7113613],[69.5884528,26.7104706],[69.6167442,26.6983998],[69.6404691,26.6882774],[69.6672347,26.6768575],[69.6674026,26.6767859],[69.6903263,26.6670053],[69.6914874,26.6665099],[69.6941773,26.665277],[69.6948566,26.6651301],[69.6967276,26.664385],[69.701577,26.6626109],[69.7072566,26.6605074],[69.719714,26.6546576],[69.7217588,26.6537126],[69.7224965,26.6533717],[69.7254963,26.6518788],[69.7278486,26.650047],[69.7281572,26.6498066],[69.7537938,26.6296589],[69.7677273,26.6183332],[69.7803225,26.6078772],[69.7848468,26.6041113],[69.7891281,26.6005599],[69.7919258,26.5982391],[69.7935135,26.5977776],[69.7952719,26.5972579],[69.8018356,26.5953063],[69.8064509,26.5939314],[69.8114606,26.5924413],[69.823167,26.5889555],[69.8238921,26.5888387],[69.8299691,26.5878603],[69.8402473,26.5861926],[69.8515946,26.5843511],[69.8608236,26.582875],[69.8795401,26.5798182],[69.8812941,26.5795368],[69.8854527,26.5788695],[69.8861612,26.5787327],[69.8977903,26.5794266],[69.9102955,26.5800902],[69.919755,26.5806272],[69.9250192,26.5809233],[69.9251393,26.5809301],[69.9256332,26.5809582],[69.9257297,26.5809637],[69.9300186,26.5812079],[69.9346347,26.5814529],[69.939801,26.5822255],[69.9492168,26.5836337],[69.9569009,26.5847239],[69.9635905,26.5856982],[69.9848035,26.5887849],[69.9947367,26.5902321],[69.9957245,26.5903764],[69.9980905,26.5907221],[69.9996633,26.5909503],[70.0043408,26.5916304],[70.0113711,26.5926399],[70.0119773,26.5927327],[70.014895,26.5932403],[70.0264919,26.5952789],[70.0296597,26.5958345],[70.0401371,26.59768],[70.0515049,26.5996789],[70.0562782,26.6005151],[70.0600962,26.5995146],[70.0710563,26.5967236],[70.0867456,26.5933067],[70.1063449,26.5890618],[70.1125751,26.5878348],[70.1174482,26.5868953],[70.12889,26.579809],[70.1328919,26.5762822],[70.138024,26.5719912],[70.1513854,26.5655047],[70.1548723,26.5638706],[70.1600037,26.5603433],[70.1621362,26.5589411],[70.1685236,26.5546671],[70.1742839,26.5513331],[70.1765039,26.535218],[70.1767436,26.5335143],[70.1783865,26.5221124],[70.1788217,26.515554],[70.1792598,26.5088739],[70.1794692,26.505726],[70.1818653,26.5014576],[70.1824601,26.4975754],[70.1835827,26.4936947],[70.1837705,26.491719],[70.1844167,26.4846547],[70.1845409,26.4802928],[70.1838593,26.4749619],[70.1832705,26.4704002],[70.1831693,26.4696155],[70.1803577,26.4554078],[70.1802862,26.4550516],[70.1801105,26.4534729],[70.1798867,26.4514648],[70.1792897,26.4461003],[70.1785526,26.4394607],[70.1776382,26.4303269],[70.1773559,26.4274802],[70.1769699,26.4240472],[70.1780477,26.4175427],[70.1785283,26.4145396],[70.1794819,26.4087788],[70.180261,26.404266],[70.1811119,26.3993933],[70.1817508,26.395678],[70.1824217,26.3918188],[70.1826564,26.3904311],[70.1845751,26.3788997],[70.1853506,26.374242],[70.1846928,26.3708422],[70.1835935,26.3651714],[70.1825171,26.3596362],[70.181599,26.3550922],[70.1807201,26.3507638],[70.1799806,26.3471252],[70.1790825,26.3426564],[70.177365,26.3372608],[70.1765053,26.3345699],[70.1747313,26.3290819],[70.1739366,26.326542],[70.1693468,26.3125123],[70.1691214,26.3118467],[70.1688122,26.3108826],[70.1682516,26.3091806],[70.1662985,26.3032255],[70.1635563,26.2948616],[70.1660062,26.2858136],[70.1673065,26.2808998],[70.1680815,26.2781539],[70.1699938,26.2709561],[70.1706719,26.2684343],[70.1711031,26.2667635],[70.1712771,26.2661396],[70.1717495,26.2643368],[70.175154,26.2514802],[70.1746178,26.2488416],[70.1730593,26.2411522],[70.1716191,26.2341833],[70.1683015,26.2181333],[70.163931,26.2078822],[70.1557872,26.1892816],[70.1488672,26.1734759],[70.1424691,26.1588695],[70.1417489,26.157791],[70.1408887,26.1562293],[70.144422,26.1517785],[70.1464176,26.1515473],[70.151782,26.152703],[70.1577902,26.1538394],[70.1649821,26.154172],[70.1729875,26.1545472],[70.1763939,26.1541668],[70.179559,26.1535793],[70.1824236,26.1528474],[70.1849288,26.1519133],[70.1871335,26.1511236],[70.1928413,26.1492071],[70.1954269,26.1481766],[70.2002656,26.1460963],[70.2055692,26.1429254],[70.2107906,26.1380638],[70.2155864,26.1328337],[70.2168953,26.1298766],[70.2188836,26.1238871],[70.2195346,26.1217659],[70.2201676,26.1204461],[70.2202213,26.1196466],[70.2214444,26.1195117],[70.2223992,26.1201861],[70.225017,26.1222668],[70.2307892,26.1299922],[70.2351236,26.1348853],[70.237441,26.1390847],[70.2408743,26.1441508],[70.2445435,26.150642],[70.2499938,26.157364],[70.2541137,26.1601952],[70.2618813,26.1616397],[70.2691769,26.1628723],[70.269885,26.1566706],[70.2713227,26.1538201],[70.277728,26.1507458],[70.2854204,26.155361],[70.2902698,26.155438],[70.2934455,26.1503917],[70.299282,26.1444206],[70.3137016,26.1467705],[70.3179073,26.1468475],[70.327217,26.1498515],[70.3320264,26.1498523],[70.3372192,26.1456533],[70.3382277,26.1456533],[70.3482315,26.1400544],[70.3501797,26.1395278],[70.3556728,26.140934],[70.3627539,26.1423017],[70.3695559,26.1487159],[70.3709507,26.152337],[70.3772592,26.1594441],[70.3785252,26.161736],[70.3837107,26.1716614],[70.3908849,26.1758908],[70.3962707,26.1823417],[70.4077668,26.1977605],[70.4121065,26.1952233],[70.4151534,26.1949538],[70.424273,26.1927394],[70.424273,26.1919115],[70.4251742,26.1916227],[70.425539,26.1880799],[70.4257256,26.1869804],[70.4311805,26.184116],[70.4279852,26.1763722],[70.4304743,26.1746005],[70.4362679,26.1776239],[70.4418683,26.1777587],[70.461307,26.1791125],[70.4658912,26.1762368],[70.4763074,26.1763607],[70.4859209,26.1743117],[70.4989671,26.1720008],[70.5117345,26.1760834],[70.5145861,26.1769625],[70.5206609,26.1777587],[70.5238151,26.1783942],[70.536797,26.1859426],[70.54214,26.1888886],[70.5579113,26.1975145],[70.5681037,26.199151],[70.5766654,26.2007105],[70.5889183,26.2017732],[70.6030369,26.2005565],[70.6056332,26.200826],[70.6147098,26.1984194],[70.6256961,26.1961475],[70.6351805,26.1957816],[70.6375408,26.1973797],[70.6506514,26.1965903],[70.6537413,26.1962437],[70.6631826,26.197553],[70.6797054,26.2103728],[70.6837177,26.2116264],[70.6862926,26.2095473],[70.6943548,26.2096114],[70.7057547,26.2071216],[70.7157325,26.2098553],[70.7192516,26.1991318],[70.7196257,26.1950115],[70.7180915,26.1894832],[70.7123422,26.180705],[70.7104969,26.1761604],[70.7088017,26.1695358],[70.7103681,26.16553],[70.7202863,26.1604722],[70.7268905,26.1568248],[70.7417561,26.1415674],[70.7490778,26.1461541],[70.7606113,26.1429068],[70.7750415,26.1424557],[70.7812212,26.1401829],[70.7863711,26.1407993],[70.7958984,26.1385647],[70.809524,26.136542],[70.8310246,26.1342304],[70.8423542,26.1339992],[70.8558511,26.1297418],[70.8633184,26.1304738],[70.8664569,26.1299619],[70.8674383,26.1311095],[70.8728671,26.125908],[70.8784675,26.1199934],[70.8836173,26.114252],[70.9003543,26.1016505],[70.9049033,26.0950217],[70.9185504,26.0782167],[70.9168338,26.075981],[70.9262752,26.0674232],[70.9357595,26.0573227],[70.942111,26.0509612],[70.9422084,26.04463],[70.939579,26.0393555],[70.9386777,26.0361165],[70.9412741,26.0290019],[70.9448576,26.0289441],[70.9478402,26.0269773],[70.9488487,26.0267074],[70.9512145,26.0223302],[70.9529685,26.0193416],[70.9578394,26.0175869],[70.9638469,26.0233792],[70.9649193,26.0267266],[70.967946,26.0333016],[70.9647036,26.039856],[70.9636491,26.0442632],[70.9634828,26.0474719],[70.9617233,26.052542],[70.9522819,26.0628357],[70.944643,26.0746703],[70.9402174,26.0790185],[70.9467029,26.0788334],[70.9508228,26.079797],[70.9568309,26.0852319],[70.958526,26.0881998],[70.9599208,26.0940967],[70.9627533,26.0955227],[70.9739112,26.0991454],[70.9800911,26.1016505],[70.9827518,26.1043096],[70.9871292,26.1053501],[70.989232,26.1066219],[70.9939527,26.1095121],[70.9988519,26.1127764],[71.0033083,26.1145602],[71.0099172,26.1157933],[71.0165262,26.1166603],[71.0242295,26.1135968],[71.0252447,26.1147031],[71.0273623,26.1169879],[71.029787,26.1196466],[71.035881,26.1247521],[71.0433912,26.1318608],[71.0472536,26.1362145],[71.0502336,26.1395582],[71.0449791,26.1442664],[71.0436487,26.1475024],[71.0426402,26.1521829],[71.0409665,26.1585774],[71.0400653,26.1621404],[71.0383057,26.1668396],[71.0390568,26.1727711],[71.0339595,26.1784698],[71.0313427,26.1767862],[71.0296261,26.1788371],[71.0220522,26.1908304],[71.0182214,26.1937022],[71.0148525,26.1955313],[71.0113335,26.1995553],[71.0131144,26.2085077],[71.0127282,26.2132435],[71.0108828,26.2172284],[71.0095095,26.2167086],[71.0097845,26.2206971],[71.0076213,26.2233498],[71.0063552,26.223754],[70.9984588,26.2216366],[70.9934806,26.2191726],[70.9901762,26.2200581],[70.9879875,26.2214441],[70.9863138,26.2186336],[70.9820008,26.2188646],[70.9785032,26.2172861],[70.9740615,26.2205008],[70.9730529,26.2204046],[70.9631395,26.2200581],[70.9516758,26.2222917],[70.9407377,26.2237925],[70.9382486,26.2278733],[70.9474754,26.2367272],[70.9493208,26.2442718],[70.9531962,26.2482067],[70.9566807,26.2497567],[70.9576892,26.2496605],[70.9654569,26.2501224],[70.9791469,26.2535094],[70.9903049,26.2574351],[70.9965276,26.2597828],[70.9985447,26.2598983],[70.9992488,26.2653467],[71.0016131,26.274984],[71.0113334,26.2799095],[71.016513,26.2815913],[71.0264632,26.2829708],[71.0352802,26.2829493],[71.042962,26.2811601],[71.0463523,26.2821797],[71.0532188,26.2832187],[71.0560083,26.283488],[71.0708636,26.2947237],[71.0680128,26.3027253],[71.0641622,26.3064959],[71.0589408,26.3112251],[71.0593343,26.3125933],[71.0680675,26.3166517],[71.0734319,26.3216139],[71.0759854,26.3224602],[71.080849,26.3187232],[71.0910273,26.3132858],[71.1077428,26.3106506],[71.117742,26.3076115],[71.1265291,26.3027537],[71.1284065,26.3034951],[71.1302733,26.3079],[71.1315608,26.3048031],[71.1357222,26.3046504],[71.1375062,26.3054333],[71.1423969,26.3089772],[71.1453581,26.3147091],[71.1481046,26.3175365],[71.1488342,26.3196906],[71.1494136,26.3232679],[71.1544561,26.3274798],[71.1594558,26.3348454],[71.1656356,26.3431336],[71.1718153,26.3546899],[71.1794543,26.370859],[71.1832522,26.376684],[71.1875224,26.3817204],[71.1893171,26.3838288],[71.1904835,26.3864107],[71.1903119,26.3897746],[71.1868787,26.3944838],[71.1830807,26.398078],[71.1813854,26.4048818],[71.1823082,26.4073994],[71.1849689,26.4099747],[71.1864709,26.4138183],[71.1928653,26.417571],[71.1979937,26.4186419],[71.2050318,26.4322657],[71.213529,26.4353016],[71.2134007,26.4371418],[71.2119841,26.4402202],[71.2130122,26.4424337],[71.2154739,26.4422512],[71.2265145,26.4493349],[71.2314532,26.4511316],[71.2383985,26.4557435],[71.2491059,26.4577989],[71.2517258,26.4595441],[71.2526035,26.4592781],[71.2559044,26.4596504],[71.260457,26.4618155],[71.2622025,26.4605231],[71.2687826,26.4629856],[71.2758851,26.463389],[71.2796616,26.4655213],[71.2836956,26.466693],[71.2966664,26.4639348],[71.298716,26.4582984],[71.3033938,26.453976],[71.3068056,26.4524584],[71.3062476,26.4475019],[71.3073634,26.4357243],[71.3169765,26.4323618],[71.3241005,26.4265973],[71.3256883,26.4218702],[71.3270616,26.420794],[71.3289892,26.4222593],[71.3337779,26.4295756],[71.33876,26.4354581],[71.3444638,26.439029],[71.3473177,26.4404316],[71.3526819,26.4460034],[71.3629603,26.4498648],[71.3686035,26.4528427],[71.3775086,26.4591436],[71.3896106,26.4678648],[71.4005542,26.4702657],[71.4056609,26.4745876],[71.4102101,26.4777951],[71.4138363,26.4844791],[71.4191365,26.4906822],[71.4234279,26.4937359],[71.4305091,26.4970004],[71.4330202,26.4970941],[71.4359246,26.4966069],[71.4410877,26.5014555],[71.4457011,26.5079268],[71.4455509,26.5099814],[71.4481902,26.5134184],[71.4516234,26.51194],[71.4577603,26.5058721],[71.4608502,26.5043168],[71.4610004,26.501878],[71.4607909,26.4993495],[71.4655852,26.4871651],[71.4658542,26.482494],[71.4673519,26.4756247],[71.4683819,26.4732621],[71.4708066,26.4718408],[71.4760718,26.46689],[71.4817071,26.4619099],[71.4880115,26.4577044],[71.4979291,26.462294],[71.5019242,26.4648052],[71.5098291,26.4692358],[71.5120482,26.4713798],[71.5157977,26.4776626],[71.5174742,26.4812646],[71.5178847,26.4836722],[71.519494,26.486169],[71.5212965,26.4870524],[71.5259957,26.4873982],[71.5332055,26.4879743],[71.5368962,26.4887617],[71.541591,26.4892351],[71.5473676,26.4920265],[71.5537388,26.4961801],[71.5579165,26.4988817],[71.5655153,26.5011656],[71.5699884,26.5043415],[71.5793825,26.50652],[71.5848112,26.5027037],[71.5923214,26.5004378],[71.594274,26.4978646],[71.5978314,26.4944958],[71.6003895,26.4905286],[71.6042304,26.4855161],[71.6090584,26.4875517],[71.6132211,26.4811946],[71.6142817,26.4753896],[71.6209673,26.4622556],[71.6227402,26.4499706],[71.6224348,26.4375446],[71.6240928,26.4333958],[71.6284483,26.4310708],[71.6317297,26.430019],[71.6289496,26.4247718],[71.6231345,26.417066],[71.6285541,26.4119134],[71.6310524,26.4090138],[71.6344748,26.4047075],[71.6395497,26.4043052],[71.64397,26.4041514],[71.6507044,26.3995509],[71.6586853,26.3927462],[71.6593766,26.3911008],[71.6603422,26.3904665],[71.6626811,26.3906588],[71.6695905,26.386603],[71.6708779,26.3852958],[71.6751265,26.383412],[71.6772079,26.38445],[71.6835165,26.3817012],[71.684215,26.3832249],[71.6844821,26.3856034],[71.6862631,26.3872949],[71.6893474,26.3879148],[71.6991162,26.3901974],[71.7027211,26.3922349],[71.7044377,26.3916583],[71.7086967,26.3885694],[71.7159805,26.3854451],[71.7168188,26.3865261],[71.7184281,26.3850844],[71.7184126,26.3844019],[71.7311954,26.3776259],[71.7359474,26.3766797],[71.7388129,26.3748961],[71.7419028,26.3721085],[71.7519721,26.3624316],[71.7554758,26.3545036],[71.757524,26.3504213],[71.7556536,26.3484646],[71.7685962,26.347537],[71.7873716,26.3465179],[71.8025636,26.33323],[71.8133354,26.3336531],[71.8178844,26.3531516],[71.8174552,26.3581507],[71.8235063,26.365995],[71.8307161,26.3709936],[71.8353509,26.374031],[71.83784,26.374031],[71.854856,26.3643993],[71.8588257,26.3619383],[71.8618083,26.3579584],[71.8661856,26.3544399],[71.8766355,26.3450373],[71.8830728,26.3394992],[71.8834591,26.3364608],[71.8850684,26.3295184],[71.8863773,26.3232679],[71.8871498,26.3202099],[71.8897676,26.3134781],[71.8916988,26.3100928],[71.89363,26.3078231],[71.8930936,26.3070537],[71.8939304,26.3062266],[71.8916988,26.3043222],[71.8927932,26.3010906],[71.8933725,26.2979165],[71.8973207,26.2977434],[71.9047451,26.2998017],[71.9077277,26.3002249],[71.9165897,26.2967431],[71.921246,26.3005712],[71.9234991,26.2999172],[71.9254946,26.3004173],[71.9309234,26.3064382],[71.9366526,26.3118817],[71.9403219,26.315113],[71.9453001,26.3160362],[71.9493341,26.3134204],[71.9548487,26.3151515],[71.9584965,26.3158247],[71.962552,26.3201522],[71.9646978,26.3195944],[71.9671011,26.3185943],[71.9686889,26.3179981],[71.9703412,26.3175942],[71.9743538,26.318325],[71.981821,26.3184212],[71.99476,26.3275567],[71.9955539,26.328326],[71.9980001,26.33198],[71.9999528,26.3336916],[72.0049095,26.3381531],[72.00845,26.3413837],[72.0093941,26.342249],[72.0106602,26.3422682],[72.012012,26.3420375],[72.0151019,26.3420183],[72.0174622,26.3439797],[72.0231485,26.3475755],[72.0285558,26.3504982],[72.0294142,26.3501328],[72.0308518,26.3495368],[72.032268,26.3495175],[72.0339846,26.3496714],[72.0361733,26.3499982],[72.0379543,26.3508827],[72.0460224,26.3522095],[72.0465803,26.350229],[72.0582318,26.355632],[72.0590043,26.354113],[72.059884,26.354113],[72.0613217,26.3543437],[72.0621586,26.3539976],[72.0620942,26.3523825],[72.0640683,26.3520364],[72.0654201,26.3513634],[72.066257,26.3504597],[72.06851,26.3500944],[72.0710618,26.351059],[72.0716858,26.3503828],[72.0743143,26.3538823],[72.0744538,26.3551993],[72.0746899,26.3562568],[72.0746899,26.3570932],[72.0747006,26.3578527],[72.0746255,26.3581892],[72.074368,26.3587467],[72.0743036,26.359112],[72.0751727,26.3628612],[72.0759988,26.3643224],[72.0762348,26.3649184],[72.0761061,26.3673215],[72.0761919,26.3696766],[72.0765352,26.3744251],[72.0761812,26.3768761],[72.0752692,26.3836235],[72.0745397,26.3879004],[72.0734024,26.3946087],[72.0726728,26.3983663],[72.0723724,26.3997694],[72.074883,26.407188],[72.0769858,26.4150097],[72.0782304,26.4216011],[72.0793462,26.4297485],[72.078681,26.4334762],[72.0797753,26.4407774],[72.0797324,26.4414114],[72.0789814,26.4439091],[72.0771146,26.4527849],[72.0735097,26.4564734],[72.0696902,26.4597199],[72.0640898,26.4647913],[72.0614505,26.4670771],[72.0585751,26.4707267],[72.0506358,26.4812523],[72.0456147,26.4832113],[72.0396495,26.4900868],[72.0352077,26.4939085],[72.0309806,26.4981334],[72.0280409,26.5000921],[72.0350361,26.508138],[72.0394349,26.5147432],[72.0414305,26.5175081],[72.0396924,26.5201385],[72.04113,26.5205033],[72.0418167,26.5223465],[72.0433616,26.5235752],[72.0462584,26.5277222],[72.0474171,26.5292965],[72.0486831,26.5305444],[72.0521807,26.5338656],[72.0541334,26.5376858],[72.0585966,26.5432912],[72.0604849,26.5472071],[72.0614719,26.5492994],[72.0614719,26.5501823],[72.0653772,26.5530423],[72.0663214,26.5523513],[72.0703339,26.5562669],[72.073853,26.5578984],[72.0737672,26.5611229],[72.0731878,26.5616219],[72.0752477,26.565825],[72.0772648,26.5676867],[72.0784879,26.5696058],[72.0766639,26.5708725],[72.080698,26.5753632],[72.0803761,26.5760157],[72.0826077,26.5783377],[72.0817494,26.5793931],[72.0866632,26.5847854],[72.0873499,26.5866659],[72.0897531,26.5893715],[72.0889807,26.5902157],[72.0934438,26.5952813],[72.0942468,26.5966327],[72.0967269,26.6008071],[72.0980572,26.6029176],[72.0951605,26.6049321],[72.0961475,26.6067739],[72.095139,26.6074454],[72.0962977,26.6085965],[72.0935511,26.6142175],[72.0915127,26.61604],[72.0916199,26.6165388],[72.0907402,26.6170567],[72.0909977,26.6177282],[72.08853,26.6202987],[72.0838308,26.6249601],[72.0820498,26.6257658],[72.0822859,26.6264755],[72.0802903,26.6275497],[72.0741749,26.6283362],[72.0719003,26.6304653],[72.0680809,26.6320765],[72.0655918,26.6344358],[72.0593047,26.6417242],[72.0660424,26.646308],[72.0647335,26.6488012],[72.0628023,26.6511218],[72.0579314,26.6568558],[72.0533824,26.6640277],[72.049756,26.6672684],[72.0453572,26.670509],[72.0385122,26.6749382],[72.0393705,26.676242],[72.0397568,26.6799425],[72.0385337,26.6818023],[72.0394778,26.6837579],[72.038877,26.6842372],[72.0404219,26.6869213],[72.0397568,26.6876881],[72.0408726,26.6887809],[72.0443487,26.6866145],[72.0471382,26.6898353],[72.0483184,26.6935929],[72.0495844,26.6934012],[72.0527816,26.6991906],[72.0554209,26.7025069],[72.0563864,26.7037529],[72.054863,26.7050947],[72.0567512,26.7078934],[72.059884,26.7114394],[72.0649266,26.7158479],[72.0696687,26.7202371],[72.0753765,26.7152921],[72.0779943,26.7194896],[72.0827794,26.7185696],[72.0848822,26.7190488],[72.0863414,26.7190296],[72.0870924,26.7224604],[72.0841956,26.7238211],[72.0821786,26.7256035],[72.0868349,26.7310655],[72.0831013,26.7378495],[72.0802903,26.7398042],[72.0786595,26.7419312],[72.0720291,26.7501325],[72.0699692,26.7521445],[72.0672011,26.7542138],[72.0640039,26.7570879],[72.063751,26.7588003],[72.0581087,26.7627202],[72.0595193,26.7673572],[72.0599055,26.7733153],[72.0607209,26.7749053],[72.0599699,26.7830276],[72.0545196,26.7863798],[72.0512581,26.7876632],[72.0476103,26.7888125],[72.0449066,26.7908812],[72.0450997,26.7919346],[72.0467305,26.7948844],[72.0490479,26.7993854],[72.0553136,26.8040394],[72.0600986,26.8032734],[72.0635104,26.8035606],[72.0662784,26.8046332],[72.0694113,26.8058972],[72.0709777,26.8059546],[72.0714283,26.8059546],[72.0725441,26.8062994],[72.0742178,26.8060695],[72.0756769,26.8065292],[72.0769214,26.8068548],[72.0777368,26.8068356],[72.0803332,26.8069697],[72.084732,26.8083103],[72.0851826,26.8100147],[72.0861482,26.8126384],[72.0881009,26.8155876],[72.0896673,26.8179622],[72.0903539,26.8195516],[72.0911479,26.8213516],[72.0914268,26.8216963],[72.0940876,26.8245304],[72.0988512,26.8305429],[72.0948815,26.8345638],[72.0914697,26.8387952],[72.0898175,26.8417054],[72.0883155,26.8466449],[72.0881653,26.8475447],[72.0885086,26.8504738],[72.0902252,26.8518522],[72.0920706,26.8524457],[72.0934653,26.8537283],[72.0937872,26.8545706],[72.0943236,26.8576336],[72.0983577,26.8579207],[72.1003318,26.8579782],[72.1016621,26.8593373],[72.1021127,26.861041],[72.1023702,26.8636826],[72.1025419,26.8646206],[72.1011257,26.8680469],[72.100203,26.8722388],[72.0992803,26.87377],[72.0983147,26.8755692],[72.0966196,26.8810814],[72.0994305,26.8840479],[72.1029496,26.8875311],[72.0954609,26.8946694],[72.0891738,26.9014819],[72.0852685,26.9063039],[72.0800543,26.9138045],[72.0790672,26.9152587],[72.0741749,26.9174399],[72.0702266,26.9186452],[72.0642829,26.9201184],[72.0619654,26.92295],[72.058661,26.9263555],[72.0557427,26.929053],[72.0475888,26.93242],[72.0402717,26.9349834],[72.0380401,26.9358634],[72.0408296,26.9428455],[72.043705,26.9495212],[72.0464086,26.9572867],[72.0491767,26.9653003],[72.0500135,26.9680734],[72.0470738,26.974193],[72.0452928,26.9784001],[72.0449281,26.9801785],[72.0443058,26.9848442],[72.0440483,26.98907],[72.0418381,26.9941177],[72.0433187,26.997674],[72.0421815,27.0006183],[72.0409584,27.0080935],[72.0386624,27.0142683],[72.042439,27.0182445],[72.0367527,27.0240938],[72.0328045,27.0235777],[72.0361089,27.0287386],[72.0372891,27.0302104],[72.0394993,27.0313572],[72.0448422,27.0296752],[72.0489621,27.0311661],[72.0511293,27.0356959],[72.0495844,27.0369956],[72.0513654,27.0392508],[72.0427608,27.0439906],[72.0391345,27.0431688],[72.0294571,27.0464559],[72.0298648,27.049227],[72.0303154,27.0520553],[72.0301866,27.0548836],[72.0260024,27.0556097],[72.028749,27.0587436],[72.0322037,27.0626227],[72.0318818,27.0679346],[72.0322466,27.0695779],[72.0336628,27.072826],[72.035315,27.0761696],[72.0362377,27.0774688],[72.0359158,27.0819013],[72.0360231,27.0849962],[72.0370745,27.0859896],[72.0369887,27.0907083],[72.0390916,27.0927524],[72.0409155,27.0985787],[72.0428681,27.1035642],[72.0424175,27.1051305],[72.0406794,27.1070979],[72.0372247,27.1110517],[72.0328474,27.1161512],[72.0310128,27.1171348],[72.0275798,27.1178395],[72.023685,27.118615],[72.021153,27.1197036],[72.018063,27.1213652],[72.0156812,27.1227212],[72.0131707,27.1237143],[72.0091581,27.1249938],[72.0070982,27.1255858],[72.0034718,27.1273428],[72.0007682,27.129749],[71.9979358,27.1312386],[71.9920993,27.1351724],[71.9849324,27.1373111],[71.9803834,27.1385714],[71.9750404,27.1401563],[71.9713282,27.1407673],[71.9637322,27.141111],[71.9623589,27.1415502],[71.9612646,27.1429632],[71.959269,27.1472976],[71.9572305,27.15146],[71.9543338,27.157436],[71.9542694,27.158906],[71.9554066,27.1624571],[71.9570803,27.1673061],[71.957252,27.1701124],[71.9571018,27.1723459],[71.9567156,27.1771945],[71.9560718,27.1796951],[71.9543552,27.183131],[71.953218,27.1845243],[71.9510507,27.1857841],[71.9498276,27.1859559],[71.9486904,27.1858223],[71.9479608,27.1854405],[71.9474244,27.1848107],[71.9470382,27.1843907],[71.9450855,27.1856123],[71.9424891,27.1835318],[71.9401717,27.1823484],[71.9372535,27.1816612],[71.9350862,27.1806495],[71.934936,27.1786071],[71.932919,27.1778435],[71.9312238,27.1782444],[71.9287777,27.1769655],[71.9266319,27.1759538],[71.9245076,27.1756483],[71.9216108,27.1761446],[71.9200015,27.17687],[71.9170403,27.1783017],[71.9132638,27.1795806],[71.9126415,27.1797906],[71.911869,27.1923308],[71.9122338,27.2019498],[71.9122982,27.2049461],[71.9129419,27.2105757],[71.9127273,27.2120641],[71.9105387,27.2154417],[71.9076633,27.2205556],[71.9098949,27.2203076],[71.9126415,27.2230553],[71.9100666,27.2245626],[71.913886,27.2305156],[71.9117617,27.2377656],[71.9094229,27.2413714],[71.9061184,27.245969],[71.9015479,27.2518827],[71.9045734,27.2545724],[71.8999815,27.2590741],[71.896913,27.2621641],[71.8968701,27.2631178],[71.8971491,27.2646819],[71.8957329,27.2663604],[71.8929863,27.2737415],[71.8933725,27.275458],[71.8913126,27.2774033],[71.8853903,27.2825335],[71.8861627,27.2898945],[71.8853903,27.2915535],[71.8836307,27.2894559],[71.8830728,27.288922],[71.8782234,27.2897801],[71.8734598,27.2905238],[71.867516,27.2926023],[71.8647909,27.293346],[71.861701,27.2933841],[71.8593836,27.2951194],[71.8540191,27.2994097],[71.8460369,27.3070175],[71.8457579,27.3089813],[71.8419599,27.3042719],[71.8410802,27.3046532],[71.8417883,27.3055684],[71.8353081,27.3091338],[71.8397069,27.3130805],[71.8402648,27.3132711],[71.8415737,27.3157687],[71.8336344,27.3211639],[71.8247938,27.3226128],[71.8247509,27.3233753],[71.8226695,27.3268448],[71.8230128,27.3277408],[71.8234205,27.3293802],[71.8214249,27.3329258],[71.817069,27.3405884],[71.8159747,27.3430663],[71.8147087,27.3494132],[71.8140435,27.3521958],[71.8140435,27.3549021],[71.815288,27.3624489],[71.8167794,27.3697474],[71.8178415,27.3729487],[71.8197727,27.3773504],[71.8211889,27.381447],[71.8206739,27.384286],[71.8195367,27.3849909],[71.8205452,27.390821],[71.81988,27.3915259],[71.820116,27.3966698],[71.8203521,27.401242],[71.8196654,27.4067473],[71.8190217,27.4142716],[71.8186354,27.4171097],[71.8129277,27.4271853],[71.8096018,27.4332227],[71.8070054,27.4380409],[71.8070483,27.4405356],[71.807177,27.4479052],[71.8144512,27.4545126],[71.8177771,27.4648705],[71.8235278,27.4728476],[71.8270898,27.4762363],[71.8332052,27.4821948],[71.8439126,27.480196],[71.8609285,27.4839652],[71.876421,27.4874678],[71.8922782,27.4767694],[71.8933725,27.4793965],[71.8941235,27.4814524],[71.8913126,27.4923597],[71.8897891,27.4974799],[71.8929004,27.5002588],[71.8964624,27.5059876],[71.8958616,27.5073198],[71.8971705,27.5103459],[71.896398,27.511659],[71.8971276,27.5172541],[71.8980503,27.5194235],[71.8960762,27.5227156],[71.8966341,27.5274728],[71.8998742,27.5362065],[71.904552,27.5392127],[71.9103241,27.5433604],[71.9154095,27.5505138],[71.9192719,27.5560878],[71.924293,27.5629551],[71.9329834,27.5615665],[71.946609,27.559493],[71.9485616,27.5579141],[71.9535613,27.5551747],[71.9567156,27.5532914],[71.9586038,27.5516363],[71.9677877,27.5534245],[71.9708991,27.5558786],[71.9752121,27.5592647],[71.9829154,27.5621752],[71.986928,27.5638682],[71.9966054,27.5690991],[71.9997382,27.5719903],[72.0075488,27.5806254],[72.015295,27.5876433],[72.0242858,27.596144],[72.0340276,27.6049293],[72.0377612,27.608485],[72.0435977,27.6147786],[72.0466018,27.6182199],[72.0525026,27.6137709],[72.0656991,27.6057659],[72.0791745,27.5975892],[72.0945382,27.5917321],[72.0961475,27.5920363],[72.1020698,27.5936338],[72.1064043,27.5936528],[72.1077561,27.5931964],[72.1092796,27.5931774],[72.1096444,27.5937098],[72.1160388,27.5888224],[72.1155238,27.5870157],[72.1165108,27.5858175],[72.1156311,27.585323],[72.1148586,27.5845623],[72.1149874,27.5838586],[72.1153521,27.5835163],[72.1161461,27.5835543],[72.1194076,27.5846003],[72.1221757,27.585285],[72.1253085,27.5823942],[72.1280551,27.5814052],[72.1281409,27.5807966],[72.1276259,27.5801499],[72.1276259,27.5797505],[72.1279907,27.579237],[72.1280765,27.5788756],[72.1276688,27.5784952],[72.1270895,27.578267],[72.1264672,27.5778105],[72.1257376,27.5767834],[72.1250081,27.575414],[72.1242356,27.5744249],[72.1225405,27.5728272],[72.1212101,27.5716289],[72.1172404,27.5723898],[72.1045804,27.561186],[72.1052241,27.5597022],[72.108078,27.5549084],[72.1093225,27.5536718],[72.1130991,27.5508182],[72.1143865,27.5477743],[72.11694,27.5485543],[72.1238065,27.5469942],[72.1267032,27.5463093],[72.1348357,27.5419335],[72.1440196,27.5360353],[72.1445989,27.5339803],[72.1414661,27.5274347],[72.1398139,27.5245424],[72.1376681,27.5225824],[72.1403718,27.5198612],[72.1462083,27.5163216],[72.1490192,27.5078718],[72.1501994,27.5054166],[72.1514654,27.5028853],[72.1520662,27.5007536],[72.1528172,27.4992119],[72.1538472,27.4991929],[72.1548342,27.4994213],[72.1554565,27.4997639],[72.1544051,27.5002588],[72.1556926,27.5010391],[72.156229,27.5003349],[72.1570658,27.4990406],[72.1585035,27.4974609],[72.1602201,27.4959572],[72.1547913,27.4893522],[72.1550274,27.4889525],[72.1573448,27.4857165],[72.1586323,27.4789206],[72.157259,27.477093],[72.158997,27.4747514],[72.1597481,27.4739709],[72.1684384,27.468069],[72.175219,27.4621859],[72.1800041,27.4640327],[72.1851325,27.465594],[72.1908188,27.4697635],[72.19805,27.4728476],[72.2029853,27.4757604],[72.202363,27.4799485],[72.2097659,27.4804435],[72.2101521,27.4916745],[72.2102809,27.4927024],[72.2166538,27.4943012],[72.2234237,27.4937492],[72.2250867,27.4935874],[72.229743,27.4908274],[72.2346353,27.4876391],[72.2356224,27.486259],[72.2389054,27.4810622],[72.2415769,27.4826041],[72.2435939,27.4837653],[72.2457933,27.4890762],[72.2465444,27.4902469],[72.2465014,27.4913033],[72.2454071,27.493083],[72.244302,27.4949484],[72.2446883,27.4959477],[72.2440874,27.4972705],[72.2439051,27.4982983],[72.2440982,27.4993261],[72.2440231,27.5004776],[72.2430467,27.5026664],[72.242918,27.50535],[72.2434759,27.5083095],[72.2435081,27.5147135],[72.2437334,27.5252845],[72.2485828,27.5367393],[72.2630453,27.5479645],[72.2800397,27.5533295],[72.2757697,27.5549465],[72.2639036,27.558656],[72.2564792,27.5609387],[72.2645044,27.5639062],[72.276349,27.5683954],[72.2864341,27.582242],[72.2943735,27.5949079],[72.2996521,27.6028947],[72.3050594,27.6173454],[72.3144579,27.6305395],[72.3174619,27.6346457],[72.3223114,27.6516012],[72.326045,27.6615984],[72.3317098,27.674103],[72.3359584,27.6839081],[72.3373317,27.6908244],[72.3376751,27.6932944],[72.3339414,27.6953843],[72.3289632,27.6957643],[72.3240709,27.6974362],[72.2939872,27.7098228],[72.2821855,27.7052635],[72.273302,27.7038577],[72.2686672,27.700058],[72.2561788,27.6868723],[72.2467804,27.6769155],[72.2455787,27.6755853],[72.238326,27.6704544],[72.2321033,27.6668437],[72.2206449,27.6605341],[72.2183275,27.668592],[72.2158384,27.6758133],[72.2143364,27.6791197],[72.2101306,27.682046],[72.1949386,27.6912044],[72.1855831,27.6974362],[72.1637821,27.7056815],[72.1472168,27.7115325],[72.1409082,27.7137741],[72.1140432,27.7137361],[72.1112966,27.7124823],[72.1093225,27.7112666],[72.1073913,27.7098228],[72.1051168,27.7079991],[72.1001386,27.7117605],[72.0989799,27.7133942],[72.0979499,27.7139261],[72.0972204,27.7146479],[72.0950317,27.7149138],[72.0937442,27.7169274],[72.0934009,27.7190929],[72.092843,27.7204605],[72.0916843,27.7211823],[72.0905256,27.7216762],[72.0969629,27.7348957],[72.0955896,27.7355414],[72.0946884,27.7363771],[72.0941305,27.7373647],[72.0934438,27.7384282],[72.092843,27.738884],[72.0921993,27.7400995],[72.0923709,27.7409731],[72.0937013,27.7423405],[72.095375,27.7445814],[72.0982074,27.749215],[72.0998382,27.7485694],[72.1013832,27.7522913],[72.1156311,27.7513419],[72.1225404,27.7562031],[72.1342563,27.7644439],[72.1436119,27.7749623],[72.1488905,27.7795946],[72.1502637,27.7809236],[72.1509075,27.792921],[72.1490621,27.8158492],[72.1442985,27.827691],[72.1403932,27.8379756],[72.1380114,27.8471588],[72.1474742,27.8573278],[72.1491909,27.8600216],[72.1452856,27.8701515],[72.1424102,27.8753867],[72.1329689,27.8799768],[72.1172618,27.887753],[72.1003532,27.8971217],[72.0885086,27.9037589],[72.0819854,27.9103199],[72.0787239,27.9200279],[72.0747757,27.9231373],[72.0673513,27.9299245],[72.0506143,27.9384554],[72.0422029,27.9424363],[72.0354223,27.945128],[72.0289421,27.9504734],[72.0215606,27.9474027],[72.0173978,27.9456209],[72.0096731,27.9407302],[72.0027637,27.9365597],[72.0007896,27.9362943],[71.9926356,27.9329958],[71.9867133,27.9311758],[71.9795894,27.9317066],[71.9692039,27.9336783],[71.964569,27.9333749],[71.9621657,27.9294317],[71.9594192,27.9250332],[71.9541835,27.9189661],[71.9453429,27.9060724],[71.9349574,27.8914324],[71.9383906,27.8893841],[71.9401073,27.8874117],[71.9407081,27.8838461],[71.9401073,27.8801286],[71.9380473,27.8766386],[71.9329833,27.8737555],[71.9274901,27.8717069],[71.9220828,27.8711758],[71.9193362,27.8745901],[71.9162463,27.8822529],[71.9021701,27.8825564],[71.8994235,27.8795217],[71.8981361,27.8743625],[71.8934154,27.8704929],[71.8851756,27.8784595],[71.8853473,27.8951495],[71.8832873,27.8979562],[71.8776225,27.8995491],[71.8729877,27.9034176],[71.8754768,27.914188],[71.8818282,27.9157049],[71.8821287,27.9369768],[71.8801887,27.9449911],[71.8947845,27.9565856],[71.8987123,27.9597403],[71.8920642,27.9597406],[71.8890884,27.959039],[71.8829462,27.9575928],[71.8793592,27.9563322],[71.8766969,27.9553661],[71.8730595,27.954029],[71.8706205,27.9531427],[71.8696882,27.9527929],[71.8658271,27.9514038],[71.862513,27.9501864],[71.8571695,27.9482307],[71.8529907,27.9466772],[71.8488355,27.945131],[71.8454604,27.9438567],[71.8412365,27.9422838],[71.8385005,27.941264],[71.8341694,27.9396383],[71.8293597,27.9378508],[71.8272795,27.9370691],[71.8247432,27.9361027],[71.8234633,27.9356582],[71.818818,27.9339688],[71.8146653,27.9324778],[71.8119395,27.9314781],[71.8094239,27.9305632],[71.805123,27.9290187],[71.8025333,27.9280737],[71.7956133,27.9255656],[71.7913995,27.9240348],[71.7799912,27.9199023],[71.7762786,27.9185558],[71.7732111,27.9174753],[71.7668601,27.9151791],[71.762671,27.9136503],[71.7587907,27.9122608],[71.7535451,27.9103219],[71.7466973,27.9078027],[71.7396456,27.9051897],[71.7341031,27.9031349],[71.7290283,27.9012754],[71.7242084,27.8994905],[71.7186202,27.8974316],[71.7145172,27.8959086],[71.7126284,27.8951997],[71.7066954,27.892985],[71.7015423,27.89106],[71.6946093,27.8884729],[71.6846224,27.88468],[71.6798032,27.8828659],[71.6742089,27.8807275],[71.6664858,27.8778073],[71.6613508,27.8777533],[71.6515368,27.8776535],[71.6510052,27.8776616],[71.644936,27.8775578],[71.6390924,27.8774932],[71.634885,27.8774501],[71.624476,27.8773435],[71.6156309,27.8772511],[71.6072808,27.8771639],[71.5999683,27.8770906],[71.5981654,27.8770587],[71.5859517,27.8768697],[71.581982,27.8768019],[71.5711707,27.876625],[71.5664684,27.8765481],[71.559457,27.8764309],[71.5487487,27.8762571],[71.5460566,27.8762125],[71.5388515,27.8760867],[71.5317302,27.8759787],[71.5296954,27.8758746],[71.5167897,27.8752082],[71.5134672,27.8750358],[71.5061417,27.8746541],[71.4979024,27.8742301],[71.495905,27.8741189],[71.4875448,27.8737454],[71.4813482,27.8734363],[71.4740725,27.8734157],[71.4676625,27.8734092],[71.4640522,27.8734063],[71.4601462,27.8735854],[71.4472817,27.8741955],[71.4433658,27.8739852],[71.4290983,27.8734463],[71.4191687,27.8732436],[71.4161298,27.8731991],[71.4111443,27.8731372],[71.405618,27.8730594],[71.400724,27.8729797],[71.3916548,27.8727496],[71.3830714,27.8725267],[71.3810909,27.8722848],[71.3761351,27.8713465],[71.3442249,27.8640244],[71.333018,27.8615934],[71.3266484,27.8602062],[71.3191201,27.858582],[71.2926952,27.8529214],[71.2760873,27.8494426],[71.2669209,27.8475146],[71.2473461,27.8434123],[71.233141,27.8404392],[71.220405,27.8377589],[71.2158255,27.8369871],[71.2123201,27.8364474],[71.2055689,27.8353371],[71.203674,27.8345791],[71.1730111,27.8221344],[71.1585713,27.8166079],[71.1549631,27.8153116],[71.150464,27.8137298],[71.1453214,27.8112532],[71.1422699,27.8097566],[71.1361,27.8067402],[71.1298304,27.8041148],[71.1228801,27.8012148],[71.1207973,27.8003252],[71.1189229,27.7995196],[71.1139278,27.7973591],[71.1086179,27.7950506],[71.1060159,27.7939194],[71.1044679,27.7932797],[71.098735,27.7909628],[71.0909876,27.7878194],[71.0899837,27.7874002],[71.0794489,27.7823501],[71.0739465,27.7797261],[71.0728814,27.779203],[71.0646059,27.7752274],[71.0619681,27.7740845],[71.0583152,27.7727222],[71.0497236,27.7694904],[71.0489238,27.7691846],[71.043548,27.7671067],[71.0402908,27.7658263],[71.031718,27.7624892],[71.0257327,27.7601573],[71.0224199,27.7588693],[71.0194273,27.7576789],[71.0139223,27.7553527],[71.0047638,27.7514906],[71.0018742,27.7502743],[70.9961748,27.7478614],[70.9846796,27.743004],[70.9828285,27.7422214],[70.9803539,27.7405973],[70.9757049,27.7375409],[70.9731072,27.7358344],[70.9701735,27.7339128],[70.9661637,27.7312739],[70.9631668,27.7292998],[70.959533,27.7291669],[70.9572412,27.7290747],[70.953842,27.7289373],[70.9513936,27.7288399],[70.9506394,27.728513],[70.9436614,27.7255401],[70.9393588,27.7237045],[70.9362904,27.7223906],[70.9332338,27.7210794],[70.9262427,27.7180885],[70.9133896,27.7125691],[70.9062447,27.7094993],[70.9057649,27.7094426],[70.8950745,27.7082243],[70.8900671,27.7076416],[70.8833136,27.706864],[70.8720032,27.7055479],[70.8715646,27.7056283],[70.8644681,27.706588],[70.8572291,27.7075716],[70.8501098,27.708513],[70.8455524,27.7091153],[70.8431967,27.7094272],[70.8400215,27.7098615],[70.8361517,27.7103835],[70.8319107,27.7109609],[70.82629,27.7117294],[70.8199269,27.7125842],[70.8112447,27.7137508],[70.809711,27.7139618],[70.8080046,27.71421],[70.8029121,27.714973],[70.7985238,27.7156222],[70.7965962,27.715904],[70.7950513,27.7161086],[70.7916398,27.7165687],[70.7886291,27.716977],[70.7824676,27.7178101],[70.7778073,27.7184383],[70.7761215,27.7186656],[70.7729728,27.7191002],[70.7688494,27.7197434],[70.7649789,27.720348],[70.7594445,27.7212193],[70.7573505,27.7241588],[70.7514577,27.7324879],[70.7506912,27.733615],[70.7490445,27.7348716],[70.7473159,27.7361798],[70.7426936,27.7397072],[70.7407704,27.7411814],[70.7398454,27.741907],[70.7394466,27.7428739],[70.7389264,27.7441609],[70.7351397,27.7539285],[70.7340629,27.7564154],[70.7327752,27.7596568],[70.732504,27.7603481],[70.731424,27.7619503],[70.7256732,27.7704923],[70.7248238,27.7717442],[70.7224945,27.7751801],[70.7162806,27.7843231],[70.7080926,27.7965808],[70.704153,27.8023896],[70.6981828,27.8111499],[70.6967501,27.8129203],[70.6843463,27.8282],[70.6799902,27.8611569],[70.6794194,27.8654404],[70.6789793,27.8687203],[70.6785069,27.8723397],[70.6785222,27.8728984],[70.6786077,27.8748875],[70.6786614,27.8760193],[70.6787504,27.8779539],[70.679043,27.8843722],[70.678411,27.8987657],[70.6774143,27.9218286],[70.6566526,27.9406132],[70.6351284,27.9600879],[70.6317216,27.9631705],[70.617991,27.9755934],[70.5986169,27.9931227],[70.5971295,27.9959543],[70.5932421,28.0033448],[70.5920973,28.0055228],[70.5894978,28.0104637],[70.5703127,28.0191059],[70.5625632,28.0226049],[70.554297,28.0263234],[70.5500134,28.0272682],[70.5379271,28.0298647],[70.5314024,28.0309545],[70.5239942,28.0321546],[70.5217402,28.032499],[70.5210654,28.0327115],[70.5057143,28.0369769],[70.5049479,28.0368634],[70.5006296,28.0362305],[70.488985,28.0345371],[70.4765975,28.0309755],[70.4640243,28.0273376],[70.4558346,28.0249596],[70.4463164,28.0222199],[70.4419976,28.0209618],[70.4394586,28.0202222],[70.428703,28.0187729],[70.4259144,28.018407],[70.4216846,28.0178715],[70.4057173,28.0158561],[70.4041487,28.0156708],[70.4008275,28.0152726],[70.3895675,28.0139093],[70.3788384,28.0126243],[70.3722329,28.0118243],[70.3667237,28.006198],[70.3579967,27.9972814],[70.3558968,27.9951253],[70.3487711,27.9878427],[70.3455343,27.9845282],[70.3402781,27.9792167],[70.3334914,27.97233],[70.3281317,27.9669156],[70.3251017,27.9638495],[70.3125847,27.9510849],[70.3111144,27.9495731],[70.3095488,27.9481653],[70.3044935,27.9435502],[70.3021895,27.9413659],[70.2992181,27.9387277],[70.296236,27.9360154],[70.2931743,27.9344716],[70.2852166,27.9304705],[70.2744672,27.9250869],[70.2674884,27.9215964],[70.2646394,27.9201151],[70.2630032,27.9193484],[70.2601724,27.9179299],[70.2580588,27.9168714],[70.2559637,27.9157967],[70.2543853,27.9150239],[70.2421106,27.9089226],[70.2365788,27.9061558],[70.2355909,27.9056629],[70.2270004,27.9013766],[70.225478,27.8996241],[70.2193778,27.8926283],[70.2174909,27.8904562],[70.2124523,27.8852595],[70.2103496,27.883095],[70.2065652,27.8791648],[70.1977572,27.8671912],[70.1949582,27.8646221],[70.1839696,27.8546574],[70.1796693,27.8507212],[70.1742386,27.8457805],[70.1555011,27.8287367],[70.1455029,27.8205815],[70.1413343,27.8158305],[70.1385576,27.8128053],[70.1377524,27.8118934],[70.1325506,27.8059806],[70.130955,27.8029102],[70.1304121,27.8018555],[70.1233323,27.7878705],[70.1226883,27.7862528],[70.1214873,27.7832886],[70.1179653,27.7744463],[70.1134714,27.7618456],[70.107263,27.747802],[70.1058423,27.7444578],[70.1036166,27.7391827],[70.1001478,27.7311096],[70.0996356,27.7299027],[70.0954971,27.7202541],[70.0917165,27.7106306],[70.0875876,27.700392],[70.0864341,27.6975224],[70.0850596,27.6941689],[70.0845993,27.693047],[70.0776181,27.6760828],[70.0760042,27.6721965],[70.0756596,27.6712747],[70.0743892,27.6683358],[70.0731034,27.6651265],[70.0722964,27.6631147],[70.0713577,27.6610205],[70.0687568,27.6551834],[70.067722,27.6529663],[70.0669391,27.6512963],[70.06559,27.648386],[70.0647026,27.646466],[70.0635163,27.6439052],[70.0604866,27.6373824],[70.0560937,27.6279178],[70.0533514,27.6219745],[70.0514739,27.6179511],[70.0489502,27.6125089],[70.0471151,27.6085604],[70.0457343,27.6055801],[70.0453747,27.6048134],[70.0411219,27.5956317],[70.0381981,27.5893432],[70.035174,27.5828155],[70.0338278,27.5799045],[70.0309828,27.5737609],[70.029413,27.5703913],[70.0275896,27.5664609],[70.0267509,27.5646652],[70.0259269,27.5628686],[70.0251203,27.5623768],[70.0236872,27.5614788],[70.0079179,27.5515983],[70.0052224,27.5498972],[70.001293,27.5474369],[69.9988783,27.5459089],[69.9974309,27.5450008],[69.9964268,27.544297],[69.9917582,27.5410048],[69.9885122,27.538719],[69.9831018,27.5349064],[69.9807315,27.5333584],[69.9768565,27.5307293],[69.9731659,27.5282353],[69.9713885,27.5270213],[69.9661817,27.5234988],[69.9634815,27.5213284],[69.9621028,27.520254],[69.9595762,27.5182285],[69.9572906,27.5163803],[69.9489996,27.5097331],[69.9384238,27.5014235],[69.93375,27.4977403],[69.9325839,27.496068],[69.930622,27.4932447],[69.9286219,27.4903662],[69.9220869,27.4804563],[69.9152019,27.4692367],[69.9076622,27.4574228],[69.9033036,27.4512202],[69.8982503,27.4440098],[69.8937051,27.4375346],[69.8908681,27.4334772],[69.8903188,27.4328302],[69.8840214,27.4253103],[69.8790384,27.4193693],[69.8759037,27.4156043],[69.8704808,27.410023],[69.8670485,27.4064684],[69.862888,27.4021543],[69.8624768,27.4018751],[69.8522707,27.394877],[69.8496313,27.3930641],[69.8458117,27.3900317],[69.8443123,27.3888518],[69.8386684,27.3844005],[69.8345401,27.3811485],[69.8286625,27.3765088],[69.8273725,27.3754952],[69.8145597,27.3654558],[69.8100537,27.3624376],[69.8082238,27.3612175],[69.8047702,27.3588941],[69.8020797,27.3570976],[69.7999847,27.3556945],[69.793657,27.3507845],[69.7824522,27.3418845],[69.7770766,27.3365068],[69.7746465,27.3340796],[69.772501,27.331927],[69.7704668,27.3301287],[69.767912,27.3278759],[69.7672077,27.3272548],[69.7602269,27.3210663],[69.7521922,27.3162198],[69.7451714,27.3119795],[69.7431716,27.3107755],[69.7369553,27.3069353],[69.7330669,27.3045367],[69.7289896,27.3020293],[69.722076,27.2977484],[69.7176326,27.2949941],[69.7155712,27.2937149],[69.714445,27.2930209],[69.7130557,27.2920085],[69.7076011,27.2878899],[69.7027708,27.284251],[69.7023063,27.2838735],[69.7012189,27.2827137],[69.6977518,27.278944],[69.695901,27.2769135],[69.691403,27.2720675],[69.6900888,27.2708381],[69.6802355,27.2616509],[69.6795461,27.2610073],[69.673299,27.254695],[69.6701261,27.2514911],[69.6685648,27.2498931],[69.6663724,27.247677],[69.6601073,27.2412165],[69.6559346,27.2368864],[69.6541668,27.2350347],[69.6508822,27.2315914],[69.6447894,27.225139],[69.6379284,27.2193889],[69.6292621,27.2120975],[69.6279649,27.2109976],[69.6163847,27.2037067],[69.6155249,27.2031675],[69.6143138,27.2024528],[69.6092306,27.199368],[69.604622,27.1965932],[69.6005204,27.1941242],[69.5963815,27.1908373],[69.5937437,27.1887714],[69.586829,27.1832511],[69.5841332,27.1768381],[69.5828869,27.173879],[69.5792083,27.1650793],[69.5784314,27.163267],[69.5759616,27.1574265],[69.5736143,27.1518767],[69.5682568,27.1392062],[69.5674881,27.1373936],[69.5650736,27.1316962],[69.5644715,27.1302695],[69.5578306,27.1146257],[69.5570061,27.112672],[69.5540342,27.1057073],[69.5509366,27.0983488],[69.5482283,27.0919438],[69.5460098,27.0867117],[69.5429792,27.0794964],[69.5387574,27.0695546],[69.5335985,27.0574088],[69.5305497,27.0502518],[69.52995,27.0488321],[69.5247951,27.0367564],[69.523374,27.0333905],[69.5225493,27.0314585],[69.5220371,27.0302391],[69.5186765,27.0223818],[69.5175306,27.0196784],[69.5157114,27.0154013],[69.5133771,27.0099286],[69.51345,27.0086643],[69.5137681,27.0019784],[69.5131689,26.9971321],[69.5124043,26.9909792],[69.5116869,26.985717],[69.5108238,26.9792422],[69.5105573,26.9768905],[69.5088154,26.9616684],[69.5074103,26.9493435],[69.5066458,26.9422224],[69.50433,26.9222446],[69.504018,26.919922],[69.5032808,26.9136033],[69.5024005,26.9060526],[69.5022531,26.9047388],[69.5020255,26.9028338],[69.5003893,26.8888273],[69.4997489,26.883393],[69.4996452,26.8825709],[69.4983164,26.8719788],[69.497686,26.8669181],[69.4969065,26.8636493],[69.4961757,26.8605734],[69.4951215,26.856155],[69.4936968,26.8501635],[69.4926492,26.8462441],[69.4916929,26.8426534],[69.4907813,26.8392828],[69.4884633,26.8301909],[69.4866462,26.8208855],[69.4863244,26.819243],[69.4853518,26.8142818],[69.4850946,26.8116599],[69.4846772,26.8073583],[69.4845064,26.8055879],[69.4844368,26.8048731]]]}},{"type":"Feature","properties":{"zone":"Moderate Fire Zone","color":"#FFD700","opacity":0.45,"fill":"#FFD700","fill-opacity":0.45,"stroke":"#FFD700","stroke-width":1,"stroke-opacity":0.8},"geometry":{"type":"Polygon","coordinates":[[[70.6568965466771,26.59744014056937],[70.66618010010481,26.58740694544131],[70.66898727017455,26.5726599315291],[70.69898867042576,26.542659843005655],[70.71275772136407,26.540150843621596],[70.7212600023792,26.53130264537047],[70.7763006558373,26.530946556937188],[70.78611588834009,26.540150825768965],[70.79882432786322,26.541881330685108],[70.80611681005189,26.550150802193357],[70.81882467104877,26.551881328578585],[70.83075639646589,26.563608608086543],[70.83269283454483,26.57740667540669],[70.84180288732836,26.585865366980762],[70.84356498792643,26.65872504920123],[70.85612856404164,26.670150794107112],[70.86882877490105,26.671881323115173],[70.87775260471173,26.68063031549376],[70.8976174838142,26.681302784032077],[70.906130470602,26.690152972290452],[70.96630215467476,26.690946472388607],[70.97613162104093,26.700150838406852],[70.98882981067885,26.701881319589603],[70.99613251633144,26.710150802660124],[71.00989230174544,26.71265984696656],[71.05141410065178,26.754690929351725],[71.05216972590142,26.775961133216352],[71.06181497682067,26.785865351926198],[71.06217355400116,26.835962568408274],[71.07141924725954,26.844690932583507],[71.07358019723985,26.858729825240584],[71.12467598608818,26.909376796629747],[71.1476229326351,26.911302792915322],[71.15615332124803,26.920150821592046],[71.16883737523486,26.921881331550452],[71.21077696008444,26.96360861272315],[71.21218317673875,26.985966184296682],[71.22200195090387,26.997440204255735],[71.22200573901316,27.057733303977294],[71.21214039605223,27.069420812164914],[71.21183413714493,27.099308068991977],[71.20254037204724,27.10815855163015],[71.20143577896967,27.130482471457317],[71.19254240903211,27.13815783130318],[71.19143693845628,27.150482473997865],[71.18254376664787,27.158157351392944],[71.18078791081865,27.171564821559308],[71.16319400014753,27.186980380328702],[71.15079052645265,27.22156482412508],[71.11884965884855,27.25329195067433],[71.09664073724174,27.25485604720446],[71.08631179974499,27.26422686093285],[71.0425618508217,27.264226862086883],[71.03223277509575,27.254856939547047],[70.99256174772353,27.254226827766797],[70.98081493783239,27.24450314231859],[70.94256186110486,27.24422682879323],[70.93081611693533,27.234503142354104],[70.8925619749842,27.23422682856213],[70.88081729462746,27.22450314110913],[70.84256208936301,27.22422682707346],[70.83355979070954,27.21543234346642],[70.8189588686173,27.21251343755863],[70.7880851698347,27.181564819808322],[70.78632983257997,27.158157368183875],[70.77703638755106,27.149308066369954],[70.77672999053141,27.11941963431541],[70.76703884826827,27.109308060928345],[70.76673513056676,27.039421557149865],[70.7480935098196,27.02156481312841],[70.74569282599256,27.00698471493832],[70.7274459163252,26.990482458977045],[70.72634268542357,26.968161928626365],[70.71704804307659,26.959308048987996],[70.7167440729202,26.899424910157187],[70.70705231634676,26.889308047769074],[70.70745263285627,26.874690936642875],[70.71669813453683,26.865963303166378],[70.71705740807919,26.805865354227734],[70.72670260939388,26.795961629085692],[70.72675359510822,26.749428504057963],[70.71746025669152,26.740482439314825],[70.71571321060479,26.726991410903707],[70.66811105827061,26.681564784636493],[70.66636277225668,26.668169095191132],[70.65746481353509,26.660482419273524],[70.6568965466771,26.59744014056937]]]}},{"type":"Feature","properties":{"zone":"High Fire Zone","color":"#FF8C00","opacity":0.5,"fill":"#FF8C00","fill-opacity":0.5,"stroke":"#FF8C00","stroke-width":1,"stroke-opacity":0.8},"geometry":{"type":"Polygon","coordinates":[[[70.7568810363684,26.84744017417843],[70.76616301271372,26.837412885890462],[70.76705680636486,26.81586534638704],[70.77616507206245,26.807412166886863],[70.77810541832152,26.793608592001792],[70.83125469026467,26.741302783928294],[70.85273810228922,26.74015126119818],[70.86257051161273,26.730946549540047],[70.914539589921,26.73079172826596],[70.92613547980497,26.74015169160361],[70.9563034639296,26.74094659300475],[70.96613648491679,26.750150817018653],[70.97989404124156,26.752659846645148],[71.00076714993625,26.773608592652398],[71.00270715740788,26.787411679791948],[71.01076817949325,26.793608592728663],[71.01270852972686,26.807412158597856],[71.02181679399357,26.81586535361393],[71.02217995770981,26.93596496060373],[71.03142498870713,26.944690933010207],[71.03358785868186,26.95873221947944],[71.04142614065924,26.964690934359638],[71.04261576641117,26.986351067475276],[71.05883979896645,26.991881322865606],[71.06616124852911,27.000151241602033],[71.08883999944389,27.001881240384378],[71.11182961582615,27.025865366905894],[71.11200889531321,27.107733293723697],[71.10254106248172,27.11815832781732],[71.10078634693947,27.14156481535261],[71.0788463597035,27.16329203373236],[71.06530925494427,27.1654323071536],[71.05884670808746,27.173292034515313],[71.04530996053867,27.17543242945169],[71.03631272112723,27.184226537379928],[70.91256088890349,27.18422653953323],[70.90356364056026,27.17543243491287],[70.89002689791104,27.173292035405318],[70.88356434660396,27.165432313468227],[70.86896109052088,27.162513434505634],[70.84808725583234,27.141564814859496],[70.84568400307687,27.126981837482226],[70.82743897606571,27.110482460583754],[70.82673319279237,27.06942084659084],[70.8170419152228,27.059308054370618],[70.81633863120238,27.02816050057471],[70.80744418387329,27.020482458404263],[70.80633998016464,27.00816098050801],[70.79744533845478,27.00048245735291],[70.7963413304317,26.98816145998677],[70.7874464921247,26.980482456124452],[70.78634267957808,26.96816193920468],[70.77744764488376,26.960482454718814],[70.77569721091493,26.946986158697676],[70.7674487964468,26.940482452503446],[70.76634604936073,26.918163136728996],[70.75705109718288,26.909308041624104],[70.7568810363684,26.84744017417843]]]}},{"type":"Feature","properties":{"zone":"Very High Fire Zone","color":"#FF0000","opacity":0.55,"fill":"#FF0000","fill-opacity":0.55,"stroke":"#FF0000","stroke-width":1,"stroke-opacity":0.8},"geometry":{"type":"MultiPolygon","coordinates":[[[[70.80688165902755,26.83744017835107],[70.81616369489906,26.827412637874886],[70.81897683157221,26.81265993339005],[70.8400407039097,26.791881319400623],[70.8527331028901,26.79015084003814],[70.86257039036323,26.780946467897074],[70.93761906023839,26.781302498620015],[70.97076921070455,26.813608593709464],[70.97217355630966,26.8359625624343],[70.98199256505642,26.84744017625739],[70.98182006364054,26.869308048727323],[70.97212826449471,26.87942541298946],[70.97182311292676,26.919308049752612],[70.96252822665437,26.92816290623784],[70.96077593861413,26.94156481187266],[70.94317712151607,26.956985926932372],[70.94077749352647,26.971564812523173],[70.91884059132663,26.993291942441694],[70.88124751915899,26.99387054330653],[70.8735809928505,26.985432327452312],[70.8589690666513,26.98251343358488],[70.82809714316915,26.951564811775576],[70.82569794078313,26.936986405435242],[70.80705048670045,26.919308047573402],[70.80688165902755,26.83744017835107]]],[[[70.90686787440902,27.057440177785942],[70.92124777728563,27.041302705341334],[70.96630706752558,27.04094658960735],[70.99078215516002,27.06360859863209],[70.99183291158641,27.079308056553266],[70.96884427342283,27.103292026802002],[70.94256427637282,27.104226946204246],[70.93357082920393,27.095432316587544],[70.9200296945332,27.093292034659914],[70.90809038972625,27.081564811836323],[70.90686787440902,27.057440177785942]]]]}},{"type":"Feature","properties":{"name":"Jaisalmer District Boundary","stroke":"#FFFFFF","stroke-width":2,"stroke-opacity":0.9,"fill":"none","fill-opacity":0},"bbox":[69.4844368,26.0175869,72.3376751,28.0369769],"geometry":{"type":"Polygon","coordinates":[[[69.4844368,26.8048731],[69.4858385,26.7996282],[69.4859964,26.7987916],[69.4862569,26.7980581],[69.4867482,26.7969609],[69.4936191,26.7814476],[69.499329,26.7685423],[69.5017416,26.7630945],[69.5103004,26.7435391],[69.5203798,26.7394328],[69.5276255,26.7363461],[69.5331255,26.7340174],[69.5430299,26.7297994],[69.552603,26.725732],[69.5599895,26.7225889],[69.566058,26.720003],[69.575166,26.71613],[69.5809517,26.7136705],[69.5863606,26.7113613],[69.5884528,26.7104706],[69.6167442,26.6983998],[69.6404691,26.6882774],[69.6672347,26.6768575],[69.6674026,26.6767859],[69.6903263,26.6670053],[69.6914874,26.6665099],[69.6941773,26.665277],[69.6948566,26.6651301],[69.6967276,26.664385],[69.701577,26.6626109],[69.7072566,26.6605074],[69.719714,26.6546576],[69.7217588,26.6537126],[69.7224965,26.6533717],[69.7254963,26.6518788],[69.7278486,26.650047],[69.7281572,26.6498066],[69.7537938,26.6296589],[69.7677273,26.6183332],[69.7803225,26.6078772],[69.7848468,26.6041113],[69.7891281,26.6005599],[69.7919258,26.5982391],[69.7935135,26.5977776],[69.7952719,26.5972579],[69.8018356,26.5953063],[69.8064509,26.5939314],[69.8114606,26.5924413],[69.823167,26.5889555],[69.8238921,26.5888387],[69.8299691,26.5878603],[69.8402473,26.5861926],[69.8515946,26.5843511],[69.8608236,26.582875],[69.8795401,26.5798182],[69.8812941,26.5795368],[69.8854527,26.5788695],[69.8861612,26.5787327],[69.8977903,26.5794266],[69.9102955,26.5800902],[69.919755,26.5806272],[69.9250192,26.5809233],[69.9251393,26.5809301],[69.9256332,26.5809582],[69.9257297,26.5809637],[69.9300186,26.5812079],[69.9346347,26.5814529],[69.939801,26.5822255],[69.9492168,26.5836337],[69.9569009,26.5847239],[69.9635905,26.5856982],[69.9848035,26.5887849],[69.9947367,26.5902321],[69.9957245,26.5903764],[69.9980905,26.5907221],[69.9996633,26.5909503],[70.0043408,26.5916304],[70.0113711,26.5926399],[70.0119773,26.5927327],[70.014895,26.5932403],[70.0264919,26.5952789],[70.0296597,26.5958345],[70.0401371,26.59768],[70.0515049,26.5996789],[70.0562782,26.6005151],[70.0600962,26.5995146],[70.0710563,26.5967236],[70.0867456,26.5933067],[70.1063449,26.5890618],[70.1125751,26.5878348],[70.1174482,26.5868953],[70.12889,26.579809],[70.1328919,26.5762822],[70.138024,26.5719912],[70.1513854,26.5655047],[70.1548723,26.5638706],[70.1600037,26.5603433],[70.1621362,26.5589411],[70.1685236,26.5546671],[70.1742839,26.5513331],[70.1765039,26.535218],[70.1767436,26.5335143],[70.1783865,26.5221124],[70.1788217,26.515554],[70.1792598,26.5088739],[70.1794692,26.505726],[70.1818653,26.5014576],[70.1824601,26.4975754],[70.1835827,26.4936947],[70.1837705,26.491719],[70.1844167,26.4846547],[70.1845409,26.4802928],[70.1838593,26.4749619],[70.1832705,26.4704002],[70.1831693,26.4696155],[70.1803577,26.4554078],[70.1802862,26.4550516],[70.1801105,26.4534729],[70.1798867,26.4514648],[70.1792897,26.4461003],[70.1785526,26.4394607],[70.1776382,26.4303269],[70.1773559,26.4274802],[70.1769699,26.4240472],[70.1780477,26.4175427],[70.1785283,26.4145396],[70.1794819,26.4087788],[70.180261,26.404266],[70.1811119,26.3993933],[70.1817508,26.395678],[70.1824217,26.3918188],[70.1826564,26.3904311],[70.1845751,26.3788997],[70.1853506,26.374242],[70.1846928,26.3708422],[70.1835935,26.3651714],[70.1825171,26.3596362],[70.181599,26.3550922],[70.1807201,26.3507638],[70.1799806,26.3471252],[70.1790825,26.3426564],[70.177365,26.3372608],[70.1765053,26.3345699],[70.1747313,26.3290819],[70.1739366,26.326542],[70.1693468,26.3125123],[70.1691214,26.3118467],[70.1688122,26.3108826],[70.1682516,26.3091806],[70.1662985,26.3032255],[70.1635563,26.2948616],[70.1660062,26.2858136],[70.1673065,26.2808998],[70.1680815,26.2781539],[70.1699938,26.2709561],[70.1706719,26.2684343],[70.1711031,26.2667635],[70.1712771,26.2661396],[70.1717495,26.2643368],[70.175154,26.2514802],[70.1746178,26.2488416],[70.1730593,26.2411522],[70.1716191,26.2341833],[70.1683015,26.2181333],[70.163931,26.2078822],[70.1557872,26.1892816],[70.1488672,26.1734759],[70.1424691,26.1588695],[70.1417489,26.157791],[70.1408887,26.1562293],[70.144422,26.1517785],[70.1464176,26.1515473],[70.151782,26.152703],[70.1577902,26.1538394],[70.1649821,26.154172],[70.1729875,26.1545472],[70.1763939,26.1541668],[70.179559,26.1535793],[70.1824236,26.1528474],[70.1849288,26.1519133],[70.1871335,26.1511236],[70.1928413,26.1492071],[70.1954269,26.1481766],[70.2002656,26.1460963],[70.2055692,26.1429254],[70.2107906,26.1380638],[70.2155864,26.1328337],[70.2168953,26.1298766],[70.2188836,26.1238871],[70.2195346,26.1217659],[70.2201676,26.1204461],[70.2202213,26.1196466],[70.2214444,26.1195117],[70.2223992,26.1201861],[70.225017,26.1222668],[70.2307892,26.1299922],[70.2351236,26.1348853],[70.237441,26.1390847],[70.2408743,26.1441508],[70.2445435,26.150642],[70.2499938,26.157364],[70.2541137,26.1601952],[70.2618813,26.1616397],[70.2691769,26.1628723],[70.269885,26.1566706],[70.2713227,26.1538201],[70.277728,26.1507458],[70.2854204,26.155361],[70.2902698,26.155438],[70.2934455,26.1503917],[70.299282,26.1444206],[70.3137016,26.1467705],[70.3179073,26.1468475],[70.327217,26.1498515],[70.3320264,26.1498523],[70.3372192,26.1456533],[70.3382277,26.1456533],[70.3482315,26.1400544],[70.3501797,26.1395278],[70.3556728,26.140934],[70.3627539,26.1423017],[70.3695559,26.1487159],[70.3709507,26.152337],[70.3772592,26.1594441],[70.3785252,26.161736],[70.3837107,26.1716614],[70.3908849,26.1758908],[70.3962707,26.1823417],[70.4077668,26.1977605],[70.4121065,26.1952233],[70.4151534,26.1949538],[70.424273,26.1927394],[70.424273,26.1919115],[70.4251742,26.1916227],[70.425539,26.1880799],[70.4257256,26.1869804],[70.4311805,26.184116],[70.4279852,26.1763722],[70.4304743,26.1746005],[70.4362679,26.1776239],[70.4418683,26.1777587],[70.461307,26.1791125],[70.4658912,26.1762368],[70.4763074,26.1763607],[70.4859209,26.1743117],[70.4989671,26.1720008],[70.5117345,26.1760834],[70.5145861,26.1769625],[70.5206609,26.1777587],[70.5238151,26.1783942],[70.536797,26.1859426],[70.54214,26.1888886],[70.5579113,26.1975145],[70.5681037,26.199151],[70.5766654,26.2007105],[70.5889183,26.2017732],[70.6030369,26.2005565],[70.6056332,26.200826],[70.6147098,26.1984194],[70.6256961,26.1961475],[70.6351805,26.1957816],[70.6375408,26.1973797],[70.6506514,26.1965903],[70.6537413,26.1962437],[70.6631826,26.197553],[70.6797054,26.2103728],[70.6837177,26.2116264],[70.6862926,26.2095473],[70.6943548,26.2096114],[70.7057547,26.2071216],[70.7157325,26.2098553],[70.7192516,26.1991318],[70.7196257,26.1950115],[70.7180915,26.1894832],[70.7123422,26.180705],[70.7104969,26.1761604],[70.7088017,26.1695358],[70.7103681,26.16553],[70.7202863,26.1604722],[70.7268905,26.1568248],[70.7417561,26.1415674],[70.7490778,26.1461541],[70.7606113,26.1429068],[70.7750415,26.1424557],[70.7812212,26.1401829],[70.7863711,26.1407993],[70.7958984,26.1385647],[70.809524,26.136542],[70.8310246,26.1342304],[70.8423542,26.1339992],[70.8558511,26.1297418],[70.8633184,26.1304738],[70.8664569,26.1299619],[70.8674383,26.1311095],[70.8728671,26.125908],[70.8784675,26.1199934],[70.8836173,26.114252],[70.9003543,26.1016505],[70.9049033,26.0950217],[70.9185504,26.0782167],[70.9168338,26.075981],[70.9262752,26.0674232],[70.9357595,26.0573227],[70.942111,26.0509612],[70.9422084,26.04463],[70.939579,26.0393555],[70.9386777,26.0361165],[70.9412741,26.0290019],[70.9448576,26.0289441],[70.9478402,26.0269773],[70.9488487,26.0267074],[70.9512145,26.0223302],[70.9529685,26.0193416],[70.9578394,26.0175869],[70.9638469,26.0233792],[70.9649193,26.0267266],[70.967946,26.0333016],[70.9647036,26.039856],[70.9636491,26.0442632],[70.9634828,26.0474719],[70.9617233,26.052542],[70.9522819,26.0628357],[70.944643,26.0746703],[70.9402174,26.0790185],[70.9467029,26.0788334],[70.9508228,26.079797],[70.9568309,26.0852319],[70.958526,26.0881998],[70.9599208,26.0940967],[70.9627533,26.0955227],[70.9739112,26.0991454],[70.9800911,26.1016505],[70.9827518,26.1043096],[70.9871292,26.1053501],[70.989232,26.1066219],[70.9939527,26.1095121],[70.9988519,26.1127764],[71.0033083,26.1145602],[71.0099172,26.1157933],[71.0165262,26.1166603],[71.0242295,26.1135968],[71.0252447,26.1147031],[71.0273623,26.1169879],[71.029787,26.1196466],[71.035881,26.1247521],[71.0433912,26.1318608],[71.0472536,26.1362145],[71.0502336,26.1395582],[71.0449791,26.1442664],[71.0436487,26.1475024],[71.0426402,26.1521829],[71.0409665,26.1585774],[71.0400653,26.1621404],[71.0383057,26.1668396],[71.0390568,26.1727711],[71.0339595,26.1784698],[71.0313427,26.1767862],[71.0296261,26.1788371],[71.0220522,26.1908304],[71.0182214,26.1937022],[71.0148525,26.1955313],[71.0113335,26.1995553],[71.0131144,26.2085077],[71.0127282,26.2132435],[71.0108828,26.2172284],[71.0095095,26.2167086],[71.0097845,26.2206971],[71.0076213,26.2233498],[71.0063552,26.223754],[70.9984588,26.2216366],[70.9934806,26.2191726],[70.9901762,26.2200581],[70.9879875,26.2214441],[70.9863138,26.2186336],[70.9820008,26.2188646],[70.9785032,26.2172861],[70.9740615,26.2205008],[70.9730529,26.2204046],[70.9631395,26.2200581],[70.9516758,26.2222917],[70.9407377,26.2237925],[70.9382486,26.2278733],[70.9474754,26.2367272],[70.9493208,26.2442718],[70.9531962,26.2482067],[70.9566807,26.2497567],[70.9576892,26.2496605],[70.9654569,26.2501224],[70.9791469,26.2535094],[70.9903049,26.2574351],[70.9965276,26.2597828],[70.9985447,26.2598983],[70.9992488,26.2653467],[71.0016131,26.274984],[71.0113334,26.2799095],[71.016513,26.2815913],[71.0264632,26.2829708],[71.0352802,26.2829493],[71.042962,26.2811601],[71.0463523,26.2821797],[71.0532188,26.2832187],[71.0560083,26.283488],[71.0708636,26.2947237],[71.0680128,26.3027253],[71.0641622,26.3064959],[71.0589408,26.3112251],[71.0593343,26.3125933],[71.0680675,26.3166517],[71.0734319,26.3216139],[71.0759854,26.3224602],[71.080849,26.3187232],[71.0910273,26.3132858],[71.1077428,26.3106506],[71.117742,26.3076115],[71.1265291,26.3027537],[71.1284065,26.3034951],[71.1302733,26.3079],[71.1315608,26.3048031],[71.1357222,26.3046504],[71.1375062,26.3054333],[71.1423969,26.3089772],[71.1453581,26.3147091],[71.1481046,26.3175365],[71.1488342,26.3196906],[71.1494136,26.3232679],[71.1544561,26.3274798],[71.1594558,26.3348454],[71.1656356,26.3431336],[71.1718153,26.3546899],[71.1794543,26.370859],[71.1832522,26.376684],[71.1875224,26.3817204],[71.1893171,26.3838288],[71.1904835,26.3864107],[71.1903119,26.3897746],[71.1868787,26.3944838],[71.1830807,26.398078],[71.1813854,26.4048818],[71.1823082,26.4073994],[71.1849689,26.4099747],[71.1864709,26.4138183],[71.1928653,26.417571],[71.1979937,26.4186419],[71.2050318,26.4322657],[71.213529,26.4353016],[71.2134007,26.4371418],[71.2119841,26.4402202],[71.2130122,26.4424337],[71.2154739,26.4422512],[71.2265145,26.4493349],[71.2314532,26.4511316],[71.2383985,26.4557435],[71.2491059,26.4577989],[71.2517258,26.4595441],[71.2526035,26.4592781],[71.2559044,26.4596504],[71.260457,26.4618155],[71.2622025,26.4605231],[71.2687826,26.4629856],[71.2758851,26.463389],[71.2796616,26.4655213],[71.2836956,26.466693],[71.2966664,26.4639348],[71.298716,26.4582984],[71.3033938,26.453976],[71.3068056,26.4524584],[71.3062476,26.4475019],[71.3073634,26.4357243],[71.3169765,26.4323618],[71.3241005,26.4265973],[71.3256883,26.4218702],[71.3270616,26.420794],[71.3289892,26.4222593],[71.3337779,26.4295756],[71.33876,26.4354581],[71.3444638,26.439029],[71.3473177,26.4404316],[71.3526819,26.4460034],[71.3629603,26.4498648],[71.3686035,26.4528427],[71.3775086,26.4591436],[71.3896106,26.4678648],[71.4005542,26.4702657],[71.4056609,26.4745876],[71.4102101,26.4777951],[71.4138363,26.4844791],[71.4191365,26.4906822],[71.4234279,26.4937359],[71.4305091,26.4970004],[71.4330202,26.4970941],[71.4359246,26.4966069],[71.4410877,26.5014555],[71.4457011,26.5079268],[71.4455509,26.5099814],[71.4481902,26.5134184],[71.4516234,26.51194],[71.4577603,26.5058721],[71.4608502,26.5043168],[71.4610004,26.501878],[71.4607909,26.4993495],[71.4655852,26.4871651],[71.4658542,26.482494],[71.4673519,26.4756247],[71.4683819,26.4732621],[71.4708066,26.4718408],[71.4760718,26.46689],[71.4817071,26.4619099],[71.4880115,26.4577044],[71.4979291,26.462294],[71.5019242,26.4648052],[71.5098291,26.4692358],[71.5120482,26.4713798],[71.5157977,26.4776626],[71.5174742,26.4812646],[71.5178847,26.4836722],[71.519494,26.486169],[71.5212965,26.4870524],[71.5259957,26.4873982],[71.5332055,26.4879743],[71.5368962,26.4887617],[71.541591,26.4892351],[71.5473676,26.4920265],[71.5537388,26.4961801],[71.5579165,26.4988817],[71.5655153,26.5011656],[71.5699884,26.5043415],[71.5793825,26.50652],[71.5848112,26.5027037],[71.5923214,26.5004378],[71.594274,26.4978646],[71.5978314,26.4944958],[71.6003895,26.4905286],[71.6042304,26.4855161],[71.6090584,26.4875517],[71.6132211,26.4811946],[71.6142817,26.4753896],[71.6209673,26.4622556],[71.6227402,26.4499706],[71.6224348,26.4375446],[71.6240928,26.4333958],[71.6284483,26.4310708],[71.6317297,26.430019],[71.6289496,26.4247718],[71.6231345,26.417066],[71.6285541,26.4119134],[71.6310524,26.4090138],[71.6344748,26.4047075],[71.6395497,26.4043052],[71.64397,26.4041514],[71.6507044,26.3995509],[71.6586853,26.3927462],[71.6593766,26.3911008],[71.6603422,26.3904665],[71.6626811,26.3906588],[71.6695905,26.386603],[71.6708779,26.3852958],[71.6751265,26.383412],[71.6772079,26.38445],[71.6835165,26.3817012],[71.684215,26.3832249],[71.6844821,26.3856034],[71.6862631,26.3872949],[71.6893474,26.3879148],[71.6991162,26.3901974],[71.7027211,26.3922349],[71.7044377,26.3916583],[71.7086967,26.3885694],[71.7159805,26.3854451],[71.7168188,26.3865261],[71.7184281,26.3850844],[71.7184126,26.3844019],[71.7311954,26.3776259],[71.7359474,26.3766797],[71.7388129,26.3748961],[71.7419028,26.3721085],[71.7519721,26.3624316],[71.7554758,26.3545036],[71.757524,26.3504213],[71.7556536,26.3484646],[71.7685962,26.347537],[71.7873716,26.3465179],[71.8025636,26.33323],[71.8133354,26.3336531],[71.8178844,26.3531516],[71.8174552,26.3581507],[71.8235063,26.365995],[71.8307161,26.3709936],[71.8353509,26.374031],[71.83784,26.374031],[71.854856,26.3643993],[71.8588257,26.3619383],[71.8618083,26.3579584],[71.8661856,26.3544399],[71.8766355,26.3450373],[71.8830728,26.3394992],[71.8834591,26.3364608],[71.8850684,26.3295184],[71.8863773,26.3232679],[71.8871498,26.3202099],[71.8897676,26.3134781],[71.8916988,26.3100928],[71.89363,26.3078231],[71.8930936,26.3070537],[71.8939304,26.3062266],[71.8916988,26.3043222],[71.8927932,26.3010906],[71.8933725,26.2979165],[71.8973207,26.2977434],[71.9047451,26.2998017],[71.9077277,26.3002249],[71.9165897,26.2967431],[71.921246,26.3005712],[71.9234991,26.2999172],[71.9254946,26.3004173],[71.9309234,26.3064382],[71.9366526,26.3118817],[71.9403219,26.315113],[71.9453001,26.3160362],[71.9493341,26.3134204],[71.9548487,26.3151515],[71.9584965,26.3158247],[71.962552,26.3201522],[71.9646978,26.3195944],[71.9671011,26.3185943],[71.9686889,26.3179981],[71.9703412,26.3175942],[71.9743538,26.318325],[71.981821,26.3184212],[71.99476,26.3275567],[71.9955539,26.328326],[71.9980001,26.33198],[71.9999528,26.3336916],[72.0049095,26.3381531],[72.00845,26.3413837],[72.0093941,26.342249],[72.0106602,26.3422682],[72.012012,26.3420375],[72.0151019,26.3420183],[72.0174622,26.3439797],[72.0231485,26.3475755],[72.0285558,26.3504982],[72.0294142,26.3501328],[72.0308518,26.3495368],[72.032268,26.3495175],[72.0339846,26.3496714],[72.0361733,26.3499982],[72.0379543,26.3508827],[72.0460224,26.3522095],[72.0465803,26.350229],[72.0582318,26.355632],[72.0590043,26.354113],[72.059884,26.354113],[72.0613217,26.3543437],[72.0621586,26.3539976],[72.0620942,26.3523825],[72.0640683,26.3520364],[72.0654201,26.3513634],[72.066257,26.3504597],[72.06851,26.3500944],[72.0710618,26.351059],[72.0716858,26.3503828],[72.0743143,26.3538823],[72.0744538,26.3551993],[72.0746899,26.3562568],[72.0746899,26.3570932],[72.0747006,26.3578527],[72.0746255,26.3581892],[72.074368,26.3587467],[72.0743036,26.359112],[72.0751727,26.3628612],[72.0759988,26.3643224],[72.0762348,26.3649184],[72.0761061,26.3673215],[72.0761919,26.3696766],[72.0765352,26.3744251],[72.0761812,26.3768761],[72.0752692,26.3836235],[72.0745397,26.3879004],[72.0734024,26.3946087],[72.0726728,26.3983663],[72.0723724,26.3997694],[72.074883,26.407188],[72.0769858,26.4150097],[72.0782304,26.4216011],[72.0793462,26.4297485],[72.078681,26.4334762],[72.0797753,26.4407774],[72.0797324,26.4414114],[72.0789814,26.4439091],[72.0771146,26.4527849],[72.0735097,26.4564734],[72.0696902,26.4597199],[72.0640898,26.4647913],[72.0614505,26.4670771],[72.0585751,26.4707267],[72.0506358,26.4812523],[72.0456147,26.4832113],[72.0396495,26.4900868],[72.0352077,26.4939085],[72.0309806,26.4981334],[72.0280409,26.5000921],[72.0350361,26.508138],[72.0394349,26.5147432],[72.0414305,26.5175081],[72.0396924,26.5201385],[72.04113,26.5205033],[72.0418167,26.5223465],[72.0433616,26.5235752],[72.0462584,26.5277222],[72.0474171,26.5292965],[72.0486831,26.5305444],[72.0521807,26.5338656],[72.0541334,26.5376858],[72.0585966,26.5432912],[72.0604849,26.5472071],[72.0614719,26.5492994],[72.0614719,26.5501823],[72.0653772,26.5530423],[72.0663214,26.5523513],[72.0703339,26.5562669],[72.073853,26.5578984],[72.0737672,26.5611229],[72.0731878,26.5616219],[72.0752477,26.565825],[72.0772648,26.5676867],[72.0784879,26.5696058],[72.0766639,26.5708725],[72.080698,26.5753632],[72.0803761,26.5760157],[72.0826077,26.5783377],[72.0817494,26.5793931],[72.0866632,26.5847854],[72.0873499,26.5866659],[72.0897531,26.5893715],[72.0889807,26.5902157],[72.0934438,26.5952813],[72.0942468,26.5966327],[72.0967269,26.6008071],[72.0980572,26.6029176],[72.0951605,26.6049321],[72.0961475,26.6067739],[72.095139,26.6074454],[72.0962977,26.6085965],[72.0935511,26.6142175],[72.0915127,26.61604],[72.0916199,26.6165388],[72.0907402,26.6170567],[72.0909977,26.6177282],[72.08853,26.6202987],[72.0838308,26.6249601],[72.0820498,26.6257658],[72.0822859,26.6264755],[72.0802903,26.6275497],[72.0741749,26.6283362],[72.0719003,26.6304653],[72.0680809,26.6320765],[72.0655918,26.6344358],[72.0593047,26.6417242],[72.0660424,26.646308],[72.0647335,26.6488012],[72.0628023,26.6511218],[72.0579314,26.6568558],[72.0533824,26.6640277],[72.049756,26.6672684],[72.0453572,26.670509],[72.0385122,26.6749382],[72.0393705,26.676242],[72.0397568,26.6799425],[72.0385337,26.6818023],[72.0394778,26.6837579],[72.038877,26.6842372],[72.0404219,26.6869213],[72.0397568,26.6876881],[72.0408726,26.6887809],[72.0443487,26.6866145],[72.0471382,26.6898353],[72.0483184,26.6935929],[72.0495844,26.6934012],[72.0527816,26.6991906],[72.0554209,26.7025069],[72.0563864,26.7037529],[72.054863,26.7050947],[72.0567512,26.7078934],[72.059884,26.7114394],[72.0649266,26.7158479],[72.0696687,26.7202371],[72.0753765,26.7152921],[72.0779943,26.7194896],[72.0827794,26.7185696],[72.0848822,26.7190488],[72.0863414,26.7190296],[72.0870924,26.7224604],[72.0841956,26.7238211],[72.0821786,26.7256035],[72.0868349,26.7310655],[72.0831013,26.7378495],[72.0802903,26.7398042],[72.0786595,26.7419312],[72.0720291,26.7501325],[72.0699692,26.7521445],[72.0672011,26.7542138],[72.0640039,26.7570879],[72.063751,26.7588003],[72.0581087,26.7627202],[72.0595193,26.7673572],[72.0599055,26.7733153],[72.0607209,26.7749053],[72.0599699,26.7830276],[72.0545196,26.7863798],[72.0512581,26.7876632],[72.0476103,26.7888125],[72.0449066,26.7908812],[72.0450997,26.7919346],[72.0467305,26.7948844],[72.0490479,26.7993854],[72.0553136,26.8040394],[72.0600986,26.8032734],[72.0635104,26.8035606],[72.0662784,26.8046332],[72.0694113,26.8058972],[72.0709777,26.8059546],[72.0714283,26.8059546],[72.0725441,26.8062994],[72.0742178,26.8060695],[72.0756769,26.8065292],[72.0769214,26.8068548],[72.0777368,26.8068356],[72.0803332,26.8069697],[72.084732,26.8083103],[72.0851826,26.8100147],[72.0861482,26.8126384],[72.0881009,26.8155876],[72.0896673,26.8179622],[72.0903539,26.8195516],[72.0911479,26.8213516],[72.0914268,26.8216963],[72.0940876,26.8245304],[72.0988512,26.8305429],[72.0948815,26.8345638],[72.0914697,26.8387952],[72.0898175,26.8417054],[72.0883155,26.8466449],[72.0881653,26.8475447],[72.0885086,26.8504738],[72.0902252,26.8518522],[72.0920706,26.8524457],[72.0934653,26.8537283],[72.0937872,26.8545706],[72.0943236,26.8576336],[72.0983577,26.8579207],[72.1003318,26.8579782],[72.1016621,26.8593373],[72.1021127,26.861041],[72.1023702,26.8636826],[72.1025419,26.8646206],[72.1011257,26.8680469],[72.100203,26.8722388],[72.0992803,26.87377],[72.0983147,26.8755692],[72.0966196,26.8810814],[72.0994305,26.8840479],[72.1029496,26.8875311],[72.0954609,26.8946694],[72.0891738,26.9014819],[72.0852685,26.9063039],[72.0800543,26.9138045],[72.0790672,26.9152587],[72.0741749,26.9174399],[72.0702266,26.9186452],[72.0642829,26.9201184],[72.0619654,26.92295],[72.058661,26.9263555],[72.0557427,26.929053],[72.0475888,26.93242],[72.0402717,26.9349834],[72.0380401,26.9358634],[72.0408296,26.9428455],[72.043705,26.9495212],[72.0464086,26.9572867],[72.0491767,26.9653003],[72.0500135,26.9680734],[72.0470738,26.974193],[72.0452928,26.9784001],[72.0449281,26.9801785],[72.0443058,26.9848442],[72.0440483,26.98907],[72.0418381,26.9941177],[72.0433187,26.997674],[72.0421815,27.0006183],[72.0409584,27.0080935],[72.0386624,27.0142683],[72.042439,27.0182445],[72.0367527,27.0240938],[72.0328045,27.0235777],[72.0361089,27.0287386],[72.0372891,27.0302104],[72.0394993,27.0313572],[72.0448422,27.0296752],[72.0489621,27.0311661],[72.0511293,27.0356959],[72.0495844,27.0369956],[72.0513654,27.0392508],[72.0427608,27.0439906],[72.0391345,27.0431688],[72.0294571,27.0464559],[72.0298648,27.049227],[72.0303154,27.0520553],[72.0301866,27.0548836],[72.0260024,27.0556097],[72.028749,27.0587436],[72.0322037,27.0626227],[72.0318818,27.0679346],[72.0322466,27.0695779],[72.0336628,27.072826],[72.035315,27.0761696],[72.0362377,27.0774688],[72.0359158,27.0819013],[72.0360231,27.0849962],[72.0370745,27.0859896],[72.0369887,27.0907083],[72.0390916,27.0927524],[72.0409155,27.0985787],[72.0428681,27.1035642],[72.0424175,27.1051305],[72.0406794,27.1070979],[72.0372247,27.1110517],[72.0328474,27.1161512],[72.0310128,27.1171348],[72.0275798,27.1178395],[72.023685,27.118615],[72.021153,27.1197036],[72.018063,27.1213652],[72.0156812,27.1227212],[72.0131707,27.1237143],[72.0091581,27.1249938],[72.0070982,27.1255858],[72.0034718,27.1273428],[72.0007682,27.129749],[71.9979358,27.1312386],[71.9920993,27.1351724],[71.9849324,27.1373111],[71.9803834,27.1385714],[71.9750404,27.1401563],[71.9713282,27.1407673],[71.9637322,27.141111],[71.9623589,27.1415502],[71.9612646,27.1429632],[71.959269,27.1472976],[71.9572305,27.15146],[71.9543338,27.157436],[71.9542694,27.158906],[71.9554066,27.1624571],[71.9570803,27.1673061],[71.957252,27.1701124],[71.9571018,27.1723459],[71.9567156,27.1771945],[71.9560718,27.1796951],[71.9543552,27.183131],[71.953218,27.1845243],[71.9510507,27.1857841],[71.9498276,27.1859559],[71.9486904,27.1858223],[71.9479608,27.1854405],[71.9474244,27.1848107],[71.9470382,27.1843907],[71.9450855,27.1856123],[71.9424891,27.1835318],[71.9401717,27.1823484],[71.9372535,27.1816612],[71.9350862,27.1806495],[71.934936,27.1786071],[71.932919,27.1778435],[71.9312238,27.1782444],[71.9287777,27.1769655],[71.9266319,27.1759538],[71.9245076,27.1756483],[71.9216108,27.1761446],[71.9200015,27.17687],[71.9170403,27.1783017],[71.9132638,27.1795806],[71.9126415,27.1797906],[71.911869,27.1923308],[71.9122338,27.2019498],[71.9122982,27.2049461],[71.9129419,27.2105757],[71.9127273,27.2120641],[71.9105387,27.2154417],[71.9076633,27.2205556],[71.9098949,27.2203076],[71.9126415,27.2230553],[71.9100666,27.2245626],[71.913886,27.2305156],[71.9117617,27.2377656],[71.9094229,27.2413714],[71.9061184,27.245969],[71.9015479,27.2518827],[71.9045734,27.2545724],[71.8999815,27.2590741],[71.896913,27.2621641],[71.8968701,27.2631178],[71.8971491,27.2646819],[71.8957329,27.2663604],[71.8929863,27.2737415],[71.8933725,27.275458],[71.8913126,27.2774033],[71.8853903,27.2825335],[71.8861627,27.2898945],[71.8853903,27.2915535],[71.8836307,27.2894559],[71.8830728,27.288922],[71.8782234,27.2897801],[71.8734598,27.2905238],[71.867516,27.2926023],[71.8647909,27.293346],[71.861701,27.2933841],[71.8593836,27.2951194],[71.8540191,27.2994097],[71.8460369,27.3070175],[71.8457579,27.3089813],[71.8419599,27.3042719],[71.8410802,27.3046532],[71.8417883,27.3055684],[71.8353081,27.3091338],[71.8397069,27.3130805],[71.8402648,27.3132711],[71.8415737,27.3157687],[71.8336344,27.3211639],[71.8247938,27.3226128],[71.8247509,27.3233753],[71.8226695,27.3268448],[71.8230128,27.3277408],[71.8234205,27.3293802],[71.8214249,27.3329258],[71.817069,27.3405884],[71.8159747,27.3430663],[71.8147087,27.3494132],[71.8140435,27.3521958],[71.8140435,27.3549021],[71.815288,27.3624489],[71.8167794,27.3697474],[71.8178415,27.3729487],[71.8197727,27.3773504],[71.8211889,27.381447],[71.8206739,27.384286],[71.8195367,27.3849909],[71.8205452,27.390821],[71.81988,27.3915259],[71.820116,27.3966698],[71.8203521,27.401242],[71.8196654,27.4067473],[71.8190217,27.4142716],[71.8186354,27.4171097],[71.8129277,27.4271853],[71.8096018,27.4332227],[71.8070054,27.4380409],[71.8070483,27.4405356],[71.807177,27.4479052],[71.8144512,27.4545126],[71.8177771,27.4648705],[71.8235278,27.4728476],[71.8270898,27.4762363],[71.8332052,27.4821948],[71.8439126,27.480196],[71.8609285,27.4839652],[71.876421,27.4874678],[71.8922782,27.4767694],[71.8933725,27.4793965],[71.8941235,27.4814524],[71.8913126,27.4923597],[71.8897891,27.4974799],[71.8929004,27.5002588],[71.8964624,27.5059876],[71.8958616,27.5073198],[71.8971705,27.5103459],[71.896398,27.511659],[71.8971276,27.5172541],[71.8980503,27.5194235],[71.8960762,27.5227156],[71.8966341,27.5274728],[71.8998742,27.5362065],[71.904552,27.5392127],[71.9103241,27.5433604],[71.9154095,27.5505138],[71.9192719,27.5560878],[71.924293,27.5629551],[71.9329834,27.5615665],[71.946609,27.559493],[71.9485616,27.5579141],[71.9535613,27.5551747],[71.9567156,27.5532914],[71.9586038,27.5516363],[71.9677877,27.5534245],[71.9708991,27.5558786],[71.9752121,27.5592647],[71.9829154,27.5621752],[71.986928,27.5638682],[71.9966054,27.5690991],[71.9997382,27.5719903],[72.0075488,27.5806254],[72.015295,27.5876433],[72.0242858,27.596144],[72.0340276,27.6049293],[72.0377612,27.608485],[72.0435977,27.6147786],[72.0466018,27.6182199],[72.0525026,27.6137709],[72.0656991,27.6057659],[72.0791745,27.5975892],[72.0945382,27.5917321],[72.0961475,27.5920363],[72.1020698,27.5936338],[72.1064043,27.5936528],[72.1077561,27.5931964],[72.1092796,27.5931774],[72.1096444,27.5937098],[72.1160388,27.5888224],[72.1155238,27.5870157],[72.1165108,27.5858175],[72.1156311,27.585323],[72.1148586,27.5845623],[72.1149874,27.5838586],[72.1153521,27.5835163],[72.1161461,27.5835543],[72.1194076,27.5846003],[72.1221757,27.585285],[72.1253085,27.5823942],[72.1280551,27.5814052],[72.1281409,27.5807966],[72.1276259,27.5801499],[72.1276259,27.5797505],[72.1279907,27.579237],[72.1280765,27.5788756],[72.1276688,27.5784952],[72.1270895,27.578267],[72.1264672,27.5778105],[72.1257376,27.5767834],[72.1250081,27.575414],[72.1242356,27.5744249],[72.1225405,27.5728272],[72.1212101,27.5716289],[72.1172404,27.5723898],[72.1045804,27.561186],[72.1052241,27.5597022],[72.108078,27.5549084],[72.1093225,27.5536718],[72.1130991,27.5508182],[72.1143865,27.5477743],[72.11694,27.5485543],[72.1238065,27.5469942],[72.1267032,27.5463093],[72.1348357,27.5419335],[72.1440196,27.5360353],[72.1445989,27.5339803],[72.1414661,27.5274347],[72.1398139,27.5245424],[72.1376681,27.5225824],[72.1403718,27.5198612],[72.1462083,27.5163216],[72.1490192,27.5078718],[72.1501994,27.5054166],[72.1514654,27.5028853],[72.1520662,27.5007536],[72.1528172,27.4992119],[72.1538472,27.4991929],[72.1548342,27.4994213],[72.1554565,27.4997639],[72.1544051,27.5002588],[72.1556926,27.5010391],[72.156229,27.5003349],[72.1570658,27.4990406],[72.1585035,27.4974609],[72.1602201,27.4959572],[72.1547913,27.4893522],[72.1550274,27.4889525],[72.1573448,27.4857165],[72.1586323,27.4789206],[72.157259,27.477093],[72.158997,27.4747514],[72.1597481,27.4739709],[72.1684384,27.468069],[72.175219,27.4621859],[72.1800041,27.4640327],[72.1851325,27.465594],[72.1908188,27.4697635],[72.19805,27.4728476],[72.2029853,27.4757604],[72.202363,27.4799485],[72.2097659,27.4804435],[72.2101521,27.4916745],[72.2102809,27.4927024],[72.2166538,27.4943012],[72.2234237,27.4937492],[72.2250867,27.4935874],[72.229743,27.4908274],[72.2346353,27.4876391],[72.2356224,27.486259],[72.2389054,27.4810622],[72.2415769,27.4826041],[72.2435939,27.4837653],[72.2457933,27.4890762],[72.2465444,27.4902469],[72.2465014,27.4913033],[72.2454071,27.493083],[72.244302,27.4949484],[72.2446883,27.4959477],[72.2440874,27.4972705],[72.2439051,27.4982983],[72.2440982,27.4993261],[72.2440231,27.5004776],[72.2430467,27.5026664],[72.242918,27.50535],[72.2434759,27.5083095],[72.2435081,27.5147135],[72.2437334,27.5252845],[72.2485828,27.5367393],[72.2630453,27.5479645],[72.2800397,27.5533295],[72.2757697,27.5549465],[72.2639036,27.558656],[72.2564792,27.5609387],[72.2645044,27.5639062],[72.276349,27.5683954],[72.2864341,27.582242],[72.2943735,27.5949079],[72.2996521,27.6028947],[72.3050594,27.6173454],[72.3144579,27.6305395],[72.3174619,27.6346457],[72.3223114,27.6516012],[72.326045,27.6615984],[72.3317098,27.674103],[72.3359584,27.6839081],[72.3373317,27.6908244],[72.3376751,27.6932944],[72.3339414,27.6953843],[72.3289632,27.6957643],[72.3240709,27.6974362],[72.2939872,27.7098228],[72.2821855,27.7052635],[72.273302,27.7038577],[72.2686672,27.700058],[72.2561788,27.6868723],[72.2467804,27.6769155],[72.2455787,27.6755853],[72.238326,27.6704544],[72.2321033,27.6668437],[72.2206449,27.6605341],[72.2183275,27.668592],[72.2158384,27.6758133],[72.2143364,27.6791197],[72.2101306,27.682046],[72.1949386,27.6912044],[72.1855831,27.6974362],[72.1637821,27.7056815],[72.1472168,27.7115325],[72.1409082,27.7137741],[72.1140432,27.7137361],[72.1112966,27.7124823],[72.1093225,27.7112666],[72.1073913,27.7098228],[72.1051168,27.7079991],[72.1001386,27.7117605],[72.0989799,27.7133942],[72.0979499,27.7139261],[72.0972204,27.7146479],[72.0950317,27.7149138],[72.0937442,27.7169274],[72.0934009,27.7190929],[72.092843,27.7204605],[72.0916843,27.7211823],[72.0905256,27.7216762],[72.0969629,27.7348957],[72.0955896,27.7355414],[72.0946884,27.7363771],[72.0941305,27.7373647],[72.0934438,27.7384282],[72.092843,27.738884],[72.0921993,27.7400995],[72.0923709,27.7409731],[72.0937013,27.7423405],[72.095375,27.7445814],[72.0982074,27.749215],[72.0998382,27.7485694],[72.1013832,27.7522913],[72.1156311,27.7513419],[72.1225404,27.7562031],[72.1342563,27.7644439],[72.1436119,27.7749623],[72.1488905,27.7795946],[72.1502637,27.7809236],[72.1509075,27.792921],[72.1490621,27.8158492],[72.1442985,27.827691],[72.1403932,27.8379756],[72.1380114,27.8471588],[72.1474742,27.8573278],[72.1491909,27.8600216],[72.1452856,27.8701515],[72.1424102,27.8753867],[72.1329689,27.8799768],[72.1172618,27.887753],[72.1003532,27.8971217],[72.0885086,27.9037589],[72.0819854,27.9103199],[72.0787239,27.9200279],[72.0747757,27.9231373],[72.0673513,27.9299245],[72.0506143,27.9384554],[72.0422029,27.9424363],[72.0354223,27.945128],[72.0289421,27.9504734],[72.0215606,27.9474027],[72.0173978,27.9456209],[72.0096731,27.9407302],[72.0027637,27.9365597],[72.0007896,27.9362943],[71.9926356,27.9329958],[71.9867133,27.9311758],[71.9795894,27.9317066],[71.9692039,27.9336783],[71.964569,27.9333749],[71.9621657,27.9294317],[71.9594192,27.9250332],[71.9541835,27.9189661],[71.9453429,27.9060724],[71.9349574,27.8914324],[71.9383906,27.8893841],[71.9401073,27.8874117],[71.9407081,27.8838461],[71.9401073,27.8801286],[71.9380473,27.8766386],[71.9329833,27.8737555],[71.9274901,27.8717069],[71.9220828,27.8711758],[71.9193362,27.8745901],[71.9162463,27.8822529],[71.9021701,27.8825564],[71.8994235,27.8795217],[71.8981361,27.8743625],[71.8934154,27.8704929],[71.8851756,27.8784595],[71.8853473,27.8951495],[71.8832873,27.8979562],[71.8776225,27.8995491],[71.8729877,27.9034176],[71.8754768,27.914188],[71.8818282,27.9157049],[71.8821287,27.9369768],[71.8801887,27.9449911],[71.8947845,27.9565856],[71.8987123,27.9597403],[71.8920642,27.9597406],[71.8890884,27.959039],[71.8829462,27.9575928],[71.8793592,27.9563322],[71.8766969,27.9553661],[71.8730595,27.954029],[71.8706205,27.9531427],[71.8696882,27.9527929],[71.8658271,27.9514038],[71.862513,27.9501864],[71.8571695,27.9482307],[71.8529907,27.9466772],[71.8488355,27.945131],[71.8454604,27.9438567],[71.8412365,27.9422838],[71.8385005,27.941264],[71.8341694,27.9396383],[71.8293597,27.9378508],[71.8272795,27.9370691],[71.8247432,27.9361027],[71.8234633,27.9356582],[71.818818,27.9339688],[71.8146653,27.9324778],[71.8119395,27.9314781],[71.8094239,27.9305632],[71.805123,27.9290187],[71.8025333,27.9280737],[71.7956133,27.9255656],[71.7913995,27.9240348],[71.7799912,27.9199023],[71.7762786,27.9185558],[71.7732111,27.9174753],[71.7668601,27.9151791],[71.762671,27.9136503],[71.7587907,27.9122608],[71.7535451,27.9103219],[71.7466973,27.9078027],[71.7396456,27.9051897],[71.7341031,27.9031349],[71.7290283,27.9012754],[71.7242084,27.8994905],[71.7186202,27.8974316],[71.7145172,27.8959086],[71.7126284,27.8951997],[71.7066954,27.892985],[71.7015423,27.89106],[71.6946093,27.8884729],[71.6846224,27.88468],[71.6798032,27.8828659],[71.6742089,27.8807275],[71.6664858,27.8778073],[71.6613508,27.8777533],[71.6515368,27.8776535],[71.6510052,27.8776616],[71.644936,27.8775578],[71.6390924,27.8774932],[71.634885,27.8774501],[71.624476,27.8773435],[71.6156309,27.8772511],[71.6072808,27.8771639],[71.5999683,27.8770906],[71.5981654,27.8770587],[71.5859517,27.8768697],[71.581982,27.8768019],[71.5711707,27.876625],[71.5664684,27.8765481],[71.559457,27.8764309],[71.5487487,27.8762571],[71.5460566,27.8762125],[71.5388515,27.8760867],[71.5317302,27.8759787],[71.5296954,27.8758746],[71.5167897,27.8752082],[71.5134672,27.8750358],[71.5061417,27.8746541],[71.4979024,27.8742301],[71.495905,27.8741189],[71.4875448,27.8737454],[71.4813482,27.8734363],[71.4740725,27.8734157],[71.4676625,27.8734092],[71.4640522,27.8734063],[71.4601462,27.8735854],[71.4472817,27.8741955],[71.4433658,27.8739852],[71.4290983,27.8734463],[71.4191687,27.8732436],[71.4161298,27.8731991],[71.4111443,27.8731372],[71.405618,27.8730594],[71.400724,27.8729797],[71.3916548,27.8727496],[71.3830714,27.8725267],[71.3810909,27.8722848],[71.3761351,27.8713465],[71.3442249,27.8640244],[71.333018,27.8615934],[71.3266484,27.8602062],[71.3191201,27.858582],[71.2926952,27.8529214],[71.2760873,27.8494426],[71.2669209,27.8475146],[71.2473461,27.8434123],[71.233141,27.8404392],[71.220405,27.8377589],[71.2158255,27.8369871],[71.2123201,27.8364474],[71.2055689,27.8353371],[71.203674,27.8345791],[71.1730111,27.8221344],[71.1585713,27.8166079],[71.1549631,27.8153116],[71.150464,27.8137298],[71.1453214,27.8112532],[71.1422699,27.8097566],[71.1361,27.8067402],[71.1298304,27.8041148],[71.1228801,27.8012148],[71.1207973,27.8003252],[71.1189229,27.7995196],[71.1139278,27.7973591],[71.1086179,27.7950506],[71.1060159,27.7939194],[71.1044679,27.7932797],[71.098735,27.7909628],[71.0909876,27.7878194],[71.0899837,27.7874002],[71.0794489,27.7823501],[71.0739465,27.7797261],[71.0728814,27.779203],[71.0646059,27.7752274],[71.0619681,27.7740845],[71.0583152,27.7727222],[71.0497236,27.7694904],[71.0489238,27.7691846],[71.043548,27.7671067],[71.0402908,27.7658263],[71.031718,27.7624892],[71.0257327,27.7601573],[71.0224199,27.7588693],[71.0194273,27.7576789],[71.0139223,27.7553527],[71.0047638,27.7514906],[71.0018742,27.7502743],[70.9961748,27.7478614],[70.9846796,27.743004],[70.9828285,27.7422214],[70.9803539,27.7405973],[70.9757049,27.7375409],[70.9731072,27.7358344],[70.9701735,27.7339128],[70.9661637,27.7312739],[70.9631668,27.7292998],[70.959533,27.7291669],[70.9572412,27.7290747],[70.953842,27.7289373],[70.9513936,27.7288399],[70.9506394,27.728513],[70.9436614,27.7255401],[70.9393588,27.7237045],[70.9362904,27.7223906],[70.9332338,27.7210794],[70.9262427,27.7180885],[70.9133896,27.7125691],[70.9062447,27.7094993],[70.9057649,27.7094426],[70.8950745,27.7082243],[70.8900671,27.7076416],[70.8833136,27.706864],[70.8720032,27.7055479],[70.8715646,27.7056283],[70.8644681,27.706588],[70.8572291,27.7075716],[70.8501098,27.708513],[70.8455524,27.7091153],[70.8431967,27.7094272],[70.8400215,27.7098615],[70.8361517,27.7103835],[70.8319107,27.7109609],[70.82629,27.7117294],[70.8199269,27.7125842],[70.8112447,27.7137508],[70.809711,27.7139618],[70.8080046,27.71421],[70.8029121,27.714973],[70.7985238,27.7156222],[70.7965962,27.715904],[70.7950513,27.7161086],[70.7916398,27.7165687],[70.7886291,27.716977],[70.7824676,27.7178101],[70.7778073,27.7184383],[70.7761215,27.7186656],[70.7729728,27.7191002],[70.7688494,27.7197434],[70.7649789,27.720348],[70.7594445,27.7212193],[70.7573505,27.7241588],[70.7514577,27.7324879],[70.7506912,27.733615],[70.7490445,27.7348716],[70.7473159,27.7361798],[70.7426936,27.7397072],[70.7407704,27.7411814],[70.7398454,27.741907],[70.7394466,27.7428739],[70.7389264,27.7441609],[70.7351397,27.7539285],[70.7340629,27.7564154],[70.7327752,27.7596568],[70.732504,27.7603481],[70.731424,27.7619503],[70.7256732,27.7704923],[70.7248238,27.7717442],[70.7224945,27.7751801],[70.7162806,27.7843231],[70.7080926,27.7965808],[70.704153,27.8023896],[70.6981828,27.8111499],[70.6967501,27.8129203],[70.6843463,27.8282],[70.6799902,27.8611569],[70.6794194,27.8654404],[70.6789793,27.8687203],[70.6785069,27.8723397],[70.6785222,27.8728984],[70.6786077,27.8748875],[70.6786614,27.8760193],[70.6787504,27.8779539],[70.679043,27.8843722],[70.678411,27.8987657],[70.6774143,27.9218286],[70.6566526,27.9406132],[70.6351284,27.9600879],[70.6317216,27.9631705],[70.617991,27.9755934],[70.5986169,27.9931227],[70.5971295,27.9959543],[70.5932421,28.0033448],[70.5920973,28.0055228],[70.5894978,28.0104637],[70.5703127,28.0191059],[70.5625632,28.0226049],[70.554297,28.0263234],[70.5500134,28.0272682],[70.5379271,28.0298647],[70.5314024,28.0309545],[70.5239942,28.0321546],[70.5217402,28.032499],[70.5210654,28.0327115],[70.5057143,28.0369769],[70.5049479,28.0368634],[70.5006296,28.0362305],[70.488985,28.0345371],[70.4765975,28.0309755],[70.4640243,28.0273376],[70.4558346,28.0249596],[70.4463164,28.0222199],[70.4419976,28.0209618],[70.4394586,28.0202222],[70.428703,28.0187729],[70.4259144,28.018407],[70.4216846,28.0178715],[70.4057173,28.0158561],[70.4041487,28.0156708],[70.4008275,28.0152726],[70.3895675,28.0139093],[70.3788384,28.0126243],[70.3722329,28.0118243],[70.3667237,28.006198],[70.3579967,27.9972814],[70.3558968,27.9951253],[70.3487711,27.9878427],[70.3455343,27.9845282],[70.3402781,27.9792167],[70.3334914,27.97233],[70.3281317,27.9669156],[70.3251017,27.9638495],[70.3125847,27.9510849],[70.3111144,27.9495731],[70.3095488,27.9481653],[70.3044935,27.9435502],[70.3021895,27.9413659],[70.2992181,27.9387277],[70.296236,27.9360154],[70.2931743,27.9344716],[70.2852166,27.9304705],[70.2744672,27.9250869],[70.2674884,27.9215964],[70.2646394,27.9201151],[70.2630032,27.9193484],[70.2601724,27.9179299],[70.2580588,27.9168714],[70.2559637,27.9157967],[70.2543853,27.9150239],[70.2421106,27.9089226],[70.2365788,27.9061558],[70.2355909,27.9056629],[70.2270004,27.9013766],[70.225478,27.8996241],[70.2193778,27.8926283],[70.2174909,27.8904562],[70.2124523,27.8852595],[70.2103496,27.883095],[70.2065652,27.8791648],[70.1977572,27.8671912],[70.1949582,27.8646221],[70.1839696,27.8546574],[70.1796693,27.8507212],[70.1742386,27.8457805],[70.1555011,27.8287367],[70.1455029,27.8205815],[70.1413343,27.8158305],[70.1385576,27.8128053],[70.1377524,27.8118934],[70.1325506,27.8059806],[70.130955,27.8029102],[70.1304121,27.8018555],[70.1233323,27.7878705],[70.1226883,27.7862528],[70.1214873,27.7832886],[70.1179653,27.7744463],[70.1134714,27.7618456],[70.107263,27.747802],[70.1058423,27.7444578],[70.1036166,27.7391827],[70.1001478,27.7311096],[70.0996356,27.7299027],[70.0954971,27.7202541],[70.0917165,27.7106306],[70.0875876,27.700392],[70.0864341,27.6975224],[70.0850596,27.6941689],[70.0845993,27.693047],[70.0776181,27.6760828],[70.0760042,27.6721965],[70.0756596,27.6712747],[70.0743892,27.6683358],[70.0731034,27.6651265],[70.0722964,27.6631147],[70.0713577,27.6610205],[70.0687568,27.6551834],[70.067722,27.6529663],[70.0669391,27.6512963],[70.06559,27.648386],[70.0647026,27.646466],[70.0635163,27.6439052],[70.0604866,27.6373824],[70.0560937,27.6279178],[70.0533514,27.6219745],[70.0514739,27.6179511],[70.0489502,27.6125089],[70.0471151,27.6085604],[70.0457343,27.6055801],[70.0453747,27.6048134],[70.0411219,27.5956317],[70.0381981,27.5893432],[70.035174,27.5828155],[70.0338278,27.5799045],[70.0309828,27.5737609],[70.029413,27.5703913],[70.0275896,27.5664609],[70.0267509,27.5646652],[70.0259269,27.5628686],[70.0251203,27.5623768],[70.0236872,27.5614788],[70.0079179,27.5515983],[70.0052224,27.5498972],[70.001293,27.5474369],[69.9988783,27.5459089],[69.9974309,27.5450008],[69.9964268,27.544297],[69.9917582,27.5410048],[69.9885122,27.538719],[69.9831018,27.5349064],[69.9807315,27.5333584],[69.9768565,27.5307293],[69.9731659,27.5282353],[69.9713885,27.5270213],[69.9661817,27.5234988],[69.9634815,27.5213284],[69.9621028,27.520254],[69.9595762,27.5182285],[69.9572906,27.5163803],[69.9489996,27.5097331],[69.9384238,27.5014235],[69.93375,27.4977403],[69.9325839,27.496068],[69.930622,27.4932447],[69.9286219,27.4903662],[69.9220869,27.4804563],[69.9152019,27.4692367],[69.9076622,27.4574228],[69.9033036,27.4512202],[69.8982503,27.4440098],[69.8937051,27.4375346],[69.8908681,27.4334772],[69.8903188,27.4328302],[69.8840214,27.4253103],[69.8790384,27.4193693],[69.8759037,27.4156043],[69.8704808,27.410023],[69.8670485,27.4064684],[69.862888,27.4021543],[69.8624768,27.4018751],[69.8522707,27.394877],[69.8496313,27.3930641],[69.8458117,27.3900317],[69.8443123,27.3888518],[69.8386684,27.3844005],[69.8345401,27.3811485],[69.8286625,27.3765088],[69.8273725,27.3754952],[69.8145597,27.3654558],[69.8100537,27.3624376],[69.8082238,27.3612175],[69.8047702,27.3588941],[69.8020797,27.3570976],[69.7999847,27.3556945],[69.793657,27.3507845],[69.7824522,27.3418845],[69.7770766,27.3365068],[69.7746465,27.3340796],[69.772501,27.331927],[69.7704668,27.3301287],[69.767912,27.3278759],[69.7672077,27.3272548],[69.7602269,27.3210663],[69.7521922,27.3162198],[69.7451714,27.3119795],[69.7431716,27.3107755],[69.7369553,27.3069353],[69.7330669,27.3045367],[69.7289896,27.3020293],[69.722076,27.2977484],[69.7176326,27.2949941],[69.7155712,27.2937149],[69.714445,27.2930209],[69.7130557,27.2920085],[69.7076011,27.2878899],[69.7027708,27.284251],[69.7023063,27.2838735],[69.7012189,27.2827137],[69.6977518,27.278944],[69.695901,27.2769135],[69.691403,27.2720675],[69.6900888,27.2708381],[69.6802355,27.2616509],[69.6795461,27.2610073],[69.673299,27.254695],[69.6701261,27.2514911],[69.6685648,27.2498931],[69.6663724,27.247677],[69.6601073,27.2412165],[69.6559346,27.2368864],[69.6541668,27.2350347],[69.6508822,27.2315914],[69.6447894,27.225139],[69.6379284,27.2193889],[69.6292621,27.2120975],[69.6279649,27.2109976],[69.6163847,27.2037067],[69.6155249,27.2031675],[69.6143138,27.2024528],[69.6092306,27.199368],[69.604622,27.1965932],[69.6005204,27.1941242],[69.5963815,27.1908373],[69.5937437,27.1887714],[69.586829,27.1832511],[69.5841332,27.1768381],[69.5828869,27.173879],[69.5792083,27.1650793],[69.5784314,27.163267],[69.5759616,27.1574265],[69.5736143,27.1518767],[69.5682568,27.1392062],[69.5674881,27.1373936],[69.5650736,27.1316962],[69.5644715,27.1302695],[69.5578306,27.1146257],[69.5570061,27.112672],[69.5540342,27.1057073],[69.5509366,27.0983488],[69.5482283,27.0919438],[69.5460098,27.0867117],[69.5429792,27.0794964],[69.5387574,27.0695546],[69.5335985,27.0574088],[69.5305497,27.0502518],[69.52995,27.0488321],[69.5247951,27.0367564],[69.523374,27.0333905],[69.5225493,27.0314585],[69.5220371,27.0302391],[69.5186765,27.0223818],[69.5175306,27.0196784],[69.5157114,27.0154013],[69.5133771,27.0099286],[69.51345,27.0086643],[69.5137681,27.0019784],[69.5131689,26.9971321],[69.5124043,26.9909792],[69.5116869,26.985717],[69.5108238,26.9792422],[69.5105573,26.9768905],[69.5088154,26.9616684],[69.5074103,26.9493435],[69.5066458,26.9422224],[69.50433,26.9222446],[69.504018,26.919922],[69.5032808,26.9136033],[69.5024005,26.9060526],[69.5022531,26.9047388],[69.5020255,26.9028338],[69.5003893,26.8888273],[69.4997489,26.883393],[69.4996452,26.8825709],[69.4983164,26.8719788],[69.497686,26.8669181],[69.4969065,26.8636493],[69.4961757,26.8605734],[69.4951215,26.856155],[69.4936968,26.8501635],[69.4926492,26.8462441],[69.4916929,26.8426534],[69.4907813,26.8392828],[69.4884633,26.8301909],[69.4866462,26.8208855],[69.4863244,26.819243],[69.4853518,26.8142818],[69.4850946,26.8116599],[69.4846772,26.8073583],[69.4845064,26.8055879],[69.4844368,26.8048731]]]}},{"type":"Feature","properties":{"date":"2018-06-06","brightness":394.1,"marker-color":"#FF4444","marker-size":"small"},"geometry":{"type":"Point","coordinates":[71.1188,27.0119]}},{"type":"Feature","properties":{"date":"2019-04-13","brightness":332.1,"marker-color":"#FF4444","marker-size":"small"},"geometry":{"type":"Point","coordinates":[70.8553,26.9543]}},{"type":"Feature","properties":{"date":"2019-04-14","brightness":329.5,"marker-color":"#FF4444","marker-size":"small"},"geometry":{"type":"Point","coordinates":[70.9721,27.0731]}},{"type":"Feature","properties":{"date":"2020-03-20","brightness":388.3,"marker-color":"#FF4444","marker-size":"small"},"geometry":{"type":"Point","coordinates":[70.957,26.8366]}},{"type":"Feature","properties":{"date":"2022-05-08","brightness":375.7,"marker-color":"#FF4444","marker-size":"small"},"geometry":{"type":"Point","coordinates":[70.8907,26.8336]}},{"type":"Feature","properties":{"date":"2024-07-21","brightness":306.2,"marker-color":"#FF4444","marker-size":"small"},"geometry":{"type":"Point","coordinates":[70.8257,26.8613]}},{"type":"Feature","properties":{"date":"2025-03-09","brightness":369.8,"marker-color":"#FF4444","marker-size":"small"},"geometry":{"type":"Point","coordinates":[70.9362,27.0473]}},{"type":"Feature","properties":{"date":"2025-04-13","brightness":368.7,"marker-color":"#FF4444","marker-size":"small"},"geometry":{"type":"Point","coordinates":[71.0687,27.1677]}},{"type":"Feature","properties":{"date":"2025-04-20","brightness":341.9,"marker-color":"#FF4444","marker-size":"small"},"geometry":{"type":"Point","coordinates":[70.8802,27.1287]}},{"type":"Feature","properties":{"date":"2025-04-28","brightness":366.9,"marker-color":"#FF4444","marker-size":"small"},"geometry":{"type":"Point","coordinates":[70.7505,26.6245]}},{"type":"Feature","properties":{"date":"2025-06-01","brightness":373.4,"marker-color":"#FF4444","marker-size":"small"},"geometry":{"type":"Point","coordinates":[70.8944,26.8611]}}]}