<?xml version="1.0" encoding="UTF-8"?>
<kml xmlns="http://www.opengis.net/kml/2.2">
<Document>
  <name>Sirohi Forest Fire Risk Zones</name>
  <description>Forest fire density analysis for Sirohi District, Rajasthan. Generated using KDE on NASA FIRMS data (2018-2025).</description>
  <Style id="zone0">
    <PolyStyle><color>8c0000FF</color><outline>1</outline></PolyStyle>
    <LineStyle><color>e60000FF</color><width>1</width></LineStyle>
  </Style>
  <Style id="zone1">
    <PolyStyle><color>80008CFF</color><outline>1</outline></PolyStyle>
    <LineStyle><color>e6008CFF</color><width>1</width></LineStyle>
  </Style>
  <Style id="zone2">
    <PolyStyle><color>7300D7FF</color><outline>1</outline></PolyStyle>
    <LineStyle><color>e600D7FF</color><width>1</width></LineStyle>
  </Style>
  <Style id="zone3">
    <PolyStyle><color>59228B22</color><outline>1</outline></PolyStyle>
    <LineStyle><color>e6228B22</color><width>1</width></LineStyle>
  </Style>
  <Style id="boundary">
    <LineStyle><color>ccffffff</color><width>2</width></LineStyle>
    <PolyStyle><fill>0</fill></PolyStyle>
  </Style>
  <Style id="firepoint">
    <IconStyle><color>ff4444ff</color><scale>0.6</scale>
      <Icon><href>http://maps.google.com/mapfiles/kml/shapes/shaded_dot.png</href></Icon>
    </IconStyle>
  </Style>
  <Folder><name>Fire Risk Zones</name>
    <Placemark><name>Low Fire Zone</name><styleUrl>#zone0</styleUrl>
      <Polygon><extrude>0</extrude><altitudeMode>clampToGround</altitudeMode><outerBoundaryIs><LinearRing><coordinates>72.246437,24.5863099,0 72.2477245,24.5836172,0 72.2498703,24.5811586,0 72.2509431,24.5791292,0 72.2521019,24.5762022,0 72.2614574,24.5667961,0 72.2628736,24.5648836,0 72.2633457,24.5634004,0 72.2639894,24.5608634,0 72.2656631,24.5601998,0 72.2680664,24.5610195,0 72.2693538,24.5618392,0 72.2710275,24.5631272,0 72.2733879,24.5644153,0 72.2762203,24.5655081,0 72.2792244,24.5651959,0 72.28549,24.5657423,0 72.2866058,24.5620734,0 72.2878503,24.5581311,0 72.2884082,24.5547742,0 72.2898244,24.551222,0 72.289524,24.5480601,0 72.291584,24.5470451,0 72.2947597,24.546889,0 72.2973346,24.546928,0 72.2993087,24.5473184,0 72.3020553,24.5486066,0 72.3043298,24.5498167,0 72.3122263,24.551222,0 72.3185348,24.5510268,0 72.3221397,24.551183,0 72.3233842,24.5515343,0 72.3242855,24.5528224,0 72.326045,24.553486,0 72.3278904,24.5527444,0 72.3291349,24.5529786,0 72.329607,24.5541887,0 72.329092,24.5557891,0 72.3277616,24.5567259,0 72.3272037,24.5579749,0 72.3269891,24.5594192,0 72.3272037,24.561644,0 72.3278474,24.5644153,0 72.3292207,24.5660155,0 72.3298645,24.5673816,0 72.3307657,24.5694892,0 72.3360443,24.565352,0 72.3385334,24.5640249,0 72.3429107,24.5632834,0 72.3461294,24.5631272,0 72.3493051,24.5631272,0 72.3530817,24.5642591,0 72.3532962,24.5607072,0 72.35394,24.5563746,0 72.3581457,24.5552035,0 72.3591327,24.5520808,0 72.359476,24.551183,0 72.361021,24.5488799,0 72.3619651,24.5479039,0 72.3636388,24.5475917,0 72.3654413,24.5475917,0 72.3679733,24.5473574,0 72.3687028,24.5462644,0 72.369132,24.5443516,0 72.369132,24.542712,0 72.3687028,24.5414628,0 72.3678875,24.5402916,0 72.36763,24.5380273,0 72.3681879,24.5370904,0 72.3690033,24.5356069,0 72.3707199,24.5313905,0 72.3720932,24.5294384,0 72.3735523,24.5279548,0 72.3746681,24.5262759,0 72.3762989,24.5239723,0 72.3778867,24.521044,0 72.3785734,24.518467,0 72.3788738,24.5156948,0 72.3791313,24.5133129,0 72.3805475,24.5112825,0 72.3841524,24.5108529,0 72.385354,24.5109701,0 72.3866844,24.5106577,0 72.3875856,24.5075729,0 72.3906755,24.5099939,0 72.391963,24.5110091,0 72.3940229,24.5119072,0 72.3977565,24.5133129,0 72.4006748,24.514172,0 72.4032926,24.5152262,0 72.4087429,24.5168271,0 72.4129486,24.5177252,0 72.416296,24.5206926,0 72.4194717,24.5188575,0 72.4219608,24.5178814,0 72.4237203,24.5171004,0 72.4246645,24.517569,0 72.4275827,24.5169833,0 72.428441,24.516749,0 72.429986,24.5163976,0 72.4330329,24.5162414,0 72.4348354,24.5168662,0 72.4373245,24.5172176,0 72.4385261,24.5162414,0 72.4394273,24.5156167,0 72.4407577,24.5147577,0 72.4411439,24.5130786,0 72.4414444,24.5106186,0 72.4429035,24.5081195,0 72.4430751,24.5066748,0 72.4418735,24.5027698,0 72.4374103,24.4932411,0 72.4301147,24.4799623,0 72.4321747,24.4693772,0 72.4328828,24.4655882,0 72.4340629,24.4597678,0 72.4358225,24.4581076,0 72.4384832,24.455295,0 72.4426245,24.4514274,0 72.4447274,24.4493178,0 72.4455428,24.4487514,0 72.4484825,24.4462901,0 72.4504137,24.4440046,0 72.4519157,24.4414456,0 72.4520445,24.4393163,0 72.4519157,24.4373628,0 72.4518728,24.4357413,0 72.4524736,24.4338073,0 72.4536967,24.432049,0 72.4560571,24.4289427,0 72.4577951,24.4263443,0 72.4583745,24.4241757,0 72.4578829,24.4206815,0 72.4577522,24.4144066,0 72.4600267,24.4141331,0 72.4690818,24.4141722,0 72.4788236,24.4144066,0 72.50041,24.417103,0 72.498908,24.4230035,0 72.4961185,24.4389842,0 72.4938869,24.451447,0 72.492342,24.4591819,0 72.497406,24.458635,0 72.5045728,24.4580881,0 72.5047445,24.4663304,0 72.5046157,24.4694163,0 72.5048732,24.4717599,0 72.5106668,24.4785952,0 72.5143146,24.4842585,0 72.5185632,24.4962091,0 72.5198936,24.5007001,0 72.5225114,24.5019106,0 72.5265026,24.5032774,0 72.5334978,24.5038632,0 72.5340986,24.5047223,0 72.5348281,24.5069871,0 72.5356865,24.5103063,0 72.5371027,24.5169442,0 72.5374675,24.518057,0 72.5379824,24.518877,0 72.5401497,24.5193455,0 72.5426387,24.5176081,0 72.544527,24.5149529,0 72.5495051,24.5079243,0 72.5578902,24.4978749,0 72.5690056,24.4863139,0 72.5764131,24.4784585,0 72.5991475,24.4744648,0 72.6098441,24.473088,0 72.6413226,24.4656077,0 72.6474595,24.4639671,0 72.654283,24.4624632,0 72.6565361,24.4622093,0 72.6587891,24.4623265,0 72.6643038,24.4633421,0 72.6694321,24.4647288,0 72.6717925,24.4650023,0 72.6738524,24.4648851,0 72.6783156,24.464846,0 72.6812768,24.4648656,0 72.6837659,24.4637523,0 72.6880789,24.4579709,0 72.6879287,24.4559591,0 72.6873171,24.4518474,0 72.6797962,24.4428521,0 72.6820707,24.4332798,0 72.6874388,24.4164293,0 72.6920271,24.4057897,0 72.6970696,24.4012562,0 72.7008676,24.3948857,0 72.7055015,24.389913,0 72.71945,24.3748537,0 72.7240419,24.3675436,0 72.7321623,24.363324,0 72.7351999,24.3633998,0 72.746315,24.3645726,0 72.7567863,24.3661363,0 72.7695322,24.3682864,0 72.7779865,24.3678564,0 72.7895736,24.3655499,0 72.7984142,24.363908,0 72.8014183,24.3638689,0 72.8052806,24.3634389,0 72.8066968,24.363908,0 72.8070831,24.3646898,0 72.8088426,24.3670354,0 72.8127908,24.3694591,0 72.8154087,24.3705537,0 72.8176403,24.3706319,0 72.8206014,24.3703973,0 72.823863,24.3700064,0 72.8270816,24.3695764,0 72.8301286,24.3695764,0 72.8360509,24.3697719,0 72.8420162,24.3707491,0 72.8469514,24.3717655,0 72.848711,24.3720782,0 72.85223,24.3717264,0 72.8545045,24.3704364,0 72.8555774,24.3685991,0 72.8576374,24.3684818,0 72.858324,24.369811,0 72.8597831,24.3690291,0 72.8631305,24.3674654,0 72.8695678,24.3637125,0 72.8701257,24.3659408,0 72.8764343,24.3634389,0 72.8884077,24.3580829,0 72.8917121,24.3566364,0 72.8936433,24.3546425,0 72.8956604,24.3522967,0 72.9008531,24.3479959,0 72.9047155,24.3420919,0 72.9066467,24.3395113,0 72.9084491,24.3379864,0 72.9102087,24.3373607,0 72.9126977,24.337478,0 72.9139423,24.3380646,0 72.916131,24.3404497,0 72.9198217,24.3445552,0 72.9253578,24.3448289,0 72.9317522,24.346432,0 72.9366445,24.3476832,0 72.9447555,24.3522185,0 72.9496049,24.3562454,0 72.9537677,24.3567928,0 72.9594698,24.3609593,0 72.9624367,24.3632825,0 72.9671788,24.3664881,0 72.967608,24.36727,0 72.9683161,24.3677586,0 72.9702687,24.3679736,0 72.9725432,24.3680323,0 72.9745602,24.36899,0 72.9757619,24.3706514,0 72.9770708,24.3728991,0 72.9775643,24.3753423,0 72.9773068,24.3777072,0 72.9761266,24.3805216,0 72.974453,24.3830428,0 72.9679513,24.3865215,0 72.9617929,24.3901565,0 72.9606557,24.3907232,0 72.9591107,24.3912118,0 72.9571366,24.3913095,0 72.9553556,24.3912509,0 72.9540252,24.3912509,0 72.9533386,24.3917981,0 72.9520511,24.3939086,0 72.9513645,24.3947294,0 72.9502702,24.3955306,0 72.9493046,24.3964686,0 72.9489827,24.3978365,0 72.9497981,24.3997516,0 72.9506349,24.4007286,0 72.9516434,24.401862,0 72.9525661,24.4026241,0 72.9547119,24.4029368,0 72.9571366,24.4036598,0 72.9593897,24.4045586,0 72.9621362,24.4057897,0 72.9655695,24.4093459,0 72.9672432,24.4109677,0 72.9681229,24.4139572,0 72.9686594,24.4146802,0 72.9699254,24.4149342,0 72.970376,24.4156571,0 72.9714274,24.4181971,0 72.9725647,24.4226909,0 72.973423,24.4265983,0 72.97544,24.4271258,0 72.9767489,24.4278292,0 72.9784655,24.4310918,0 72.9798388,24.4323225,0 72.9804182,24.4329672,0 72.9816413,24.4351553,0 72.9805469,24.437226,0 72.9794097,24.4378902,0 72.977972,24.4384958,0 72.974453,24.4398047,0 72.9732728,24.4424419,0 72.9737234,24.4444148,0 72.9743027,24.4454111,0 72.9747534,24.4461534,0 72.9752254,24.4472473,0 72.9750109,24.4486928,0 72.9744959,24.4493569,0 72.9730367,24.4495913,0 72.9718137,24.4498453,0 72.9692602,24.4499625,0 72.9677796,24.4501773,0 72.967844,24.4512517,0 72.9693889,24.4531073,0 72.9730367,24.4552364,0 72.9748821,24.4567013,0 72.9793668,24.4621312,0 72.9811692,24.464514,0 72.9839372,24.4667601,0 72.9866409,24.4699436,0 72.987349,24.4730879,0 72.9884219,24.4742011,0 72.989645,24.4759002,0 72.9916191,24.4778921,0 73.0006313,24.4837507,0 73.0014038,24.4844928,0 73.0019617,24.4850787,0 73.0044078,24.4863675,0 73.0066824,24.487461,0 73.0079913,24.4878711,0 73.0096864,24.4881054,0 73.011682,24.4887303,0 73.0127656,24.4898043,0 73.0131519,24.4908685,0 73.01386,24.4915129,0 73.0148148,24.4924502,0 73.0153513,24.4933094,0 73.0153298,24.4945298,0 73.015008,24.4954964,0 73.0140746,24.4962774,0 73.0135059,24.4979665,0 73.0152225,24.5020278,0 73.0162525,24.5035117,0 73.0181407,24.5060109,0 73.0192565,24.50769,0 73.0202865,24.5094862,0 73.0212736,24.5122196,0 73.0220031,24.5164757,0 73.0219173,24.5195213,0 73.0252647,24.5217468,0 73.0285692,24.5235038,0 73.0314016,24.5252217,0 73.0344486,24.5270958,0 73.0383968,24.5302973,0 73.0429029,24.5355288,0 73.0492544,24.541697,0 73.0487394,24.5447029,0 73.0482673,24.5469671,0 73.0483102,24.5492312,0 73.0484819,24.551183,0 73.0493402,24.5527444,0 73.0512714,24.5540325,0 73.0530309,24.5541106,0 73.0557346,24.553486,0 73.0595111,24.5624247,0 73.0658197,24.5736653,0 73.0710125,24.5801439,0 73.0703687,24.5830318,0 73.0728149,24.5899001,0 73.074789,24.5904854,0 73.0780935,24.5910708,0 73.0856466,24.6030893,0 73.0882644,24.6060937,0 73.0887794,24.6081227,0 73.0882644,24.6121024,0 73.0885219,24.6150676,0 73.0887365,24.6178767,0 73.0891227,24.6193982,0 73.0898094,24.6225584,0 73.089981,24.6250942,0 73.0899381,24.6259915,0 73.0892086,24.627747,0 73.0883073,24.6289563,0 73.0875778,24.6298926,0 73.0875778,24.6321552,0 73.0908393,24.6332085,0 73.0927276,24.6338717,0 73.0948305,24.6346909,0 73.0965471,24.6355881,0 73.0980062,24.6373825,0 73.1007099,24.639723,0 73.1030273,24.6422194,0 73.1048297,24.6440527,0 73.106246,24.6475243,0 73.1080913,24.65357,0 73.1089067,24.6570022,0 73.1126833,24.6572752,0 73.1146574,24.6572752,0 73.1162023,24.6586403,0 73.1190776,24.6622284,0 73.1238412,24.6677274,0 73.1258583,24.6685074,0 73.1301498,24.6688194,0 73.1341409,24.6682344,0 73.136115,24.6693654,0 73.1369733,24.6726802,0 73.1382179,24.675176,0 73.1384754,24.6770088,0 73.1389904,24.6782957,0 73.1410503,24.6788416,0 73.1420803,24.6791146,0 73.1422948,24.6799335,0 73.1408786,24.6809474,0 73.1395912,24.6822732,0 73.1385183,24.683521,0 73.1423378,24.6864455,0 73.1441402,24.6878883,0 73.1453418,24.689214,0 73.1462431,24.6907737,0 73.146801,24.693854,0 73.1477451,24.6989617,0 73.1492471,24.7042642,0 73.148818,24.7154531,0 73.1475734,24.7206574,0 73.1462001,24.7232692,0 73.1464576,24.725608,0 73.1475305,24.7281028,0 73.1487321,24.7312991,0 73.149805,24.7346903,0 73.1492471,24.7395624,0 73.1462001,24.7435575,0 73.1474875,24.7487022,0 73.1531095,24.7546259,0 73.154397,24.7590687,0 73.1552982,24.7610951,0 73.158431,24.7636281,0 73.1598472,24.7653817,0 73.162508,24.7669015,0 73.1637954,24.7685381,0 73.16504,24.7702916,0 73.1664133,24.7721231,0 73.1681299,24.774539,0 73.1703186,24.7771496,0 73.1725072,24.7805785,0 73.1714773,24.795228,0 73.171134,24.8073436,0 73.171091,24.8097978,0 73.1683874,24.819536,0 73.1674861,24.8231974,0 73.1646967,24.824327,0 73.1621646,24.8260018,0 73.1576585,24.8318051,0 73.1496334,24.8428658,0 73.1482172,24.8460591,0 73.1387329,24.8455918,0 73.1357288,24.8460202,0 73.1334114,24.8459034,0 73.1319952,24.844073,0 73.1311369,24.8428658,0 73.1294632,24.8404512,0 73.1292915,24.8399839,0 73.1277036,24.8381534,0 73.1264591,24.8376082,0 73.1255149,24.8378419,0 73.1250429,24.8397891,0 73.1243562,24.8411133,0 73.1231975,24.8423205,0 73.1191206,24.8434889,0 73.1174469,24.8443067,0 73.1127262,24.8453192,0 73.1109237,24.8465264,0 73.1096362,24.8510827,0 73.1079196,24.8580141,0 73.1045722,24.8586371,0 73.1008815,24.8594938,0 73.0943584,24.8598832,0 73.0922984,24.8595717,0 73.0857753,24.8595717,0 73.0802821,24.8605062,0 73.0771922,24.8621416,0 73.0704116,24.8691503,0 73.0618285,24.8810641,0 73.0545329,24.8873709,0 73.0492114,24.8876823,0 73.0438899,24.8866702,0 73.0386542,24.8878381,0 73.0119609,24.9100261,0 73.0036353,24.9137627,0 72.9918766,24.9222084,0 72.9943227,24.9288244,0 72.9955673,24.934156,0 72.9973697,24.9367633,0 72.998228,24.9384366,0 72.9977989,24.9401099,0 72.9973268,24.9413551,0 72.9959964,24.9445459,0 72.9943656,24.9487872,0 72.995181,24.9533397,0 72.9953956,24.9572306,0 72.996726,24.9610824,0 72.9984426,24.9630277,0 73.0009746,24.9644284,0 73.0046653,24.9651676,0 73.0071115,24.9650898,0 73.0094289,24.9648563,0 73.0117464,24.9667238,0 73.0155658,24.9685523,0 73.0184841,24.9678131,0 73.0223035,24.9667238,0 73.0269813,24.9660624,0 73.0305004,24.9685134,0 73.0369806,24.9711589,0 73.0390405,24.9729873,0 73.0395984,24.9813901,0 73.0417013,24.9866804,0 73.045392,24.9943821,0 73.049941,24.9999053,0 73.0524301,25.0044948,0 73.0534601,25.0079951,0 73.0542326,25.0090841,0 73.0627298,25.0146454,0 73.0658626,25.0161621,0 73.0674505,25.0170955,0 73.0696821,25.0199732,0 73.0726003,25.0227343,0 73.076291,25.0254175,0 73.0821704,25.0281784,0 73.0881786,25.0300838,0 73.0958175,25.0337778,0 73.104701,25.0368107,0 73.1082201,25.0388326,0 73.111267,25.0415543,0 73.1138849,25.047814,0 73.1160736,25.0510798,0 73.1205797,25.0552009,0 73.125472,25.0613433,0 73.1274461,25.0636369,0 73.1298065,25.0667857,0 73.1307077,25.0707507,0 73.1312227,25.0762315,0 73.131926,25.0907309,0 73.1357067,25.0974136,0 73.1358361,25.0983856,0 73.1336903,25.0998818,0 73.1323814,25.1008923,0 73.1303859,25.1026605,0 73.1287122,25.1058471,0 73.1268668,25.1085868,0 73.1256437,25.1104909,0 73.1244206,25.1120647,0 73.1233048,25.1130751,0 73.1220603,25.1142991,0 73.1212663,25.1144934,0 73.1202364,25.1134636,0 73.1199574,25.1122396,0 73.1200433,25.1106658,0 73.1208372,25.1093251,0 73.1189704,25.1082759,0 73.1165027,25.1074404,0 73.1150007,25.1077513,0 73.1137561,25.1083342,0 73.1124258,25.1091503,0 73.1102371,25.1101995,0 73.1074047,25.1119093,0 73.1059026,25.1134248,0 73.1055164,25.1156009,0 73.1043577,25.1179712,0 73.1037998,25.1203803,0 73.1024265,25.1206911,0 73.0989503,25.1204969,0 73.0955171,25.1231391,0 73.0927705,25.1259366,0 73.0893373,25.1302882,0 73.0857753,25.1336296,0 73.0818271,25.1346786,0 73.0777502,25.1379809,0 73.0721712,25.1455177,0 73.065648,25.149791,0 73.0608415,25.1524325,0 73.0547046,25.1591139,0 73.0426025,25.1624933,0 73.042345,25.1589585,0 73.0402851,25.1520052,0 73.038268,25.1451293,0 73.0377531,25.1426818,0 73.0393409,25.1401566,0 73.0411005,25.1368154,0 73.0436325,25.132736,0 73.0447053,25.1256646,0 73.0446624,25.1183597,0 73.0482244,25.1052642,0 73.0445766,25.1035155,0 73.0380535,25.1017278,0 73.0336761,25.0980359,0 73.0305433,25.0955874,0 73.027153,25.093139,0 73.0247926,25.0903795,0 73.0219602,25.0889415,0 73.0205869,25.0913123,0 73.0193853,25.0934499,0 73.017497,25.0947324,0 73.0131197,25.0952765,0 73.0065107,25.0970643,0 73.0032491,25.0982302,0 73.0003738,25.0999013,0 72.9968547,25.1036709,0 72.9958248,25.1081399,0 72.9943227,25.1202637,0 72.9944086,25.1290838,0 72.9959535,25.1322697,0 72.9958248,25.1339404,0 72.9956102,25.1351059,0 72.9962968,25.1368931,0 72.9969406,25.1387579,0 72.9970693,25.1411278,0 72.9950094,25.1415163,0 72.9959106,25.1440026,0 72.9962539,25.1456343,0 72.9956102,25.1468774,0 72.993164,25.1477321,0 72.9900312,25.1485867,0 72.9863834,25.1486644,0 72.9849243,25.1482759,0 72.9848814,25.1464889,0 72.9846668,25.1451293,0 72.9811477,25.14443,0 72.9805898,25.1433811,0 72.9808902,25.141089,0 72.9820489,25.1393018,0 72.9816627,25.1382529,0 72.9797315,25.1389133,0 72.9776716,25.137437,0 72.9752254,25.1379421,0 72.9713201,25.1419436,0 72.9672861,25.1417494,0 72.9634237,25.1417882,0 72.9603338,25.1418271,0 72.9564714,25.1416328,0 72.9502916,25.1420602,0 72.950592,25.1488586,0 72.9501628,25.1568998,0 72.9476308,25.162571,0 72.9461717,25.1645519,0 72.9456567,25.1668436,0 72.9460001,25.1703393,0 72.9479312,25.171388,0 72.9482317,25.1724367,0 72.9476308,25.1757768,0 72.9477596,25.1772915,0 72.9475021,25.1786509,0 72.9460001,25.1807481,0 72.9439401,25.183622,0 72.9427385,25.1858745,0 72.9469871,25.1862628,0 72.9476308,25.1854473,0 72.9485321,25.1835443,0 72.9499054,25.1812141,0 72.9577159,25.1819132,0 72.957673,25.1833501,0 72.9572868,25.1848647,0 72.9564285,25.1866512,0 72.9555273,25.1887094,0 72.9549264,25.1899521,0 72.9594326,25.1939131,0 72.9630804,25.1938743,0 72.9688739,25.193719,0 72.9735088,25.194418,0 72.9717493,25.2019901,0 72.9724359,25.205213,0 72.9744959,25.2119303,0 72.9746675,25.2152305,0 72.974925,25.2183754,0 72.9750109,25.2200643,0 72.9735517,25.2203361,0 72.9734444,25.2213067,0 72.9732942,25.2221996,0 72.9731011,25.223209,0 72.9728436,25.2241214,0 72.9712987,25.2246067,0 72.9682731,25.2252084,0 72.9670715,25.2253831,0 72.9667067,25.2245096,0 72.9662776,25.2234031,0 72.9641747,25.2221996,0 72.961514,25.2200255,0 72.9600119,25.2191325,0 72.9582953,25.217696,0 72.9570722,25.21657,0 72.9557419,25.215677,0 72.9537892,25.2155994,0 72.9534888,25.2162206,0 72.9517293,25.2166671,0 72.9496264,25.2173077,0 72.9473734,25.2176571,0 72.9463005,25.2182201,0 72.9429316,25.2188413,0 72.9423523,25.2202972,0 72.9415369,25.2225296,0 72.9417085,25.223209,0 72.9408073,25.224102,0 72.938683,25.2240437,0 72.9384899,25.2245096,0 72.938447,25.2259266,0 72.9377818,25.227169,0 72.9371166,25.2288577,0 72.9375243,25.2314393,0 72.9382324,25.2343218,0 72.9388761,25.2369809,0 72.938801,25.2386501,0 72.9379964,25.2398923,0 72.9363969,25.2434945,0 72.9331347,25.243859,0 72.9286516,25.2444786,0 72.9214349,25.2462281,0 72.9198312,25.2502739,0 72.916806,25.2556317,0 72.9126874,25.2546476,0 72.9091155,25.2503468,0 72.9036665,25.2497454,0 72.9020628,25.2497454,0 72.9014432,25.2503832,0 72.8999306,25.2529528,0 72.8970694,25.2509117,0 72.897197,25.2484879,0 72.8963405,25.2457361,0 72.8953017,25.2453169,0 72.8897252,25.2448978,0 72.886372,25.2453169,0 72.8860075,25.2456996,0 72.8848958,25.2467202,0 72.8839117,25.2474856,0 72.8826907,25.2481963,0 72.8809412,25.2490893,0 72.8792828,25.2493627,0 72.8773875,25.2492898,0 72.873925,25.2498183,0 72.8701161,25.2504743,0 72.8689498,25.2516589,0 72.8669452,25.2529528,0 72.8663073,25.2544107,0 72.8638835,25.2611354,0 72.8572682,25.266803,0 72.855701,25.2683703,0 72.8543888,25.2699558,0 72.8511996,25.2741837,0 72.8480469,25.2738922,0 72.8468623,25.2736553,0 72.8452586,25.2734912,0 72.84391,25.273637,0 72.8432357,25.2741473,0 72.8423428,25.2750767,0 72.8408666,25.2755688,0 72.8392447,25.2773001,0 72.8379508,25.2800519,0 72.8284925,25.2853733,0 72.8277089,25.2838789,0 72.8273991,25.283314,0 72.8268888,25.282749,0 72.8259958,25.2825121,0 72.8250482,25.2824939,0 72.823572,25.2824939,0 72.8203099,25.2804164,0 72.8185422,25.2770814,0 72.8181959,25.2743113,0 72.817303,25.2687348,0 72.8154988,25.2641423,0 72.8117993,25.2566158,0 72.8091649,25.2540463,0 72.8081025,25.2545395,0 72.8025268,25.2561881,0 72.79931,25.2495935,0 72.7945205,25.2431279,0 72.7904102,25.2348837,0 72.7868003,25.2321679,0 72.7818321,25.2280617,0 72.7780434,25.2197518,0 72.7781507,25.1955304,0 72.7791514,25.1930077,0 72.7809028,25.1910671,0 72.7808671,25.1892559,0 72.7792944,25.1879622,0 72.7771141,25.1878005,0 72.7745765,25.1875417,0 72.7720388,25.1869919,0 72.7655337,25.179779,0 72.7621382,25.1745065,0 72.7577419,25.1697514,0 72.7525951,25.1642844,0 72.747198,25.1598847,0 72.7456968,25.1577171,0 72.7458398,25.1563907,0 72.743588,25.1413138,0 72.7402998,25.1333216,0 72.7382625,25.1263644,0 72.7344023,25.1240344,0 72.728076,25.1200217,0 72.7200697,25.1135492,0 72.7138864,25.10918,0 72.7089182,25.10439,0 72.7065235,25.0986287,0 72.7051295,25.091443,0 72.7038786,25.086717,0 72.7036999,25.0823793,0 72.7018055,25.0806312,0 72.699518,25.0803075,0 72.6959081,25.0792716,0 72.6927995,25.0772616,0 72.6915967,25.0734806,0 72.6913428,25.0721349,0 72.6912973,25.0674227,0 72.6911186,25.0589076,0 72.690511,25.0564793,0 72.6886524,25.0546013,0 72.6885095,25.0532738,0 72.6887597,25.0505862,0 72.6887597,25.0485463,0 72.6874729,25.0475749,0 72.6856143,25.0486434,0 72.6837558,25.0493558,0 72.6798599,25.0491615,0 72.6747487,25.0488701,0 72.6703525,25.0478663,0 72.6661349,25.0471215,0 72.6628824,25.0459234,0 72.6625859,25.0455229,0 72.6609165,25.0432681,0 72.6578785,25.0389289,0 72.6556625,25.0343628,0 72.6550548,25.0312539,0 72.6559127,25.0289869,0 72.6568419,25.0270761,0 72.6547332,25.026396,0 72.6526244,25.0259102,0 72.6506024,25.0250814,0 72.649622,25.0246795,0 72.6483353,25.0234488,0 72.6483353,25.0218294,0 72.6484783,25.0201776,0 72.6481566,25.0166473,0 72.6445109,25.0167769,0 72.6423664,25.0167445,0 72.6381131,25.0160967,0 72.6366834,25.0111572,0 72.6351822,25.0062176,0 72.6344674,25.0026869,0 72.6337883,25.0008729,0 72.6322514,24.9994476,0 72.6302141,24.998249,0 72.6264254,24.9944265,0 72.6245311,24.9913813,0 72.6234231,24.9898587,0 72.6224223,24.9881093,0 72.6195272,24.9873642,0 72.6174899,24.986943,0 72.6148807,24.9868782,0 72.6138085,24.9810791,0 72.6127004,24.9782928,0 72.6118069,24.9763812,0 72.6089833,24.9746316,0 72.6065885,24.973206,0 72.6014417,24.9665638,0 72.5957944,24.9636475,0 72.5863943,24.9563891,0 72.5818193,24.9515607,0 72.5776374,24.9449172,0 72.5732054,24.9404124,0 72.5685947,24.9357455,0 72.5654136,24.9340277,0 72.5632691,24.9338008,0 72.5584439,24.9328933,0 72.5510096,24.9318562,0 72.5446832,24.9319534,0 72.5386428,24.9319534,0 72.5312084,24.9308838,0 72.5258114,24.9310459,0 72.5223444,24.9315969,0 72.5210219,24.9320182,0 72.5201641,24.9333147,0 72.5189489,24.9352593,0 72.5178052,24.9359075,0 72.5165184,24.9355834,0 72.5136948,24.9335739,0 72.5097989,24.9302356,0 72.506189,24.9253737,0 72.503973,24.9227158,0 72.5020786,24.9209979,0 72.5006847,24.9199282,0 72.4983257,24.9192151,0 72.4970032,24.9185992,0 72.4970032,24.9174971,0 72.4966101,24.916006,0 72.4972534,24.9147094,0 72.4983614,24.9127644,0 72.4984329,24.9107546,0 72.4972177,24.9087772,0 72.4955736,24.907675,0 72.493715,24.9068645,0 72.4991835,24.9024232,0 72.5016855,24.8988895,0 72.502865,24.8920162,0 72.5033296,24.8878013,0 72.5032939,24.8831972,0 72.5022573,24.8808951,0 72.4997911,24.8790793,0 72.4974679,24.8782038,0 72.4948945,24.8773607,0 72.4921781,24.8758043,0 72.4887468,24.8734372,0 72.4859589,24.8726265,0 72.4852083,24.873275,0 72.4835642,24.8742803,0 72.4808478,24.873956,0 72.4792752,24.8724968,0 72.4789535,24.8709079,0 72.4792752,24.8690919,0 72.4799543,24.866822,0 72.481098,24.8648763,0 72.482206,24.8629954,0 72.4830281,24.8614387,0 72.4836357,24.8592335,0 72.4841361,24.858066,0 72.4883179,24.8528121,0 72.4898548,24.8498283,0 72.4907126,24.8472337,0 72.4913202,24.844639,0 72.4902837,24.8415901,0 72.490248,24.8393521,0 72.4920351,24.8382817,0 72.4931788,24.8362707,0 72.4929644,24.8343893,0 72.4947157,24.8327675,0 72.4961812,24.8300427,0 72.4955736,24.8278045,0 72.4947515,24.8254689,0 72.4955736,24.8233928,0 72.496753,24.8215112,0 72.4971462,24.8200839,0 72.4962884,24.8182023,0 72.49468,24.8173264,0 72.491213,24.8157692,0 72.4896404,24.8130116,0 72.48914,24.8095726,0 72.4873171,24.8059714,0 72.4888898,24.8001637,0 72.4909271,24.7936744,0 72.4933933,24.782447,0 72.493572,24.7749507,0 72.4930359,24.7641761,0 72.4915347,24.759827,0 72.489956,24.7589016,0 72.4840808,24.7558535,0 72.4785447,24.7541972,0 72.4721828,24.7534636,0 72.4669263,24.754293,0 72.463495,24.7561593,0 72.4574724,24.7583016,0 72.4554709,24.7575875,0 72.4523256,24.7584314,0 72.4505385,24.7595998,0 72.4478221,24.7603139,0 72.4441049,24.7575875,0 72.4424608,24.7560296,0 72.4375283,24.755705,0 72.4338112,24.7558997,0 72.4243038,24.7558348,0 72.418871,24.7551207,0 72.4133667,24.7552506,0 72.4104358,24.7612226,0 72.4085772,24.7656366,0 72.4067186,24.7684277,0 72.402787,24.7723221,0 72.4003566,24.7757621,0 72.3964964,24.77375,0 72.3944948,24.7707643,0 72.3922788,24.7683627,0 72.3894909,24.7671295,0 72.3865601,24.7665453,0 72.3801265,24.7657015,0 72.3775531,24.766026,0 72.3739074,24.7656366,0 72.3722633,24.7615472,0 72.3669734,24.756419,0 72.3647574,24.7540821,0 72.3631133,24.7511609,0 72.3606828,24.7482395,0 72.3526766,24.7366185,0 72.3455783,24.7251706,0 72.3446633,24.7233414,0 72.3359493,24.7160356,0 72.3298016,24.7109056,0 72.3267278,24.701684,0 72.3212235,24.690968,0 72.3193649,24.6846678,0 72.3177923,24.6812253,0 72.3149329,24.6786921,0 72.3135747,24.675769,0 72.3123595,24.6708972,0 72.3128599,24.6655704,0 72.3126454,24.6614778,0 72.3131458,24.6569302,0 72.3139321,24.6542016,0 72.3152903,24.6517977,0 72.3174349,24.649199,0 72.3194364,24.6484843,0 72.3225102,24.6476397,0 72.3254411,24.6449758,0 72.3303735,24.6409474,0 72.3332329,24.6380235,0 72.33502,24.6347747,0 72.3351629,24.6327603,0 72.3395204,24.6301267,0 72.3402071,24.6299316,0 72.3431253,24.6291514,0 72.346301,24.6286052,0 72.3479318,24.627747,0 72.3472881,24.6258354,0 72.3458719,24.6240408,0 72.3449277,24.6233776,0 72.3437261,24.6221682,0 72.3435115,24.6204516,0 72.3444557,24.6181888,0 72.344799,24.6145604,0 72.3447561,24.6121024,0 72.3440265,24.6099175,0 72.3415803,24.6083958,0 72.3384904,24.6053914,0 72.3382759,24.6035965,0 72.3384046,24.6015675,0 72.3384046,24.6000457,0 72.3370313,24.5990312,0 72.3359155,24.598602,0 72.3330402,24.5987971,0 72.3309373,24.5992653,0 72.3289203,24.5989532,0 72.3271608,24.5977045,0 72.3258304,24.5980947,0 72.3244571,24.5979777,0 72.3221826,24.5966119,0 72.3186636,24.5954023,0 72.316904,24.5944267,0 72.3136425,24.5942706,0 72.3122692,24.5944657,0 72.3102092,24.5952462,0 72.3081922,24.5960266,0 72.3074197,24.5966509,0 72.306776,24.5978606,0 72.3058748,24.5984459,0 72.3047161,24.5996555,0 72.3046732,24.6010212,0 72.3044157,24.6023089,0 72.3036861,24.6034405,0 72.3029565,24.6051963,0 72.3001241,24.6065229,0 72.2951459,24.6093712,0 72.2927856,24.6077325,0 72.2906827,24.6057426,0 72.2892236,24.6037526,0 72.2871637,24.604494,0 72.2861766,24.6057426,0 72.2833442,24.6070302,0 72.2800827,24.6074594,0 72.2763919,24.6070302,0 72.2694397,24.6060937,0 72.2633457,24.6052353,0 72.2634744,24.6001238,0 72.2615432,24.5995385,0 72.2580671,24.5980167,0 72.2567796,24.5959486,0 72.2564792,24.5945828,0 72.2546339,24.5929048,0 72.2530889,24.5919683,0 72.2499561,24.5905245,0 72.246952,24.5887684,0 72.246437,24.5863099,0</coordinates></LinearRing></outerBoundaryIs></Polygon>
    </Placemark>
    <Placemark><name>Moderate Fire Zone</name><styleUrl>#zone1</styleUrl>
      <Polygon><extrude>0</extrude><altitudeMode>clampToGround</altitudeMode><outerBoundaryIs><LinearRing><coordinates>72.54901518293765,24.567213952221202,0 72.55831073146692,24.55713434357612,0 72.56021467489454,24.54338239832511,0 72.57746117887291,24.528450132652544,0 72.57958013832904,24.514464721065234,0 72.59211494303072,24.501655142703616,0 72.6049464358032,24.4999246050624,0 72.6121152499504,24.491655140880276,0 72.62494731477594,24.48992460164188,0 72.63211555687587,24.481655139280146,0 72.64494810998691,24.479924632977923,0 72.65459660876724,24.470720300883247,0 72.72827731183553,24.47072029639966,0 72.73792589918257,24.47992461236899,0 72.75075839529512,24.481655146446215,0 72.75792669204266,24.48992457701553,0 72.77075870344845,24.491655144371443,0 72.77792755126413,24.499924977850007,0 72.79956928675891,24.501076603457392,0 72.80952223663157,24.510404495833765,0 72.8395693288678,24.51107653737169,0 72.84792935469235,24.5199245894062,0 72.86180247324722,24.522433669919604,0 72.87648385623996,24.53915012419923,0 72.89180325404406,24.542433667875677,0 72.90329588903222,24.554464747875883,0 72.90403757755578,24.57568441833131,0 72.91329741724421,24.584464746976725,0 72.9154175926208,24.598451653896397,0 72.92329843717648,24.604464746292155,0 72.92456694697593,24.617135624731997,0 72.9664930893628,24.659150526726695,0 72.98957268532223,24.661076601834317,0 72.99953845248042,24.670404072989296,0 73.01957289915762,24.6710766034187,0 73.02953923272712,24.680405360695737,0 73.07827985523653,24.680720340114203,0 73.08794436565552,24.689925022156384,0 73.10957332864122,24.69107661088677,0 73.11794522074052,24.699924603569894,0 73.13180951436858,24.7024336729534,0 73.13457307579715,24.717137868284688,0 73.14790923221983,24.729110241573103,0 73.1487321,24.7312991,0 73.149805,24.7346903,0 73.1492471,24.7395624,0 73.1462001,24.7435575,0 73.1474875,24.7487022,0 73.1531095,24.7546259,0 73.154397,24.7590687,0 73.1552982,24.7610951,0 73.158431,24.7636281,0 73.1598472,24.7653817,0 73.162508,24.7669015,0 73.1637954,24.7685381,0 73.16383858337643,24.768598940471303,0 73.16370197518312,24.81908185045667,0 73.15439460708465,24.827985181881505,0 73.15410926752104,24.83669687651121,0 73.1496334,24.8428658,0 73.1482172,24.8460591,0 73.1387329,24.8455918,0 73.1357288,24.8460202,0 73.1334114,24.8459034,0 73.1319952,24.844073,0 73.1311369,24.8428658,0 73.1294632,24.8404512,0 73.1292915,24.8399839,0 73.1277036,24.8381534,0 73.1264591,24.8376082,0 73.1255149,24.8378419,0 73.1250429,24.8397891,0 73.1243562,24.8411133,0 73.1231975,24.8423205,0 73.1191206,24.8434889,0 73.1174469,24.8443067,0 73.1127262,24.8453192,0 73.1109237,24.8465264,0 73.1096362,24.8510827,0 73.1079196,24.8580141,0 73.1045722,24.8586371,0 73.1008815,24.8594938,0 73.0943584,24.8598832,0 73.0922984,24.8595717,0 73.0857753,24.8595717,0 73.0802821,24.8605062,0 73.0771922,24.8621416,0 73.0704116,24.8691503,0 73.0618285,24.8810641,0 73.0545329,24.8873709,0 73.0492114,24.8876823,0 73.0438899,24.8866702,0 73.0386542,24.8878381,0 73.0119609,24.9100261,0 73.0036353,24.9137627,0 72.9918766,24.9222084,0 72.9943227,24.9288244,0 72.9955673,24.934156,0 72.9973697,24.9367633,0 72.998228,24.9384366,0 72.9977989,24.9401099,0 72.9973268,24.9413551,0 72.9959964,24.9445459,0 72.9943656,24.9487872,0 72.995181,24.9533397,0 72.9953956,24.9572306,0 72.996726,24.9610824,0 72.9984426,24.9630277,0 73.0009746,24.9644284,0 73.0046653,24.9651676,0 73.0071115,24.9650898,0 73.0094289,24.9648563,0 73.0117464,24.9667238,0 73.0155658,24.9685523,0 73.0184841,24.9678131,0 73.0223035,24.9667238,0 73.0269813,24.9660624,0 73.0305004,24.9685134,0 73.0369806,24.9711589,0 73.0390405,24.9729873,0 73.0395984,24.9813901,0 73.0417013,24.9866804,0 73.045392,24.9943821,0 73.049941,24.9999053,0 73.0524301,25.0044948,0 73.0534601,25.0079951,0 73.0542326,25.0090841,0 73.0627298,25.0146454,0 73.0658626,25.0161621,0 73.0674505,25.0170955,0 73.0696821,25.0199732,0 73.0726003,25.0227343,0 73.076291,25.0254175,0 73.0821704,25.0281784,0 73.0881786,25.0300838,0 73.0958175,25.0337778,0 73.104701,25.0368107,0 73.1082201,25.0388326,0 73.111267,25.0415543,0 73.1138849,25.047814,0 73.1160736,25.0510798,0 73.1205797,25.0552009,0 73.125472,25.0613433,0 73.1274461,25.0636369,0 73.1298065,25.0667857,0 73.1307077,25.0707507,0 73.1312227,25.0762315,0 73.131926,25.0907309,0 73.1357067,25.0974136,0 73.1358361,25.0983856,0 73.1336903,25.0998818,0 73.1323814,25.1008923,0 73.1303859,25.1026605,0 73.1287122,25.1058471,0 73.1268668,25.1085868,0 73.1256437,25.1104909,0 73.1244206,25.1120647,0 73.1233048,25.1130751,0 73.1220603,25.1142991,0 73.1212663,25.1144934,0 73.1202364,25.1134636,0 73.1199574,25.1122396,0 73.1200433,25.1106658,0 73.1208372,25.1093251,0 73.1189704,25.1082759,0 73.1165027,25.1074404,0 73.1150007,25.1077513,0 73.1137561,25.1083342,0 73.1124258,25.1091503,0 73.1102371,25.1101995,0 73.1074047,25.1119093,0 73.1059026,25.1134248,0 73.1055164,25.1156009,0 73.1043577,25.1179712,0 73.1037998,25.1203803,0 73.1024265,25.1206911,0 73.0989503,25.1204969,0 73.0955171,25.1231391,0 73.0927705,25.1259366,0 73.0893373,25.1302882,0 73.0857753,25.1336296,0 73.0818271,25.1346786,0 73.0777502,25.1379809,0 73.0721712,25.1455177,0 73.065648,25.149791,0 73.0608415,25.1524325,0 73.0547046,25.1591139,0 73.0426025,25.1624933,0 73.042345,25.1589585,0 73.0402851,25.1520052,0 73.038268,25.1451293,0 73.0377531,25.1426818,0 73.0393409,25.1401566,0 73.0411005,25.1368154,0 73.0436325,25.132736,0 73.0447053,25.1256646,0 73.0446624,25.1183597,0 73.0482244,25.1052642,0 73.0445766,25.1035155,0 73.0380535,25.1017278,0 73.0336761,25.0980359,0 73.0305433,25.0955874,0 73.027153,25.093139,0 73.0247926,25.0903795,0 73.0219602,25.0889415,0 73.0205869,25.0913123,0 73.0193853,25.0934499,0 73.017497,25.0947324,0 73.0131197,25.0952765,0 73.0065107,25.0970643,0 73.0032491,25.0982302,0 73.0003738,25.0999013,0 72.9968547,25.1036709,0 72.9958248,25.1081399,0 72.9943227,25.1202637,0 72.9944086,25.1290838,0 72.9959535,25.1322697,0 72.9958248,25.1339404,0 72.9956102,25.1351059,0 72.9962968,25.1368931,0 72.9969406,25.1387579,0 72.9970693,25.1411278,0 72.9950094,25.1415163,0 72.9959106,25.1440026,0 72.9962539,25.1456343,0 72.9956102,25.1468774,0 72.993164,25.1477321,0 72.9900312,25.1485867,0 72.9863834,25.1486644,0 72.9849243,25.1482759,0 72.9848814,25.1464889,0 72.9846668,25.1451293,0 72.9811477,25.14443,0 72.9805898,25.1433811,0 72.9808902,25.141089,0 72.9820489,25.1393018,0 72.9816627,25.1382529,0 72.9797315,25.1389133,0 72.9776716,25.137437,0 72.9752254,25.1379421,0 72.9713201,25.1419436,0 72.9672861,25.1417494,0 72.9634237,25.1417882,0 72.9603338,25.1418271,0 72.9564714,25.1416328,0 72.9502916,25.1420602,0 72.950592,25.1488586,0 72.9501628,25.1568998,0 72.9476308,25.162571,0 72.9461717,25.1645519,0 72.9456567,25.1668436,0 72.9460001,25.1703393,0 72.9479312,25.171388,0 72.9482317,25.1724367,0 72.9476308,25.1757768,0 72.9477596,25.1772915,0 72.9475021,25.1786509,0 72.9460001,25.1807481,0 72.9439401,25.183622,0 72.9427385,25.1858745,0 72.9469871,25.1862628,0 72.9476308,25.1854473,0 72.9485321,25.1835443,0 72.9499054,25.1812141,0 72.9577159,25.1819132,0 72.957673,25.1833501,0 72.9572868,25.1848647,0 72.9564285,25.1866512,0 72.9555273,25.1887094,0 72.9549264,25.1899521,0 72.9594326,25.1939131,0 72.9630804,25.1938743,0 72.9688739,25.193719,0 72.9735088,25.194418,0 72.9717493,25.2019901,0 72.9724359,25.205213,0 72.9744959,25.2119303,0 72.9746675,25.2152305,0 72.974925,25.2183754,0 72.9750109,25.2200643,0 72.9735517,25.2203361,0 72.9734444,25.2213067,0 72.9732942,25.2221996,0 72.9731011,25.223209,0 72.9728436,25.2241214,0 72.9712987,25.2246067,0 72.9682731,25.2252084,0 72.9670715,25.2253831,0 72.9667067,25.2245096,0 72.9662776,25.2234031,0 72.9641747,25.2221996,0 72.961514,25.2200255,0 72.9600119,25.2191325,0 72.9582953,25.217696,0 72.9570722,25.21657,0 72.9557419,25.215677,0 72.9537892,25.2155994,0 72.9534888,25.2162206,0 72.9517293,25.2166671,0 72.9496264,25.2173077,0 72.9473734,25.2176571,0 72.9463005,25.2182201,0 72.9429316,25.2188413,0 72.9423523,25.2202972,0 72.9415369,25.2225296,0 72.9417085,25.223209,0 72.9408073,25.224102,0 72.938683,25.2240437,0 72.9384899,25.2245096,0 72.938447,25.2259266,0 72.9377818,25.227169,0 72.9371166,25.2288577,0 72.9375243,25.2314393,0 72.9382324,25.2343218,0 72.9388761,25.2369809,0 72.938801,25.2386501,0 72.9379964,25.2398923,0 72.9363969,25.2434945,0 72.9331347,25.243859,0 72.9286516,25.2444786,0 72.9214349,25.2462281,0 72.9198312,25.2502739,0 72.91785217343741,25.25377886777636,0 72.9119389710743,25.253746442878118,0 72.9091155,25.2503468,0 72.9036665,25.2497454,0 72.9020628,25.2497454,0 72.9014432,25.2503832,0 72.8999306,25.2529528,0 72.8970694,25.2509117,0 72.897197,25.2484879,0 72.8963405,25.2457361,0 72.8953017,25.2453169,0 72.8897252,25.2448978,0 72.886372,25.2453169,0 72.88609440444336,25.24560835629501,0 72.88573438558058,25.24520613196815,0 72.87104273251413,25.242287252597386,0 72.82690126183742,25.195986483404557,0 72.81104473006663,25.192287255905974,0 72.77018638502958,25.151338634408344,0 72.7678236885311,25.136802034569694,0 72.74954891652789,25.12025628396445,0 72.74846303465317,25.09797918009201,0 72.73915719151458,25.089081879467166,0 72.73885598155036,25.05924137464295,0 72.72915939942347,25.0490818768991,0 72.72885886260502,25.00924249138025,0 72.71955515483579,25.00025627959969,0 72.71783358982455,24.986805384657103,0 72.66692036463195,24.935986467730373,0 72.652101147594,24.933065842879376,0 72.63105595831713,24.91228732400196,0 72.62783950131018,24.89680737800236,0 72.61019899554677,24.881338618173185,0 72.6084769785621,24.867984293357658,0 72.59956239346164,24.860256264133966,0 72.59847879042333,24.837984959141394,0 72.58917147891877,24.82908185473763,0 72.58887089291463,24.7992471475415,0 72.57917366328077,24.78908184700521,0 72.57887374484989,24.74924825734182,0 72.56917638937186,24.739081840291227,0 72.5688760161002,24.709249144789176,0 72.55917856564571,24.699081831595475,0 72.55887885772057,24.659250252232756,0 72.54918128032097,24.649081817502505,0 72.54901518293765,24.567213952221202,0</coordinates></LinearRing></outerBoundaryIs></Polygon>
    </Placemark>
    <Placemark><name>High Fire Zone</name><styleUrl>#zone2</styleUrl>
      <Polygon><extrude>0</extrude><altitudeMode>clampToGround</altitudeMode><outerBoundaryIs><LinearRing><coordinates>72.63900459493816,24.75750707032837,0 72.6390096322905,24.66721397437606,0 72.64830461404367,24.657136533317388,0 72.65021009649435,24.643382403482395,0 72.67330214753676,24.621076607701315,0 72.69493591263343,24.61992498771697,0 72.70632601525038,24.6105654797164,0 72.71957192714642,24.611076731393247,0 72.72953330801774,24.620404499698513,0 72.75957163559953,24.621076541480303,0 72.76793904096341,24.629924592252234,0 72.80180714606082,24.64243367363379,0 72.86266665693773,24.703382412447425,0 72.86542577044722,24.718454310986075,0 72.88649919309204,24.739150125619688,0 72.9007663871877,24.74165513610548,0 72.90954647846405,24.750404497076108,0 72.9382810277612,24.750720405557775,0 72.94795053136379,24.75992499569624,0 72.96957479990597,24.761076600616725,0 72.97795142087028,24.769924587439295,0 73.01181264713698,24.782433668469395,0 73.01405071913447,24.805689525757778,0 73.0237017690246,24.815639168214847,0 73.02458047079908,24.837140512901165,0 73.03267313386011,24.84338241247625,0 73.0345817085591,24.857140959117192,0 73.04370450412128,24.86563917161797,0 73.04456957542689,24.886799467969475,0 73.0438899,24.8866702,0 73.0386542,24.8878381,0 73.0119609,24.9100261,0 73.0036353,24.9137627,0 72.9918766,24.9222084,0 72.9943227,24.9288244,0 72.9955673,24.934156,0 72.9973697,24.9367633,0 72.998228,24.9384366,0 72.9977989,24.9401099,0 72.9973268,24.9413551,0 72.9959964,24.9445459,0 72.9943656,24.9487872,0 72.995181,24.9533397,0 72.9953956,24.9572306,0 72.996726,24.9610824,0 72.9984426,24.9630277,0 73.0009746,24.9644284,0 73.0046653,24.9651676,0 73.0071115,24.9650898,0 73.0094289,24.9648563,0 73.0117464,24.9667238,0 73.0155658,24.9685523,0 73.0184841,24.9678131,0 73.0223035,24.9667238,0 73.0269813,24.9660624,0 73.0305004,24.9685134,0 73.0369806,24.9711589,0 73.0390405,24.9729873,0 73.0395984,24.9813901,0 73.0417013,24.9866804,0 73.045392,24.9943821,0 73.049941,24.9999053,0 73.0524301,25.0044948,0 73.0534601,25.0079951,0 73.0542326,25.0090841,0 73.0627298,25.0146454,0 73.0658626,25.0161621,0 73.0674505,25.0170955,0 73.0696821,25.0199732,0 73.0726003,25.0227343,0 73.076291,25.0254175,0 73.0821704,25.0281784,0 73.0881786,25.0300838,0 73.0958175,25.0337778,0 73.104701,25.0368107,0 73.1082201,25.0388326,0 73.111267,25.0415543,0 73.1138849,25.047814,0 73.1160736,25.0510798,0 73.1205797,25.0552009,0 73.125472,25.0613433,0 73.1274461,25.0636369,0 73.1298065,25.0667857,0 73.1307077,25.0707507,0 73.1312227,25.0762315,0 73.13141698715872,25.08023697025306,0 73.12441036011644,25.08797938371888,0 73.12268527678523,25.101338632802264,0 73.116543511053,25.107454217577004,0 73.1165027,25.1074404,0 73.1150007,25.1077513,0 73.1137561,25.1083342,0 73.1124258,25.1091503,0 73.1102371,25.1101995,0 73.1074047,25.1119093,0 73.1059026,25.1134248,0 73.1055164,25.1156009,0 73.1043577,25.1179712,0 73.10387104172013,25.120072667040766,0 73.10349217269328,25.12044992103468,0 73.1024265,25.1206911,0 73.0989503,25.1204969,0 73.0955171,25.1231391,0 73.0927705,25.1259366,0 73.0893373,25.1302882,0 73.0857753,25.1336296,0 73.0818271,25.1346786,0 73.0777502,25.1379809,0 73.07309402009088,25.14427104101794,0 73.06713134853442,25.145206081468295,0 73.0582869832846,25.154000712460114,0 73.04103816581338,25.154547212971597,0 73.0402851,25.1520052,0 73.038268,25.1451293,0 73.0377531,25.1426818,0 73.0393409,25.1401566,0 73.0411005,25.1368154,0 73.0436325,25.132736,0 73.0447053,25.1256646,0 73.0446624,25.1183597,0 73.0482244,25.1052642,0 73.0445766,25.1035155,0 73.0380535,25.1017278,0 73.0336761,25.0980359,0 73.0305433,25.0955874,0 73.027153,25.093139,0 73.0247926,25.0903795,0 73.0219602,25.0889415,0 73.0205869,25.0913123,0 73.0193853,25.0934499,0 73.017497,25.0947324,0 73.0131197,25.0952765,0 73.0065107,25.0970643,0 73.0032491,25.0982302,0 73.0003738,25.0999013,0 72.9968547,25.1036709,0 72.9958248,25.1081399,0 72.9943227,25.1202637,0 72.9944086,25.1290838,0 72.9959535,25.1322697,0 72.9958248,25.1339404,0 72.9956102,25.1351059,0 72.9962968,25.1368931,0 72.9969406,25.1387579,0 72.9970693,25.1411278,0 72.9950094,25.1415163,0 72.9959106,25.1440026,0 72.9962539,25.1456343,0 72.9956102,25.1468774,0 72.993164,25.1477321,0 72.9900312,25.1485867,0 72.9863834,25.1486644,0 72.9849243,25.1482759,0 72.9848814,25.1464889,0 72.9846668,25.1451293,0 72.9811477,25.14443,0 72.9805898,25.1433811,0 72.9808902,25.141089,0 72.9820489,25.1393018,0 72.9816627,25.1382529,0 72.9797315,25.1389133,0 72.9776716,25.137437,0 72.9752254,25.1379421,0 72.9713201,25.1419436,0 72.9672861,25.1417494,0 72.9634237,25.1417882,0 72.9603338,25.1418271,0 72.9564714,25.1416328,0 72.9502916,25.1420602,0 72.950592,25.1488586,0 72.9501628,25.1568998,0 72.9476308,25.162571,0 72.9461717,25.1645519,0 72.9456567,25.1668436,0 72.9460001,25.1703393,0 72.9479312,25.171388,0 72.9482317,25.1724367,0 72.94793213595979,25.174101825396388,0 72.9263259259485,25.174156020920183,0 72.91444136368514,25.164630225121062,0 72.88104574699169,25.162287091858587,0 72.81954995546594,25.100256278416225,0 72.81846424555623,25.07797963296035,0 72.80915829270121,25.069081873145915,0 72.8084660714525,25.04798030363679,0 72.79915994796441,25.03908187109561,0 72.79886058400608,24.979243170147427,0 72.78955670854937,24.970256275768406,0 72.78783621662204,24.946806282441575,0 72.77019667117375,24.93133862710608,0 72.76847395561822,24.917983203977172,0 72.75692256054248,24.905986479969222,0 72.7421020844129,24.903065847643944,0 72.71692474920575,24.875986476612184,0 72.70210301754888,24.873065844182385,0 72.67105872806114,24.842287322119876,0 72.66847938993917,24.827985195576275,0 72.65956445661541,24.82025626205301,0 72.65848059466545,24.807985639028317,0 72.64956548540749,24.800256257578614,0 72.64887260317413,24.76924782987779,0 72.63900459493816,24.75750707032837,0</coordinates></LinearRing></outerBoundaryIs></Polygon>
    </Placemark>
    <Placemark><name>Very High Fire Zone</name><styleUrl>#zone3</styleUrl>
      <Polygon><extrude>0</extrude><altitudeMode>clampToGround</altitudeMode><outerBoundaryIs><LinearRing><coordinates>72.85899338568483,24.9572139946522,0 72.86828671552433,24.94714296068614,0 72.87019668603811,24.933382409401126,0 72.8782879581349,24.927142513170654,0 72.88019761804182,24.913382408926278,0 72.89459158761645,24.90072036372651,0 72.94957740498086,24.90107646273431,0 72.95796392396981,24.90992460005256,0 72.97181776841938,24.912433666171918,0 72.98651388788491,24.9291501285329,0 72.99473594024322,24.930594632750054,0 72.9955673,24.934156,0 72.9973697,24.9367633,0 72.998228,24.9384366,0 72.9977989,24.9401099,0 72.9973268,24.9413551,0 72.9959964,24.9445459,0 72.9943656,24.9487872,0 72.995181,24.9533397,0 72.9953956,24.9572306,0 72.996726,24.9610824,0 72.9984426,24.9630277,0 73.0009746,24.9644284,0 73.0046653,24.9651676,0 73.0071115,24.9650898,0 73.0094289,24.9648563,0 73.0117464,24.9667238,0 73.0155658,24.9685523,0 73.0184841,24.9678131,0 73.0223035,24.9667238,0 73.0269813,24.9660624,0 73.0305004,24.9685134,0 73.0369806,24.9711589,0 73.0390405,24.9729873,0 73.0395984,24.9813901,0 73.0417013,24.9866804,0 73.045392,24.9943821,0 73.049941,24.9999053,0 73.0524301,25.0044948,0 73.0534601,25.0079951,0 73.0542326,25.0090841,0 73.0627298,25.0146454,0 73.06371272578139,25.015121269360517,0 73.0637157173104,25.069081866557855,0 73.05440976663873,25.077979628380195,0 73.05268481159226,25.091338627727158,0 73.04124785791582,25.10260323555152,0 73.0380535,25.1017278,0 73.0336761,25.0980359,0 73.0305433,25.0955874,0 73.027153,25.093139,0 73.0247926,25.0903795,0 73.0219602,25.0889415,0 73.0205869,25.0913123,0 73.0193853,25.0934499,0 73.017497,25.0947324,0 73.0131197,25.0952765,0 73.0065107,25.0970643,0 73.0032491,25.0982302,0 73.0003738,25.0999013,0 72.9968547,25.1036709,0 72.9958248,25.1081399,0 72.99458020404413,25.118185324705333,0 72.98828687568654,25.124000677143,0 72.94458712493677,25.12400067723765,0 72.93444604131837,25.114629805909072,0 72.91209538808624,25.11306577201025,0 72.88018965785879,25.081338627614087,0 72.87846484280504,25.067979853331668,0 72.86955202922893,25.060256274209145,0 72.86846606159597,25.047980300891787,0 72.8595530693499,25.040256271086932,0 72.85899338568483,24.9572139946522,0</coordinates></LinearRing></outerBoundaryIs></Polygon>
    </Placemark>
  </Folder>
  <Folder><name>District Boundary</name>
    <Placemark><name>Sirohi District</name><styleUrl>#boundary</styleUrl>
      <Polygon><extrude>0</extrude><altitudeMode>clampToGround</altitudeMode><outerBoundaryIs><LinearRing><coordinates>72.246437,24.5863099,0 72.2477245,24.5836172,0 72.2498703,24.5811586,0 72.2509431,24.5791292,0 72.2521019,24.5762022,0 72.2614574,24.5667961,0 72.2628736,24.5648836,0 72.2633457,24.5634004,0 72.2639894,24.5608634,0 72.2656631,24.5601998,0 72.2680664,24.5610195,0 72.2693538,24.5618392,0 72.2710275,24.5631272,0 72.2733879,24.5644153,0 72.2762203,24.5655081,0 72.2792244,24.5651959,0 72.28549,24.5657423,0 72.2866058,24.5620734,0 72.2878503,24.5581311,0 72.2884082,24.5547742,0 72.2898244,24.551222,0 72.289524,24.5480601,0 72.291584,24.5470451,0 72.2947597,24.546889,0 72.2973346,24.546928,0 72.2993087,24.5473184,0 72.3020553,24.5486066,0 72.3043298,24.5498167,0 72.3122263,24.551222,0 72.3185348,24.5510268,0 72.3221397,24.551183,0 72.3233842,24.5515343,0 72.3242855,24.5528224,0 72.326045,24.553486,0 72.3278904,24.5527444,0 72.3291349,24.5529786,0 72.329607,24.5541887,0 72.329092,24.5557891,0 72.3277616,24.5567259,0 72.3272037,24.5579749,0 72.3269891,24.5594192,0 72.3272037,24.561644,0 72.3278474,24.5644153,0 72.3292207,24.5660155,0 72.3298645,24.5673816,0 72.3307657,24.5694892,0 72.3360443,24.565352,0 72.3385334,24.5640249,0 72.3429107,24.5632834,0 72.3461294,24.5631272,0 72.3493051,24.5631272,0 72.3530817,24.5642591,0 72.3532962,24.5607072,0 72.35394,24.5563746,0 72.3581457,24.5552035,0 72.3591327,24.5520808,0 72.359476,24.551183,0 72.361021,24.5488799,0 72.3619651,24.5479039,0 72.3636388,24.5475917,0 72.3654413,24.5475917,0 72.3679733,24.5473574,0 72.3687028,24.5462644,0 72.369132,24.5443516,0 72.369132,24.542712,0 72.3687028,24.5414628,0 72.3678875,24.5402916,0 72.36763,24.5380273,0 72.3681879,24.5370904,0 72.3690033,24.5356069,0 72.3707199,24.5313905,0 72.3720932,24.5294384,0 72.3735523,24.5279548,0 72.3746681,24.5262759,0 72.3762989,24.5239723,0 72.3778867,24.521044,0 72.3785734,24.518467,0 72.3788738,24.5156948,0 72.3791313,24.5133129,0 72.3805475,24.5112825,0 72.3841524,24.5108529,0 72.385354,24.5109701,0 72.3866844,24.5106577,0 72.3875856,24.5075729,0 72.3906755,24.5099939,0 72.391963,24.5110091,0 72.3940229,24.5119072,0 72.3977565,24.5133129,0 72.4006748,24.514172,0 72.4032926,24.5152262,0 72.4087429,24.5168271,0 72.4129486,24.5177252,0 72.416296,24.5206926,0 72.4194717,24.5188575,0 72.4219608,24.5178814,0 72.4237203,24.5171004,0 72.4246645,24.517569,0 72.4275827,24.5169833,0 72.428441,24.516749,0 72.429986,24.5163976,0 72.4330329,24.5162414,0 72.4348354,24.5168662,0 72.4373245,24.5172176,0 72.4385261,24.5162414,0 72.4394273,24.5156167,0 72.4407577,24.5147577,0 72.4411439,24.5130786,0 72.4414444,24.5106186,0 72.4429035,24.5081195,0 72.4430751,24.5066748,0 72.4418735,24.5027698,0 72.4374103,24.4932411,0 72.4301147,24.4799623,0 72.4321747,24.4693772,0 72.4328828,24.4655882,0 72.4340629,24.4597678,0 72.4358225,24.4581076,0 72.4384832,24.455295,0 72.4426245,24.4514274,0 72.4447274,24.4493178,0 72.4455428,24.4487514,0 72.4484825,24.4462901,0 72.4504137,24.4440046,0 72.4519157,24.4414456,0 72.4520445,24.4393163,0 72.4519157,24.4373628,0 72.4518728,24.4357413,0 72.4524736,24.4338073,0 72.4536967,24.432049,0 72.4560571,24.4289427,0 72.4577951,24.4263443,0 72.4583745,24.4241757,0 72.4578829,24.4206815,0 72.4577522,24.4144066,0 72.4600267,24.4141331,0 72.4690818,24.4141722,0 72.4788236,24.4144066,0 72.50041,24.417103,0 72.498908,24.4230035,0 72.4961185,24.4389842,0 72.4938869,24.451447,0 72.492342,24.4591819,0 72.497406,24.458635,0 72.5045728,24.4580881,0 72.5047445,24.4663304,0 72.5046157,24.4694163,0 72.5048732,24.4717599,0 72.5106668,24.4785952,0 72.5143146,24.4842585,0 72.5185632,24.4962091,0 72.5198936,24.5007001,0 72.5225114,24.5019106,0 72.5265026,24.5032774,0 72.5334978,24.5038632,0 72.5340986,24.5047223,0 72.5348281,24.5069871,0 72.5356865,24.5103063,0 72.5371027,24.5169442,0 72.5374675,24.518057,0 72.5379824,24.518877,0 72.5401497,24.5193455,0 72.5426387,24.5176081,0 72.544527,24.5149529,0 72.5495051,24.5079243,0 72.5578902,24.4978749,0 72.5690056,24.4863139,0 72.5764131,24.4784585,0 72.5991475,24.4744648,0 72.6098441,24.473088,0 72.6413226,24.4656077,0 72.6474595,24.4639671,0 72.654283,24.4624632,0 72.6565361,24.4622093,0 72.6587891,24.4623265,0 72.6643038,24.4633421,0 72.6694321,24.4647288,0 72.6717925,24.4650023,0 72.6738524,24.4648851,0 72.6783156,24.464846,0 72.6812768,24.4648656,0 72.6837659,24.4637523,0 72.6880789,24.4579709,0 72.6879287,24.4559591,0 72.6873171,24.4518474,0 72.6797962,24.4428521,0 72.6820707,24.4332798,0 72.6874388,24.4164293,0 72.6920271,24.4057897,0 72.6970696,24.4012562,0 72.7008676,24.3948857,0 72.7055015,24.389913,0 72.71945,24.3748537,0 72.7240419,24.3675436,0 72.7321623,24.363324,0 72.7351999,24.3633998,0 72.746315,24.3645726,0 72.7567863,24.3661363,0 72.7695322,24.3682864,0 72.7779865,24.3678564,0 72.7895736,24.3655499,0 72.7984142,24.363908,0 72.8014183,24.3638689,0 72.8052806,24.3634389,0 72.8066968,24.363908,0 72.8070831,24.3646898,0 72.8088426,24.3670354,0 72.8127908,24.3694591,0 72.8154087,24.3705537,0 72.8176403,24.3706319,0 72.8206014,24.3703973,0 72.823863,24.3700064,0 72.8270816,24.3695764,0 72.8301286,24.3695764,0 72.8360509,24.3697719,0 72.8420162,24.3707491,0 72.8469514,24.3717655,0 72.848711,24.3720782,0 72.85223,24.3717264,0 72.8545045,24.3704364,0 72.8555774,24.3685991,0 72.8576374,24.3684818,0 72.858324,24.369811,0 72.8597831,24.3690291,0 72.8631305,24.3674654,0 72.8695678,24.3637125,0 72.8701257,24.3659408,0 72.8764343,24.3634389,0 72.8884077,24.3580829,0 72.8917121,24.3566364,0 72.8936433,24.3546425,0 72.8956604,24.3522967,0 72.9008531,24.3479959,0 72.9047155,24.3420919,0 72.9066467,24.3395113,0 72.9084491,24.3379864,0 72.9102087,24.3373607,0 72.9126977,24.337478,0 72.9139423,24.3380646,0 72.916131,24.3404497,0 72.9198217,24.3445552,0 72.9253578,24.3448289,0 72.9317522,24.346432,0 72.9366445,24.3476832,0 72.9447555,24.3522185,0 72.9496049,24.3562454,0 72.9537677,24.3567928,0 72.9594698,24.3609593,0 72.9624367,24.3632825,0 72.9671788,24.3664881,0 72.967608,24.36727,0 72.9683161,24.3677586,0 72.9702687,24.3679736,0 72.9725432,24.3680323,0 72.9745602,24.36899,0 72.9757619,24.3706514,0 72.9770708,24.3728991,0 72.9775643,24.3753423,0 72.9773068,24.3777072,0 72.9761266,24.3805216,0 72.974453,24.3830428,0 72.9679513,24.3865215,0 72.9617929,24.3901565,0 72.9606557,24.3907232,0 72.9591107,24.3912118,0 72.9571366,24.3913095,0 72.9553556,24.3912509,0 72.9540252,24.3912509,0 72.9533386,24.3917981,0 72.9520511,24.3939086,0 72.9513645,24.3947294,0 72.9502702,24.3955306,0 72.9493046,24.3964686,0 72.9489827,24.3978365,0 72.9497981,24.3997516,0 72.9506349,24.4007286,0 72.9516434,24.401862,0 72.9525661,24.4026241,0 72.9547119,24.4029368,0 72.9571366,24.4036598,0 72.9593897,24.4045586,0 72.9621362,24.4057897,0 72.9655695,24.4093459,0 72.9672432,24.4109677,0 72.9681229,24.4139572,0 72.9686594,24.4146802,0 72.9699254,24.4149342,0 72.970376,24.4156571,0 72.9714274,24.4181971,0 72.9725647,24.4226909,0 72.973423,24.4265983,0 72.97544,24.4271258,0 72.9767489,24.4278292,0 72.9784655,24.4310918,0 72.9798388,24.4323225,0 72.9804182,24.4329672,0 72.9816413,24.4351553,0 72.9805469,24.437226,0 72.9794097,24.4378902,0 72.977972,24.4384958,0 72.974453,24.4398047,0 72.9732728,24.4424419,0 72.9737234,24.4444148,0 72.9743027,24.4454111,0 72.9747534,24.4461534,0 72.9752254,24.4472473,0 72.9750109,24.4486928,0 72.9744959,24.4493569,0 72.9730367,24.4495913,0 72.9718137,24.4498453,0 72.9692602,24.4499625,0 72.9677796,24.4501773,0 72.967844,24.4512517,0 72.9693889,24.4531073,0 72.9730367,24.4552364,0 72.9748821,24.4567013,0 72.9793668,24.4621312,0 72.9811692,24.464514,0 72.9839372,24.4667601,0 72.9866409,24.4699436,0 72.987349,24.4730879,0 72.9884219,24.4742011,0 72.989645,24.4759002,0 72.9916191,24.4778921,0 73.0006313,24.4837507,0 73.0014038,24.4844928,0 73.0019617,24.4850787,0 73.0044078,24.4863675,0 73.0066824,24.487461,0 73.0079913,24.4878711,0 73.0096864,24.4881054,0 73.011682,24.4887303,0 73.0127656,24.4898043,0 73.0131519,24.4908685,0 73.01386,24.4915129,0 73.0148148,24.4924502,0 73.0153513,24.4933094,0 73.0153298,24.4945298,0 73.015008,24.4954964,0 73.0140746,24.4962774,0 73.0135059,24.4979665,0 73.0152225,24.5020278,0 73.0162525,24.5035117,0 73.0181407,24.5060109,0 73.0192565,24.50769,0 73.0202865,24.5094862,0 73.0212736,24.5122196,0 73.0220031,24.5164757,0 73.0219173,24.5195213,0 73.0252647,24.5217468,0 73.0285692,24.5235038,0 73.0314016,24.5252217,0 73.0344486,24.5270958,0 73.0383968,24.5302973,0 73.0429029,24.5355288,0 73.0492544,24.541697,0 73.0487394,24.5447029,0 73.0482673,24.5469671,0 73.0483102,24.5492312,0 73.0484819,24.551183,0 73.0493402,24.5527444,0 73.0512714,24.5540325,0 73.0530309,24.5541106,0 73.0557346,24.553486,0 73.0595111,24.5624247,0 73.0658197,24.5736653,0 73.0710125,24.5801439,0 73.0703687,24.5830318,0 73.0728149,24.5899001,0 73.074789,24.5904854,0 73.0780935,24.5910708,0 73.0856466,24.6030893,0 73.0882644,24.6060937,0 73.0887794,24.6081227,0 73.0882644,24.6121024,0 73.0885219,24.6150676,0 73.0887365,24.6178767,0 73.0891227,24.6193982,0 73.0898094,24.6225584,0 73.089981,24.6250942,0 73.0899381,24.6259915,0 73.0892086,24.627747,0 73.0883073,24.6289563,0 73.0875778,24.6298926,0 73.0875778,24.6321552,0 73.0908393,24.6332085,0 73.0927276,24.6338717,0 73.0948305,24.6346909,0 73.0965471,24.6355881,0 73.0980062,24.6373825,0 73.1007099,24.639723,0 73.1030273,24.6422194,0 73.1048297,24.6440527,0 73.106246,24.6475243,0 73.1080913,24.65357,0 73.1089067,24.6570022,0 73.1126833,24.6572752,0 73.1146574,24.6572752,0 73.1162023,24.6586403,0 73.1190776,24.6622284,0 73.1238412,24.6677274,0 73.1258583,24.6685074,0 73.1301498,24.6688194,0 73.1341409,24.6682344,0 73.136115,24.6693654,0 73.1369733,24.6726802,0 73.1382179,24.675176,0 73.1384754,24.6770088,0 73.1389904,24.6782957,0 73.1410503,24.6788416,0 73.1420803,24.6791146,0 73.1422948,24.6799335,0 73.1408786,24.6809474,0 73.1395912,24.6822732,0 73.1385183,24.683521,0 73.1423378,24.6864455,0 73.1441402,24.6878883,0 73.1453418,24.689214,0 73.1462431,24.6907737,0 73.146801,24.693854,0 73.1477451,24.6989617,0 73.1492471,24.7042642,0 73.148818,24.7154531,0 73.1475734,24.7206574,0 73.1462001,24.7232692,0 73.1464576,24.725608,0 73.1475305,24.7281028,0 73.1487321,24.7312991,0 73.149805,24.7346903,0 73.1492471,24.7395624,0 73.1462001,24.7435575,0 73.1474875,24.7487022,0 73.1531095,24.7546259,0 73.154397,24.7590687,0 73.1552982,24.7610951,0 73.158431,24.7636281,0 73.1598472,24.7653817,0 73.162508,24.7669015,0 73.1637954,24.7685381,0 73.16504,24.7702916,0 73.1664133,24.7721231,0 73.1681299,24.774539,0 73.1703186,24.7771496,0 73.1725072,24.7805785,0 73.1714773,24.795228,0 73.171134,24.8073436,0 73.171091,24.8097978,0 73.1683874,24.819536,0 73.1674861,24.8231974,0 73.1646967,24.824327,0 73.1621646,24.8260018,0 73.1576585,24.8318051,0 73.1496334,24.8428658,0 73.1482172,24.8460591,0 73.1387329,24.8455918,0 73.1357288,24.8460202,0 73.1334114,24.8459034,0 73.1319952,24.844073,0 73.1311369,24.8428658,0 73.1294632,24.8404512,0 73.1292915,24.8399839,0 73.1277036,24.8381534,0 73.1264591,24.8376082,0 73.1255149,24.8378419,0 73.1250429,24.8397891,0 73.1243562,24.8411133,0 73.1231975,24.8423205,0 73.1191206,24.8434889,0 73.1174469,24.8443067,0 73.1127262,24.8453192,0 73.1109237,24.8465264,0 73.1096362,24.8510827,0 73.1079196,24.8580141,0 73.1045722,24.8586371,0 73.1008815,24.8594938,0 73.0943584,24.8598832,0 73.0922984,24.8595717,0 73.0857753,24.8595717,0 73.0802821,24.8605062,0 73.0771922,24.8621416,0 73.0704116,24.8691503,0 73.0618285,24.8810641,0 73.0545329,24.8873709,0 73.0492114,24.8876823,0 73.0438899,24.8866702,0 73.0386542,24.8878381,0 73.0119609,24.9100261,0 73.0036353,24.9137627,0 72.9918766,24.9222084,0 72.9943227,24.9288244,0 72.9955673,24.934156,0 72.9973697,24.9367633,0 72.998228,24.9384366,0 72.9977989,24.9401099,0 72.9973268,24.9413551,0 72.9959964,24.9445459,0 72.9943656,24.9487872,0 72.995181,24.9533397,0 72.9953956,24.9572306,0 72.996726,24.9610824,0 72.9984426,24.9630277,0 73.0009746,24.9644284,0 73.0046653,24.9651676,0 73.0071115,24.9650898,0 73.0094289,24.9648563,0 73.0117464,24.9667238,0 73.0155658,24.9685523,0 73.0184841,24.9678131,0 73.0223035,24.9667238,0 73.0269813,24.9660624,0 73.0305004,24.9685134,0 73.0369806,24.9711589,0 73.0390405,24.9729873,0 73.0395984,24.9813901,0 73.0417013,24.9866804,0 73.045392,24.9943821,0 73.049941,24.9999053,0 73.0524301,25.0044948,0 73.0534601,25.0079951,0 73.0542326,25.0090841,0 73.0627298,25.0146454,0 73.0658626,25.0161621,0 73.0674505,25.0170955,0 73.0696821,25.0199732,0 73.0726003,25.0227343,0 73.076291,25.0254175,0 73.0821704,25.0281784,0 73.0881786,25.0300838,0 73.0958175,25.0337778,0 73.104701,25.0368107,0 73.1082201,25.0388326,0 73.111267,25.0415543,0 73.1138849,25.047814,0 73.1160736,25.0510798,0 73.1205797,25.0552009,0 73.125472,25.0613433,0 73.1274461,25.0636369,0 73.1298065,25.0667857,0 73.1307077,25.0707507,0 73.1312227,25.0762315,0 73.131926,25.0907309,0 73.1357067,25.0974136,0 73.1358361,25.0983856,0 73.1336903,25.0998818,0 73.1323814,25.1008923,0 73.1303859,25.1026605,0 73.1287122,25.1058471,0 73.1268668,25.1085868,0 73.1256437,25.1104909,0 73.1244206,25.1120647,0 73.1233048,25.1130751,0 73.1220603,25.1142991,0 73.1212663,25.1144934,0 73.1202364,25.1134636,0 73.1199574,25.1122396,0 73.1200433,25.1106658,0 73.1208372,25.1093251,0 73.1189704,25.1082759,0 73.1165027,25.1074404,0 73.1150007,25.1077513,0 73.1137561,25.1083342,0 73.1124258,25.1091503,0 73.1102371,25.1101995,0 73.1074047,25.1119093,0 73.1059026,25.1134248,0 73.1055164,25.1156009,0 73.1043577,25.1179712,0 73.1037998,25.1203803,0 73.1024265,25.1206911,0 73.0989503,25.1204969,0 73.0955171,25.1231391,0 73.0927705,25.1259366,0 73.0893373,25.1302882,0 73.0857753,25.1336296,0 73.0818271,25.1346786,0 73.0777502,25.1379809,0 73.0721712,25.1455177,0 73.065648,25.149791,0 73.0608415,25.1524325,0 73.0547046,25.1591139,0 73.0426025,25.1624933,0 73.042345,25.1589585,0 73.0402851,25.1520052,0 73.038268,25.1451293,0 73.0377531,25.1426818,0 73.0393409,25.1401566,0 73.0411005,25.1368154,0 73.0436325,25.132736,0 73.0447053,25.1256646,0 73.0446624,25.1183597,0 73.0482244,25.1052642,0 73.0445766,25.1035155,0 73.0380535,25.1017278,0 73.0336761,25.0980359,0 73.0305433,25.0955874,0 73.027153,25.093139,0 73.0247926,25.0903795,0 73.0219602,25.0889415,0 73.0205869,25.0913123,0 73.0193853,25.0934499,0 73.017497,25.0947324,0 73.0131197,25.0952765,0 73.0065107,25.0970643,0 73.0032491,25.0982302,0 73.0003738,25.0999013,0 72.9968547,25.1036709,0 72.9958248,25.1081399,0 72.9943227,25.1202637,0 72.9944086,25.1290838,0 72.9959535,25.1322697,0 72.9958248,25.1339404,0 72.9956102,25.1351059,0 72.9962968,25.1368931,0 72.9969406,25.1387579,0 72.9970693,25.1411278,0 72.9950094,25.1415163,0 72.9959106,25.1440026,0 72.9962539,25.1456343,0 72.9956102,25.1468774,0 72.993164,25.1477321,0 72.9900312,25.1485867,0 72.9863834,25.1486644,0 72.9849243,25.1482759,0 72.9848814,25.1464889,0 72.9846668,25.1451293,0 72.9811477,25.14443,0 72.9805898,25.1433811,0 72.9808902,25.141089,0 72.9820489,25.1393018,0 72.9816627,25.1382529,0 72.9797315,25.1389133,0 72.9776716,25.137437,0 72.9752254,25.1379421,0 72.9713201,25.1419436,0 72.9672861,25.1417494,0 72.9634237,25.1417882,0 72.9603338,25.1418271,0 72.9564714,25.1416328,0 72.9502916,25.1420602,0 72.950592,25.1488586,0 72.9501628,25.1568998,0 72.9476308,25.162571,0 72.9461717,25.1645519,0 72.9456567,25.1668436,0 72.9460001,25.1703393,0 72.9479312,25.171388,0 72.9482317,25.1724367,0 72.9476308,25.1757768,0 72.9477596,25.1772915,0 72.9475021,25.1786509,0 72.9460001,25.1807481,0 72.9439401,25.183622,0 72.9427385,25.1858745,0 72.9469871,25.1862628,0 72.9476308,25.1854473,0 72.9485321,25.1835443,0 72.9499054,25.1812141,0 72.9577159,25.1819132,0 72.957673,25.1833501,0 72.9572868,25.1848647,0 72.9564285,25.1866512,0 72.9555273,25.1887094,0 72.9549264,25.1899521,0 72.9594326,25.1939131,0 72.9630804,25.1938743,0 72.9688739,25.193719,0 72.9735088,25.194418,0 72.9717493,25.2019901,0 72.9724359,25.205213,0 72.9744959,25.2119303,0 72.9746675,25.2152305,0 72.974925,25.2183754,0 72.9750109,25.2200643,0 72.9735517,25.2203361,0 72.9734444,25.2213067,0 72.9732942,25.2221996,0 72.9731011,25.223209,0 72.9728436,25.2241214,0 72.9712987,25.2246067,0 72.9682731,25.2252084,0 72.9670715,25.2253831,0 72.9667067,25.2245096,0 72.9662776,25.2234031,0 72.9641747,25.2221996,0 72.961514,25.2200255,0 72.9600119,25.2191325,0 72.9582953,25.217696,0 72.9570722,25.21657,0 72.9557419,25.215677,0 72.9537892,25.2155994,0 72.9534888,25.2162206,0 72.9517293,25.2166671,0 72.9496264,25.2173077,0 72.9473734,25.2176571,0 72.9463005,25.2182201,0 72.9429316,25.2188413,0 72.9423523,25.2202972,0 72.9415369,25.2225296,0 72.9417085,25.223209,0 72.9408073,25.224102,0 72.938683,25.2240437,0 72.9384899,25.2245096,0 72.938447,25.2259266,0 72.9377818,25.227169,0 72.9371166,25.2288577,0 72.9375243,25.2314393,0 72.9382324,25.2343218,0 72.9388761,25.2369809,0 72.938801,25.2386501,0 72.9379964,25.2398923,0 72.9363969,25.2434945,0 72.9331347,25.243859,0 72.9286516,25.2444786,0 72.9214349,25.2462281,0 72.9198312,25.2502739,0 72.916806,25.2556317,0 72.9126874,25.2546476,0 72.9091155,25.2503468,0 72.9036665,25.2497454,0 72.9020628,25.2497454,0 72.9014432,25.2503832,0 72.8999306,25.2529528,0 72.8970694,25.2509117,0 72.897197,25.2484879,0 72.8963405,25.2457361,0 72.8953017,25.2453169,0 72.8897252,25.2448978,0 72.886372,25.2453169,0 72.8860075,25.2456996,0 72.8848958,25.2467202,0 72.8839117,25.2474856,0 72.8826907,25.2481963,0 72.8809412,25.2490893,0 72.8792828,25.2493627,0 72.8773875,25.2492898,0 72.873925,25.2498183,0 72.8701161,25.2504743,0 72.8689498,25.2516589,0 72.8669452,25.2529528,0 72.8663073,25.2544107,0 72.8638835,25.2611354,0 72.8572682,25.266803,0 72.855701,25.2683703,0 72.8543888,25.2699558,0 72.8511996,25.2741837,0 72.8480469,25.2738922,0 72.8468623,25.2736553,0 72.8452586,25.2734912,0 72.84391,25.273637,0 72.8432357,25.2741473,0 72.8423428,25.2750767,0 72.8408666,25.2755688,0 72.8392447,25.2773001,0 72.8379508,25.2800519,0 72.8284925,25.2853733,0 72.8277089,25.2838789,0 72.8273991,25.283314,0 72.8268888,25.282749,0 72.8259958,25.2825121,0 72.8250482,25.2824939,0 72.823572,25.2824939,0 72.8203099,25.2804164,0 72.8185422,25.2770814,0 72.8181959,25.2743113,0 72.817303,25.2687348,0 72.8154988,25.2641423,0 72.8117993,25.2566158,0 72.8091649,25.2540463,0 72.8081025,25.2545395,0 72.8025268,25.2561881,0 72.79931,25.2495935,0 72.7945205,25.2431279,0 72.7904102,25.2348837,0 72.7868003,25.2321679,0 72.7818321,25.2280617,0 72.7780434,25.2197518,0 72.7781507,25.1955304,0 72.7791514,25.1930077,0 72.7809028,25.1910671,0 72.7808671,25.1892559,0 72.7792944,25.1879622,0 72.7771141,25.1878005,0 72.7745765,25.1875417,0 72.7720388,25.1869919,0 72.7655337,25.179779,0 72.7621382,25.1745065,0 72.7577419,25.1697514,0 72.7525951,25.1642844,0 72.747198,25.1598847,0 72.7456968,25.1577171,0 72.7458398,25.1563907,0 72.743588,25.1413138,0 72.7402998,25.1333216,0 72.7382625,25.1263644,0 72.7344023,25.1240344,0 72.728076,25.1200217,0 72.7200697,25.1135492,0 72.7138864,25.10918,0 72.7089182,25.10439,0 72.7065235,25.0986287,0 72.7051295,25.091443,0 72.7038786,25.086717,0 72.7036999,25.0823793,0 72.7018055,25.0806312,0 72.699518,25.0803075,0 72.6959081,25.0792716,0 72.6927995,25.0772616,0 72.6915967,25.0734806,0 72.6913428,25.0721349,0 72.6912973,25.0674227,0 72.6911186,25.0589076,0 72.690511,25.0564793,0 72.6886524,25.0546013,0 72.6885095,25.0532738,0 72.6887597,25.0505862,0 72.6887597,25.0485463,0 72.6874729,25.0475749,0 72.6856143,25.0486434,0 72.6837558,25.0493558,0 72.6798599,25.0491615,0 72.6747487,25.0488701,0 72.6703525,25.0478663,0 72.6661349,25.0471215,0 72.6628824,25.0459234,0 72.6625859,25.0455229,0 72.6609165,25.0432681,0 72.6578785,25.0389289,0 72.6556625,25.0343628,0 72.6550548,25.0312539,0 72.6559127,25.0289869,0 72.6568419,25.0270761,0 72.6547332,25.026396,0 72.6526244,25.0259102,0 72.6506024,25.0250814,0 72.649622,25.0246795,0 72.6483353,25.0234488,0 72.6483353,25.0218294,0 72.6484783,25.0201776,0 72.6481566,25.0166473,0 72.6445109,25.0167769,0 72.6423664,25.0167445,0 72.6381131,25.0160967,0 72.6366834,25.0111572,0 72.6351822,25.0062176,0 72.6344674,25.0026869,0 72.6337883,25.0008729,0 72.6322514,24.9994476,0 72.6302141,24.998249,0 72.6264254,24.9944265,0 72.6245311,24.9913813,0 72.6234231,24.9898587,0 72.6224223,24.9881093,0 72.6195272,24.9873642,0 72.6174899,24.986943,0 72.6148807,24.9868782,0 72.6138085,24.9810791,0 72.6127004,24.9782928,0 72.6118069,24.9763812,0 72.6089833,24.9746316,0 72.6065885,24.973206,0 72.6014417,24.9665638,0 72.5957944,24.9636475,0 72.5863943,24.9563891,0 72.5818193,24.9515607,0 72.5776374,24.9449172,0 72.5732054,24.9404124,0 72.5685947,24.9357455,0 72.5654136,24.9340277,0 72.5632691,24.9338008,0 72.5584439,24.9328933,0 72.5510096,24.9318562,0 72.5446832,24.9319534,0 72.5386428,24.9319534,0 72.5312084,24.9308838,0 72.5258114,24.9310459,0 72.5223444,24.9315969,0 72.5210219,24.9320182,0 72.5201641,24.9333147,0 72.5189489,24.9352593,0 72.5178052,24.9359075,0 72.5165184,24.9355834,0 72.5136948,24.9335739,0 72.5097989,24.9302356,0 72.506189,24.9253737,0 72.503973,24.9227158,0 72.5020786,24.9209979,0 72.5006847,24.9199282,0 72.4983257,24.9192151,0 72.4970032,24.9185992,0 72.4970032,24.9174971,0 72.4966101,24.916006,0 72.4972534,24.9147094,0 72.4983614,24.9127644,0 72.4984329,24.9107546,0 72.4972177,24.9087772,0 72.4955736,24.907675,0 72.493715,24.9068645,0 72.4991835,24.9024232,0 72.5016855,24.8988895,0 72.502865,24.8920162,0 72.5033296,24.8878013,0 72.5032939,24.8831972,0 72.5022573,24.8808951,0 72.4997911,24.8790793,0 72.4974679,24.8782038,0 72.4948945,24.8773607,0 72.4921781,24.8758043,0 72.4887468,24.8734372,0 72.4859589,24.8726265,0 72.4852083,24.873275,0 72.4835642,24.8742803,0 72.4808478,24.873956,0 72.4792752,24.8724968,0 72.4789535,24.8709079,0 72.4792752,24.8690919,0 72.4799543,24.866822,0 72.481098,24.8648763,0 72.482206,24.8629954,0 72.4830281,24.8614387,0 72.4836357,24.8592335,0 72.4841361,24.858066,0 72.4883179,24.8528121,0 72.4898548,24.8498283,0 72.4907126,24.8472337,0 72.4913202,24.844639,0 72.4902837,24.8415901,0 72.490248,24.8393521,0 72.4920351,24.8382817,0 72.4931788,24.8362707,0 72.4929644,24.8343893,0 72.4947157,24.8327675,0 72.4961812,24.8300427,0 72.4955736,24.8278045,0 72.4947515,24.8254689,0 72.4955736,24.8233928,0 72.496753,24.8215112,0 72.4971462,24.8200839,0 72.4962884,24.8182023,0 72.49468,24.8173264,0 72.491213,24.8157692,0 72.4896404,24.8130116,0 72.48914,24.8095726,0 72.4873171,24.8059714,0 72.4888898,24.8001637,0 72.4909271,24.7936744,0 72.4933933,24.782447,0 72.493572,24.7749507,0 72.4930359,24.7641761,0 72.4915347,24.759827,0 72.489956,24.7589016,0 72.4840808,24.7558535,0 72.4785447,24.7541972,0 72.4721828,24.7534636,0 72.4669263,24.754293,0 72.463495,24.7561593,0 72.4574724,24.7583016,0 72.4554709,24.7575875,0 72.4523256,24.7584314,0 72.4505385,24.7595998,0 72.4478221,24.7603139,0 72.4441049,24.7575875,0 72.4424608,24.7560296,0 72.4375283,24.755705,0 72.4338112,24.7558997,0 72.4243038,24.7558348,0 72.418871,24.7551207,0 72.4133667,24.7552506,0 72.4104358,24.7612226,0 72.4085772,24.7656366,0 72.4067186,24.7684277,0 72.402787,24.7723221,0 72.4003566,24.7757621,0 72.3964964,24.77375,0 72.3944948,24.7707643,0 72.3922788,24.7683627,0 72.3894909,24.7671295,0 72.3865601,24.7665453,0 72.3801265,24.7657015,0 72.3775531,24.766026,0 72.3739074,24.7656366,0 72.3722633,24.7615472,0 72.3669734,24.756419,0 72.3647574,24.7540821,0 72.3631133,24.7511609,0 72.3606828,24.7482395,0 72.3526766,24.7366185,0 72.3455783,24.7251706,0 72.3446633,24.7233414,0 72.3359493,24.7160356,0 72.3298016,24.7109056,0 72.3267278,24.701684,0 72.3212235,24.690968,0 72.3193649,24.6846678,0 72.3177923,24.6812253,0 72.3149329,24.6786921,0 72.3135747,24.675769,0 72.3123595,24.6708972,0 72.3128599,24.6655704,0 72.3126454,24.6614778,0 72.3131458,24.6569302,0 72.3139321,24.6542016,0 72.3152903,24.6517977,0 72.3174349,24.649199,0 72.3194364,24.6484843,0 72.3225102,24.6476397,0 72.3254411,24.6449758,0 72.3303735,24.6409474,0 72.3332329,24.6380235,0 72.33502,24.6347747,0 72.3351629,24.6327603,0 72.3395204,24.6301267,0 72.3402071,24.6299316,0 72.3431253,24.6291514,0 72.346301,24.6286052,0 72.3479318,24.627747,0 72.3472881,24.6258354,0 72.3458719,24.6240408,0 72.3449277,24.6233776,0 72.3437261,24.6221682,0 72.3435115,24.6204516,0 72.3444557,24.6181888,0 72.344799,24.6145604,0 72.3447561,24.6121024,0 72.3440265,24.6099175,0 72.3415803,24.6083958,0 72.3384904,24.6053914,0 72.3382759,24.6035965,0 72.3384046,24.6015675,0 72.3384046,24.6000457,0 72.3370313,24.5990312,0 72.3359155,24.598602,0 72.3330402,24.5987971,0 72.3309373,24.5992653,0 72.3289203,24.5989532,0 72.3271608,24.5977045,0 72.3258304,24.5980947,0 72.3244571,24.5979777,0 72.3221826,24.5966119,0 72.3186636,24.5954023,0 72.316904,24.5944267,0 72.3136425,24.5942706,0 72.3122692,24.5944657,0 72.3102092,24.5952462,0 72.3081922,24.5960266,0 72.3074197,24.5966509,0 72.306776,24.5978606,0 72.3058748,24.5984459,0 72.3047161,24.5996555,0 72.3046732,24.6010212,0 72.3044157,24.6023089,0 72.3036861,24.6034405,0 72.3029565,24.6051963,0 72.3001241,24.6065229,0 72.2951459,24.6093712,0 72.2927856,24.6077325,0 72.2906827,24.6057426,0 72.2892236,24.6037526,0 72.2871637,24.604494,0 72.2861766,24.6057426,0 72.2833442,24.6070302,0 72.2800827,24.6074594,0 72.2763919,24.6070302,0 72.2694397,24.6060937,0 72.2633457,24.6052353,0 72.2634744,24.6001238,0 72.2615432,24.5995385,0 72.2580671,24.5980167,0 72.2567796,24.5959486,0 72.2564792,24.5945828,0 72.2546339,24.5929048,0 72.2530889,24.5919683,0 72.2499561,24.5905245,0 72.246952,24.5887684,0 72.246437,24.5863099,0</coordinates></LinearRing></outerBoundaryIs></Polygon>
    </Placemark>
  </Folder>
  <Folder><name>Fire Incidents</name>
    <Placemark><name>Fire 2018-04-10</name>
      <description>Brightness: 378.9</description>
      <styleUrl>#firepoint</styleUrl>
      <Point><coordinates>72.8926,25.0127,0</coordinates></Point>
    </Placemark>
    <Placemark><name>Fire 2018-05-15</name>
      <description>Brightness: 372.3</description>
      <styleUrl>#firepoint</styleUrl>
      <Point><coordinates>72.9974,25.0259,0</coordinates></Point>
    </Placemark>
    <Placemark><name>Fire 2018-07-05</name>
      <description>Brightness: 384</description>
      <styleUrl>#firepoint</styleUrl>
      <Point><coordinates>73.0109,24.8605,0</coordinates></Point>
    </Placemark>
    <Placemark><name>Fire 2018-12-04</name>
      <description>Brightness: 317.8</description>
      <styleUrl>#firepoint</styleUrl>
      <Point><coordinates>73.0047,24.773,0</coordinates></Point>
    </Placemark>
    <Placemark><name>Fire 2018-12-04</name>
      <description>Brightness: 370.7</description>
      <styleUrl>#firepoint</styleUrl>
      <Point><coordinates>72.9235,25.1128,0</coordinates></Point>
    </Placemark>
    <Placemark><name>Fire 2018-12-29</name>
      <description>Brightness: 376.4</description>
      <styleUrl>#firepoint</styleUrl>
      <Point><coordinates>73.0841,25.0743,0</coordinates></Point>
    </Placemark>
    <Placemark><name>Fire 2019-05-30</name>
      <description>Brightness: 346.1</description>
      <styleUrl>#firepoint</styleUrl>
      <Point><coordinates>72.8593,24.5601,0</coordinates></Point>
    </Placemark>
    <Placemark><name>Fire 2019-09-01</name>
      <description>Brightness: 332.7</description>
      <styleUrl>#firepoint</styleUrl>
      <Point><coordinates>72.7383,24.7256,0</coordinates></Point>
    </Placemark>
    <Placemark><name>Fire 2019-10-12</name>
      <description>Brightness: 364.4</description>
      <styleUrl>#firepoint</styleUrl>
      <Point><coordinates>72.7256,24.7696,0</coordinates></Point>
    </Placemark>
    <Placemark><name>Fire 2020-01-09</name>
      <description>Brightness: 339.1</description>
      <styleUrl>#firepoint</styleUrl>
      <Point><coordinates>72.8812,25.0006,0</coordinates></Point>
    </Placemark>
    <Placemark><name>Fire 2020-02-05</name>
      <description>Brightness: 330.5</description>
      <styleUrl>#firepoint</styleUrl>
      <Point><coordinates>72.9281,25.2286,0</coordinates></Point>
    </Placemark>
    <Placemark><name>Fire 2020-02-27</name>
      <description>Brightness: 312.3</description>
      <styleUrl>#firepoint</styleUrl>
      <Point><coordinates>72.7123,24.676,0</coordinates></Point>
    </Placemark>
    <Placemark><name>Fire 2020-03-27</name>
      <description>Brightness: 357.2</description>
      <styleUrl>#firepoint</styleUrl>
      <Point><coordinates>72.8966,25.024,0</coordinates></Point>
    </Placemark>
    <Placemark><name>Fire 2020-04-14</name>
      <description>Brightness: 368.6</description>
      <styleUrl>#firepoint</styleUrl>
      <Point><coordinates>72.8281,24.9652,0</coordinates></Point>
    </Placemark>
    <Placemark><name>Fire 2020-04-23</name>
      <description>Brightness: 378.5</description>
      <styleUrl>#firepoint</styleUrl>
      <Point><coordinates>72.7501,25.1021,0</coordinates></Point>
    </Placemark>
    <Placemark><name>Fire 2020-05-02</name>
      <description>Brightness: 356.2</description>
      <styleUrl>#firepoint</styleUrl>
      <Point><coordinates>72.7915,24.7826,0</coordinates></Point>
    </Placemark>
    <Placemark><name>Fire 2020-05-07</name>
      <description>Brightness: 319.3</description>
      <styleUrl>#firepoint</styleUrl>
      <Point><coordinates>73.065,25.0497,0</coordinates></Point>
    </Placemark>
    <Placemark><name>Fire 2020-05-17</name>
      <description>Brightness: 363.8</description>
      <styleUrl>#firepoint</styleUrl>
      <Point><coordinates>72.9743,24.7679,0</coordinates></Point>
    </Placemark>
    <Placemark><name>Fire 2020-06-16</name>
      <description>Brightness: 315.7</description>
      <styleUrl>#firepoint</styleUrl>
      <Point><coordinates>72.7029,24.8964,0</coordinates></Point>
    </Placemark>
    <Placemark><name>Fire 2020-06-18</name>
      <description>Brightness: 378.2</description>
      <styleUrl>#firepoint</styleUrl>
      <Point><coordinates>72.8597,24.8702,0</coordinates></Point>
    </Placemark>
    <Placemark><name>Fire 2021-02-20</name>
      <description>Brightness: 373.4</description>
      <styleUrl>#firepoint</styleUrl>
      <Point><coordinates>72.9496,25.0328,0</coordinates></Point>
    </Placemark>
    <Placemark><name>Fire 2021-03-11</name>
      <description>Brightness: 367.8</description>
      <styleUrl>#firepoint</styleUrl>
      <Point><coordinates>73.1284,25.0787,0</coordinates></Point>
    </Placemark>
    <Placemark><name>Fire 2021-03-13</name>
      <description>Brightness: 319.3</description>
      <styleUrl>#firepoint</styleUrl>
      <Point><coordinates>72.9045,24.893,0</coordinates></Point>
    </Placemark>
    <Placemark><name>Fire 2021-03-25</name>
      <description>Brightness: 324.6</description>
      <styleUrl>#firepoint</styleUrl>
      <Point><coordinates>72.7704,24.6737,0</coordinates></Point>
    </Placemark>
    <Placemark><name>Fire 2021-04-13</name>
      <description>Brightness: 364.5</description>
      <styleUrl>#firepoint</styleUrl>
      <Point><coordinates>72.9428,25.0983,0</coordinates></Point>
    </Placemark>
    <Placemark><name>Fire 2021-04-16</name>
      <description>Brightness: 368.4</description>
      <styleUrl>#firepoint</styleUrl>
      <Point><coordinates>72.6987,24.8288,0</coordinates></Point>
    </Placemark>
    <Placemark><name>Fire 2021-05-06</name>
      <description>Brightness: 399.1</description>
      <styleUrl>#firepoint</styleUrl>
      <Point><coordinates>73.0713,25.0628,0</coordinates></Point>
    </Placemark>
    <Placemark><name>Fire 2022-03-29</name>
      <description>Brightness: 335.7</description>
      <styleUrl>#firepoint</styleUrl>
      <Point><coordinates>72.8613,24.8239,0</coordinates></Point>
    </Placemark>
    <Placemark><name>Fire 2022-04-20</name>
      <description>Brightness: 320.9</description>
      <styleUrl>#firepoint</styleUrl>
      <Point><coordinates>72.8942,24.7792,0</coordinates></Point>
    </Placemark>
    <Placemark><name>Fire 2022-05-21</name>
      <description>Brightness: 392.8</description>
      <styleUrl>#firepoint</styleUrl>
      <Point><coordinates>72.719,24.8008,0</coordinates></Point>
    </Placemark>
    <Placemark><name>Fire 2023-04-21</name>
      <description>Brightness: 385.1</description>
      <styleUrl>#firepoint</styleUrl>
      <Point><coordinates>72.7049,24.4663,0</coordinates></Point>
    </Placemark>
    <Placemark><name>Fire 2023-05-19</name>
      <description>Brightness: 365.2</description>
      <styleUrl>#firepoint</styleUrl>
      <Point><coordinates>72.8518,24.6183,0</coordinates></Point>
    </Placemark>
    <Placemark><name>Fire 2023-06-01</name>
      <description>Brightness: 364.3</description>
      <styleUrl>#firepoint</styleUrl>
      <Point><coordinates>72.968,24.9806,0</coordinates></Point>
    </Placemark>
    <Placemark><name>Fire 2024-02-15</name>
      <description>Brightness: 302.2</description>
      <styleUrl>#firepoint</styleUrl>
      <Point><coordinates>72.9269,25.0127,0</coordinates></Point>
    </Placemark>
    <Placemark><name>Fire 2024-03-06</name>
      <description>Brightness: 372.5</description>
      <styleUrl>#firepoint</styleUrl>
      <Point><coordinates>72.6976,24.7268,0</coordinates></Point>
    </Placemark>
    <Placemark><name>Fire 2024-04-08</name>
      <description>Brightness: 359.3</description>
      <styleUrl>#firepoint</styleUrl>
      <Point><coordinates>73.0084,25.0062,0</coordinates></Point>
    </Placemark>
    <Placemark><name>Fire 2024-04-27</name>
      <description>Brightness: 317</description>
      <styleUrl>#firepoint</styleUrl>
      <Point><coordinates>72.6096,24.5852,0</coordinates></Point>
    </Placemark>
    <Placemark><name>Fire 2024-05-29</name>
      <description>Brightness: 313</description>
      <styleUrl>#firepoint</styleUrl>
      <Point><coordinates>72.9039,24.875,0</coordinates></Point>
    </Placemark>
    <Placemark><name>Fire 2024-09-01</name>
      <description>Brightness: 332</description>
      <styleUrl>#firepoint</styleUrl>
      <Point><coordinates>73.1056,24.7764,0</coordinates></Point>
    </Placemark>
    <Placemark><name>Fire 2025-02-05</name>
      <description>Brightness: 301.5</description>
      <styleUrl>#firepoint</styleUrl>
      <Point><coordinates>72.8109,24.806,0</coordinates></Point>
    </Placemark>
    <Placemark><name>Fire 2025-02-27</name>
      <description>Brightness: 306.8</description>
      <styleUrl>#firepoint</styleUrl>
      <Point><coordinates>72.6715,24.6397,0</coordinates></Point>
    </Placemark>
    <Placemark><name>Fire 2025-03-25</name>
      <description>Brightness: 363.7</description>
      <styleUrl>#firepoint</styleUrl>
      <Point><coordinates>73.0945,24.787,0</coordinates></Point>
    </Placemark>
    <Placemark><name>Fire 2025-04-11</name>
      <description>Brightness: 384.4</description>
      <styleUrl>#firepoint</styleUrl>
      <Point><coordinates>72.9307,25.1354,0</coordinates></Point>
    </Placemark>
    <Placemark><name>Fire 2025-04-20</name>
      <description>Brightness: 365.4</description>
      <styleUrl>#firepoint</styleUrl>
      <Point><coordinates>73.0201,24.9932,0</coordinates></Point>
    </Placemark>
    <Placemark><name>Fire 2025-05-05</name>
      <description>Brightness: 365.8</description>
      <styleUrl>#firepoint</styleUrl>
      <Point><coordinates>72.647,24.5935,0</coordinates></Point>
    </Placemark>
    <Placemark><name>Fire 2025-09-13</name>
      <description>Brightness: 382.4</description>
      <styleUrl>#firepoint</styleUrl>
      <Point><coordinates>72.9755,25.0152,0</coordinates></Point>
    </Placemark>
  </Folder>
</Document></kml>