<?xml version="1.0" encoding="UTF-8"?>
<kml xmlns="http://www.opengis.net/kml/2.2">
<Document>
  <name>Sri Ganganagar Forest Fire Risk Zones</name>
  <description>Forest fire density analysis for Sri Ganganagar District, Rajasthan. Generated using KDE on NASA FIRMS data (2018-2025).</description>
  <Style id="zone0">
    <PolyStyle><color>8c0000FF</color><outline>1</outline></PolyStyle>
    <LineStyle><color>e60000FF</color><width>1</width></LineStyle>
  </Style>
  <Style id="zone1">
    <PolyStyle><color>80008CFF</color><outline>1</outline></PolyStyle>
    <LineStyle><color>e6008CFF</color><width>1</width></LineStyle>
  </Style>
  <Style id="zone2">
    <PolyStyle><color>7300D7FF</color><outline>1</outline></PolyStyle>
    <LineStyle><color>e600D7FF</color><width>1</width></LineStyle>
  </Style>
  <Style id="zone3">
    <PolyStyle><color>59228B22</color><outline>1</outline></PolyStyle>
    <LineStyle><color>e6228B22</color><width>1</width></LineStyle>
  </Style>
  <Style id="boundary">
    <LineStyle><color>ccffffff</color><width>2</width></LineStyle>
    <PolyStyle><fill>0</fill></PolyStyle>
  </Style>
  <Style id="firepoint">
    <IconStyle><color>ff4444ff</color><scale>0.6</scale>
      <Icon><href>http://maps.google.com/mapfiles/kml/shapes/shaded_dot.png</href></Icon>
    </IconStyle>
  </Style>
  <Folder><name>Fire Risk Zones</name>
    <Placemark><name>Low Fire Zone</name><styleUrl>#zone0</styleUrl>
      <Polygon><extrude>0</extrude><altitudeMode>clampToGround</altitudeMode><outerBoundaryIs><LinearRing><coordinates>72.6613398,28.8923979,0 72.6717494,28.8923281,0 72.6718139,28.8878191,0 72.6765775,28.8878191,0 72.6769638,28.8701008,0 72.6789057,28.870035,0 72.6791954,28.8563168,0 72.6771393,28.8563544,0 72.6752686,28.847634,0 72.6850747,28.8472675,0 72.6851606,28.8276437,0 72.6984214,28.8273805,0 72.7004814,28.8338846,0 72.7061033,28.8341853,0 72.7060604,28.8249366,0 72.7111673,28.824899,0 72.7114248,28.8159503,0 72.7264452,28.8159127,0 72.7256298,28.8139198,0 72.748804,28.8139574,0 72.7497911,28.8158375,0 72.7531385,28.8135814,0 72.7450617,28.8061172,0 72.7408218,28.7957189,0 72.7472162,28.7953804,0 72.7489757,28.7843605,0 72.791376,28.7841349,0 72.7930068,28.7786433,0 72.7995086,28.7768753,0 72.8063535,28.7771762,0 72.8062248,28.7747312,0 72.8267812,28.7748441,0 72.8266954,28.7679977,0 72.8343772,28.7678849,0 72.834506,28.7633705,0 72.847166,28.7631448,0 72.8472089,28.7587431,0 72.8675508,28.7587431,0 72.8676366,28.7545294,0 72.8935575,28.7543789,0 72.89433,28.7509927,0 72.8933429,28.7385383,0 72.8573798,28.738764,0 72.8575515,28.7250662,0 72.9228686,28.7250662,0 72.9676294,28.7248027,0 73.0093431,28.7252543,0 73.009901,28.7292434,0 73.01445,28.7292058,0 73.0147075,28.73184,0 73.0378818,28.7316519,0 73.0376672,28.7407583,0 73.0327749,28.7410594,0 73.032732,28.7475312,0 73.047924,28.747456,0 73.0495548,28.7511056,0 73.0517005,28.7506541,0 73.0534172,28.7506917,0 73.0647039,28.7539651,0 73.0798101,28.7619786,0 73.0922126,28.7633329,0 73.098607,28.7649882,0 73.1056022,28.7634458,0 73.1106233,28.765703,0 73.1246566,28.7742422,0 73.1256008,28.7739037,0 73.1348276,28.7810129,0 73.1392049,28.7816523,0 73.143754,28.7840596,0 73.1473159,28.7841724,0 73.1519079,28.791281,0 73.1554269,28.7946658,0 73.1503629,28.8045565,0 73.1568002,28.813619,0 73.1559848,28.8155743,0 73.1552553,28.8172288,0 73.1641817,28.8261774,0 73.1669282,28.8253502,0 73.1731939,28.8295235,0 73.181734,28.8349748,0 73.1867981,28.8389973,0 73.1915187,28.8442602,0 73.1998014,28.851703,0 73.2122898,28.8514023,0 73.2151651,28.8482072,0 73.2207441,28.850876,0 73.2155513,28.8561383,0 73.2147359,28.8576418,0 73.2095861,28.8637681,0 73.2041788,28.8680902,0 73.1990611,28.874169,0 73.1993615,28.8741972,0 73.1995868,28.8742159,0 73.2019472,28.8748548,0 73.2030201,28.8756064,0 73.2046938,28.8769968,0 73.2064104,28.8774102,0 73.2072687,28.8769217,0 73.2088136,28.8748172,0 73.2116031,28.8762077,0 73.216753,28.8771472,0 73.220787,28.8785376,0 73.220787,28.8853391,0 73.2195854,28.8858276,0 73.2185125,28.8863912,0 73.2177829,28.8874058,0 73.2158517,28.8895475,0 73.2143497,28.892328,0 73.2118177,28.8942818,0 73.2091999,28.8941691,0 73.2087707,28.9216313,0 73.2107019,28.9209552,0 73.2122898,28.9204669,0 73.2148647,28.9208049,0 73.2170963,28.9209176,0 73.2184696,28.920542,0 73.2208728,28.919077,0 73.2228469,28.9189267,0 73.227911,28.919678,0 73.231945,28.9199034,0 73.2348203,28.9178749,0 73.2354426,28.9264768,0 73.2429743,28.926721,0 73.2428241,28.9322235,0 73.2459354,28.9327118,0 73.2477031,28.9340816,0 73.2496261,28.9364301,0 73.2808685,28.9356414,0 73.2812118,28.9436409,0 73.2810831,28.9675232,0 73.279581,28.9675232,0 73.2809972,28.9694756,0 73.3000516,28.969025,0 73.302927,28.9696258,0 73.309493,28.9695882,0 73.3097505,28.9742813,0 73.312025,28.9741311,0 73.3124113,28.9876836,0 73.3249855,28.9877587,0 73.3250712,29.0016848,0 73.363931,29.0019287,0 73.3644032,29.0127567,0 73.3998298,29.0126816,0 73.3999157,29.0064139,0 73.4389257,29.0058134,0 73.4391832,29.0038242,0 73.4467792,29.0037866,0 73.4467792,29.0016472,0 73.4650182,29.0014596,0 73.4645033,28.9996766,0 73.4647393,28.9990573,0 73.4653401,28.9984192,0 73.4642887,28.9966363,0 73.4652543,28.994309,0 73.4642887,28.9914938,0 73.4623575,28.9869328,0 73.4624004,28.9853374,0 73.4672928,28.9822591,0 73.4713912,28.987327,0 73.4765625,28.9948721,0 73.4804034,29.0000145,0 73.4809398,29.0020788,0 73.481884,29.0054005,0 73.4908318,29.0051754,0 73.4996375,29.0052761,0 73.5060131,29.0052692,0 73.5061848,29.0033925,0 73.510927,29.0004367,0 73.5195637,28.9935395,0 73.5282969,28.9966926,0 73.5330391,28.9984943,0 73.5375452,29.0001458,0 73.5420728,29.0005587,0 73.5494542,29.0015158,0 73.5583591,29.0030923,0 73.5588097,29.0026231,0 73.5622215,28.9985881,0 73.5673499,28.9995077,0 73.5744095,29.0014595,0 73.5793662,29.0038617,0 73.5856318,29.0076337,0 73.5894727,29.011612,0 73.5895157,29.0133947,0 73.5955667,29.0164533,0 73.5975623,29.0191366,0 73.6005664,29.0224202,0 73.5993647,29.0248219,0 73.6022401,29.0260414,0 73.6120891,29.030732,0 73.6127758,29.0303755,0 73.6177325,29.0340715,0 73.6186981,29.0328333,0 73.6251783,29.0352722,0 73.6276245,29.036623,0 73.6330747,29.0306944,0 73.6332679,29.027974,0 73.6391902,29.0278239,0 73.6459279,29.0215571,0 73.6496401,29.0213507,0 73.6511421,29.0219136,0 73.6543178,29.0166597,0 73.6632013,29.0179732,0 73.6666774,29.0151586,0 73.6677074,29.0159467,0 73.6701965,29.0156089,0 73.6737155,29.0155339,0 73.6781787,29.0172227,0 73.682084,29.0205251,0 73.6817836,29.0219136,0 73.6905813,29.0360602,0 73.6994648,29.0341841,0 73.6981773,29.0311823,0 73.6986064,29.0258913,0 73.7027692,29.0233021,0 73.7108373,29.0238274,0 73.7131977,29.0215008,0 73.7268447,29.0245404,0 73.7346124,29.0174478,0 73.7367582,29.0182734,0 73.7405347,29.0039743,0 73.7473154,29.0105424,0 73.7483453,29.0124565,0 73.7497615,29.0152336,0 73.7507915,29.0169975,0 73.7515211,29.0187988,0 73.7512207,29.0242402,0 73.7523794,29.0257788,0 73.7578725,29.0291935,0 73.7602758,29.0320078,0 73.7660265,29.0408628,0 73.7704467,29.0470909,0 73.7708759,29.0497921,0 73.7746524,29.0477662,0 73.7830209,29.048329,0 73.7832784,29.0425512,0 73.7822485,29.0413131,0 73.7838363,29.0367356,0 73.7886428,29.0383114,0 73.7920761,29.0390994,0 73.7943077,29.0391744,0 73.7973976,29.0380863,0 73.7998008,29.0363228,0 73.8008737,29.0326081,0 73.8015174,29.0228142,0 73.8014745,29.0214633,0 73.8011312,29.02045,0 73.8000583,29.0192116,0 73.7979126,29.0181233,0 73.7955093,29.0165096,0 73.7971401,29.0085908,0 73.798685,29.0043121,0 73.8064098,28.9972556,0 73.8070965,28.9951161,0 73.8087058,28.9901236,0 73.8120317,28.991231,0 73.8134479,28.9912498,0 73.8174176,28.9905178,0 73.8199067,28.989767,0 73.8213873,28.9874959,0 73.8228893,28.9867076,0 73.8243484,28.9859943,0 73.8251424,28.9840986,0 73.8267946,28.9822403,0 73.8262367,28.9782421,0 73.8283396,28.9732301,0 73.8282752,28.9697947,0 73.8290906,28.9674668,0 73.8306141,28.9657397,0 73.8328242,28.9655707,0 73.8374162,28.9686871,0 73.8385963,28.966622,0 73.8428449,28.9678798,0 73.8450765,28.9634305,0 73.8495827,28.9572349,0 73.8504624,28.9552823,0 73.8523292,28.9511141,0 73.8522863,28.9498936,0 73.850913,28.9492177,0 73.8480592,28.9481286,0 73.8482094,28.9467016,0 73.8447332,28.9453872,0 73.8454413,28.9414627,0 73.845613,28.9381014,0 73.8458705,28.9369371,0 73.8468361,28.9369934,0 73.8484883,28.9368244,0 73.8503766,28.9362611,0 73.8533377,28.9360733,0 73.8586592,28.9366179,0 73.8638091,28.9374629,0 73.8701391,28.9394534,0 73.873744,28.9406552,0 73.878572,28.9392093,0 73.8812756,28.9411622,0 73.884108,28.9414251,0 73.8908243,28.9462697,0 73.8970685,28.9491613,0 73.9079475,28.954306,0 73.9086771,28.9595442,0 73.9121103,28.9605956,0 73.9158225,28.9602577,0 73.9230752,28.962398,0 73.9258861,28.9620225,0 73.9267444,28.9645382,0 73.9281821,28.9641815,0 73.9353061,28.9639374,0 73.9376449,28.9659837,0 73.9532017,28.9704142,0 73.9623427,28.9744315,0 73.9637804,28.9742625,0 73.9679003,28.9753137,0 73.9681792,28.9748632,0 73.9683723,28.9739997,0 73.9672565,28.9731737,0 73.9671063,28.9707333,0 73.9663553,28.9677297,0 73.9664626,28.9594504,0 73.9645743,28.9584929,0 73.9648747,28.9567092,0 73.96245,28.9555639,0 73.9610338,28.9508324,0 73.9606261,28.9474339,0 73.9603686,28.9461946,0 73.9592957,28.945575,0 73.9587164,28.9452182,0 73.9580512,28.9445047,0 73.9582872,28.9438475,0 73.9589524,28.9430588,0 73.9595961,28.9424204,0 73.9597249,28.9418946,0 73.9592743,28.9407491,0 73.9589739,28.9395661,0 73.9600253,28.9384394,0 73.9613342,28.9385333,0 73.9617634,28.9369371,0 73.9627933,28.9350404,0 73.9630079,28.9339888,0 73.9631152,28.9326367,0 73.9633727,28.930477,0 73.9632439,28.9289746,0 73.9619994,28.9276224,0 73.9658618,28.9170109,0 73.9714622,28.9015143,0 73.9911818,28.9100237,0 73.9966535,28.9136864,0 74.0006447,28.9170485,0 74.0049147,28.9207861,0 74.006288,28.9208988,0 74.0077686,28.9214998,0 74.0094638,28.9226455,0 74.0106225,28.9234155,0 74.0115666,28.9242607,0 74.0119099,28.9252749,0 74.0130043,28.9264205,0 74.0121674,28.9276976,0 74.0137553,28.9298948,0 74.0152144,28.9315475,0 74.0167594,28.9316601,0 74.0201711,28.9318292,0 74.0235185,28.932524,0 74.0264153,28.9335005,0 74.0257931,28.9346085,0 74.025321,28.9353785,0 74.02457,28.9392656,0 74.0240764,28.9402984,0 74.023776,28.9410308,0 74.0245271,28.9415566,0 74.0246343,28.9417631,0 74.0242481,28.9422514,0 74.0229177,28.9422889,0 74.0228104,28.942533,0 74.0227246,28.9432278,0 74.0228748,28.9446737,0 74.0220165,28.9451055,0 74.0221882,28.9456313,0 74.0227675,28.9472461,0 74.0235615,28.9479596,0 74.0240764,28.948767,0 74.0228963,28.9490862,0 74.0228963,28.9496495,0 74.023025,28.9505508,0 74.0234113,28.9514896,0 74.0235615,28.9521655,0 74.0230036,28.9524472,0 74.0225529,28.95271,0 74.0225529,28.9533297,0 74.0225744,28.953799,0 74.0224886,28.9548693,0 74.0222311,28.9554701,0 74.0216946,28.9554513,0 74.0210509,28.9558643,0 74.0195918,28.9568031,0 74.0184545,28.9559207,0 74.0180039,28.9589059,0 74.018197,28.961478,0 74.0183687,28.9624167,0 74.0185833,28.9634681,0 74.0193558,28.9642941,0 74.020493,28.9649887,0 74.0204286,28.9657585,0 74.0202355,28.9679925,0 74.0186691,28.9695882,0 74.0203213,28.9709211,0 74.0207505,28.9739246,0 74.0205788,28.977022,0 74.0199351,28.9828222,0 74.0191841,28.9869516,0 74.0213728,28.9875898,0 74.0212869,28.9886221,0 74.022274,28.9891664,0 74.0228748,28.9894479,0 74.0231323,28.9898609,0 74.0233898,28.9904615,0 74.0236687,28.9920193,0 74.0244412,28.9928263,0 74.0262651,28.9953225,0 74.0279174,28.997143,0 74.0291405,28.99795,0 74.0298271,28.9989635,0 74.0303635,28.9999957,0 74.0293979,29.0008402,0 74.0285182,29.0014032,0 74.0281534,29.0021727,0 74.0278101,29.003355,0 74.0283036,29.0040681,0 74.0320372,29.0053818,0 74.0414572,29.009773,0 74.0799092,29.0273737,0 74.0900159,29.0355161,0 74.0948438,29.0429264,0 74.1011524,29.044202,0 74.1037273,29.0512553,0 74.1104649,29.0556634,0 74.1101646,29.0621343,0 74.1137266,29.0654353,0 74.1263437,29.0644976,0 74.1296482,29.064235,0 74.1329312,29.0660355,0 74.1349482,29.0677234,0 74.1362571,29.0711743,0 74.1366005,29.0755252,0 74.1350126,29.0797635,0 74.1354847,29.0830264,0 74.1392183,29.0847141,0 74.1423082,29.0870768,0 74.1451835,29.0929271,0 74.1488313,29.0951396,0 74.1521787,29.1025644,0 74.1584444,29.1078888,0 74.162178,29.1118633,0 74.1618776,29.115875,0 74.1592598,29.1196617,0 74.1593885,29.1230358,0 74.1600478,29.1246615,0 74.1611051,29.1277595,0 74.1657829,29.134657,0 74.1683578,29.1406546,0 74.1741514,29.1438781,0 74.1772413,29.146127,0 74.1810178,29.1468391,0 74.1859102,29.1474013,0 74.1900301,29.1484883,0 74.2001152,29.1495377,0 74.2046213,29.152761,0 74.2054796,29.157071,0 74.2054796,29.1590573,0 74.2036342,29.1632546,0 74.2059946,29.169138,0 74.2063379,29.1732225,0 74.2039346,29.175808,0 74.2027759,29.178356,0 74.2008447,29.1817656,0 74.1993427,29.1879103,0 74.2029047,29.1895213,0 74.2060804,29.1911323,0 74.2074108,29.1934177,0 74.2091703,29.1965646,0 74.2090416,29.1976885,0 74.2082691,29.2005356,0 74.2091703,29.2034201,0 74.2107153,29.2057426,0 74.2102003,29.2067166,0 74.2082691,29.2088143,0 74.2099857,29.2116985,0 74.2106294,29.2149573,0 74.209299,29.2172046,0 74.2061662,29.2182908,0 74.2013168,29.2199763,0 74.1934204,29.2232722,0 74.1926479,29.2260812,0 74.1962099,29.2261561,0 74.2001581,29.2275044,0 74.202218,29.228965,0 74.204235,29.2303132,0 74.2065954,29.2312869,0 74.2100286,29.2318487,0 74.2132473,29.2326351,0 74.2152643,29.2341705,0 74.2175388,29.2392635,0 74.217925,29.2422967,0 74.2148351,29.2431954,0 74.2122602,29.2439069,0 74.2095565,29.2454047,0 74.2083549,29.2493364,0 74.2071962,29.2524816,0 74.2055654,29.2546907,0 74.2032909,29.258622,0 74.199686,29.259558,0 74.2000722,29.2622536,0 74.2008018,29.2648369,0 74.1996002,29.2661098,0 74.1969394,29.2667088,0 74.1938066,29.2675324,0 74.191575,29.268094,0 74.1897726,29.269816,0 74.1882705,29.272736,0 74.1881847,29.2750195,0 74.1891288,29.2791747,0 74.1947078,29.2818698,0 74.1989564,29.2843403,0 74.2014455,29.2863615,0 74.2031622,29.2893559,0 74.2063379,29.290329,0 74.2100715,29.2917139,0 74.2147064,29.2945584,0 74.2151784,29.2978145,0 74.2208004,29.2982636,0 74.2269802,29.2982636,0 74.2304992,29.2982262,0 74.2344045,29.2980765,0 74.2361211,29.2987127,0 74.236679,29.3030166,0 74.2417001,29.3025675,0 74.2439103,29.3023242,0 74.2447042,29.3003407,0 74.245348,29.2998167,0 74.2474079,29.2999664,0 74.2468928,29.300846,0 74.2466891,29.3014587,0 74.2457771,29.3032037,0 74.2441463,29.3050936,0 74.2413139,29.3068337,0 74.2414856,29.3135134,0 74.2407775,29.313607,0 74.2390394,29.315347,0 74.2391681,29.3273019,0 74.2298126,29.3276386,0 74.2284822,29.3332133,0 74.2294478,29.3364869,0 74.2158651,29.3366178,0 74.2159295,29.3411632,0 74.2056942,29.3414251,0 74.2055869,29.3322592,0 74.2029047,29.3322031,0 74.2029476,29.3300144,0 74.2025614,29.3299209,0 74.1999864,29.3304634,0 74.1949439,29.3304447,0 74.1949653,29.3319599,0 74.1939139,29.3330075,0 74.1909098,29.3330449,0 74.1874122,29.3323902,0 74.1846227,29.3300706,0 74.1815328,29.3299209,0 74.179387,29.3298461,0 74.1750955,29.3277883,0 74.1706752,29.3253189,0 74.167757,29.3244583,0 74.1663837,29.3255808,0 74.1665124,29.314318,0 74.1656541,29.3135696,0 74.1644525,29.3120728,0 74.1620922,29.3121102,0 74.1609335,29.3129709,0 74.1589164,29.3126341,0 74.1582298,29.3115863,0 74.1560411,29.3103514,0 74.1535091,29.3085552,0 74.1532302,29.3054117,0 74.1526937,29.3029791,0 74.1521144,29.3015944,0 74.1414714,29.301557,0 74.1401195,29.3000974,0 74.1413855,29.2971969,0 74.1405272,29.2964297,0 74.1397118,29.2952133,0 74.1267943,29.2910589,0 74.1264295,29.2939782,0 74.1249704,29.2953817,0 74.1152286,29.2958496,0 74.1135978,29.2967291,0 74.1079759,29.2949701,0 74.1032123,29.289936,0 74.1011095,29.2862492,0 74.1006589,29.2785757,0 74.1021824,29.2723055,0 74.102118,29.2707706,0 74.1014743,29.269554,0 74.0992427,29.2691796,0 74.0991568,29.2678319,0 74.096024,29.2671019,0 74.0967107,29.2664093,0 74.0966034,29.264631,0 74.0950155,29.2638448,0 74.0949511,29.2607373,0 74.0912604,29.2579293,0 74.0856385,29.2593521,0 74.0767979,29.2631522,0 74.0678501,29.267757,0 74.0614986,29.2717814,0 74.0606189,29.2729045,0 74.0603614,29.2752628,0 74.0544176,29.2751505,0 74.0457701,29.2858562,0 74.0447402,29.2872785,0 74.0322733,29.2874095,0 74.0292263,29.2843215,0 74.0271449,29.2827681,0 74.0237975,29.2823002,0 74.0206647,29.2842279,0 74.0175319,29.2883827,0 74.0162658,29.3047942,0 74.015944,29.3091913,0 74.0180683,29.3138689,0 74.0188837,29.3159083,0 74.0194845,29.3220262,0 74.0194416,29.3268529,0 74.0190124,29.32921,0 74.0171671,29.3311368,0 74.0156436,29.3330262,0 74.0038204,29.3337558,0 74.0021682,29.3399474,0 74.0011167,29.3477659,0 74.000473,29.3574914,0 74.0001941,29.3618489,0 73.9931559,29.3678705,0 73.9929628,29.3772575,0 73.9893579,29.3774071,0 73.9895725,29.3834465,0 73.9865041,29.3834652,0 73.9867186,29.3894856,0 73.9841008,29.3895229,0 73.9840793,29.3989454,0 73.9726639,29.3849236,0 73.9553475,29.3880272,0 73.9387393,29.3688242,0 73.9271521,29.3690112,0 73.9099645,29.3691421,0 73.9099645,29.3730129,0 73.9024973,29.3729381,0 73.902626,29.3777063,0 73.9024329,29.3999362,0 73.9071965,29.4047965,0 73.9064884,29.4143484,0 73.9015102,29.4145166,0 73.9012956,29.4169091,0 73.8936353,29.4169091,0 73.8936138,29.4208342,0 73.8867259,29.4208715,0 73.8857817,29.4488098,0 73.92241,29.448623,0 73.9224958,29.4533502,0 73.9279675,29.4534437,0 73.9281606,29.455555,0 73.9354348,29.454546,0 73.9400482,29.4526402,0 73.9438677,29.450641,0 73.9438033,29.4577036,0 73.9536094,29.457741,0 73.9534378,29.4647844,0 73.9508629,29.4649526,0 73.9515066,29.4729483,0 73.9510131,29.4836331,0 73.9560771,29.4839694,0 73.9563989,29.4774503,0 73.9589953,29.4773195,0 73.9591026,29.4751526,0 73.9640808,29.4752647,0 73.9641666,29.4857251,0 73.9691019,29.4853142,0 73.9695096,29.488228,0 73.9666772,29.4882093,0 73.9666557,29.4923184,0 73.9633727,29.4923744,0 73.9631367,29.4987432,0 73.963995,29.5004987,0 73.963995,29.504047,0 73.9568496,29.5040657,0 73.9568496,29.506176,0 73.9518499,29.5064748,0 73.9517212,29.5107698,0 73.9448118,29.5107698,0 73.9448547,29.5142618,0 73.9498544,29.514019,0 73.9498973,29.5162224,0 73.9577079,29.5162971,0 73.9577937,29.5185005,0 73.9523434,29.5186872,0 73.9523864,29.5280416,0 73.9421296,29.528023,0 73.9422154,29.5307115,0 73.944726,29.5308235,0 73.9445758,29.5372085,0 73.9472794,29.5373952,0 73.9475798,29.5402142,0 73.9549613,29.5400835,0 73.9556265,29.5527585,0 73.9579654,29.5527585,0 73.9580083,29.5550171,0 73.9605403,29.5550544,0 73.9604759,29.5568463,0 73.9412069,29.5604487,0 73.9356708,29.5617179,0 73.9214015,29.5576863,0 73.9213586,29.5602807,0 73.9160585,29.560374,0 73.9155865,29.5684555,0 73.9205861,29.5680262,0 73.9207363,29.570863,0 73.9311647,29.5706764,0 73.9310574,29.5685861,0 73.935349,29.5685861,0 73.950026,29.5683248,0 73.9499616,29.5693886,0 73.952558,29.569034,0 73.9527726,29.5704151,0 73.9551329,29.5702845,0 73.9551544,29.5680449,0 73.9627933,29.5680076,0 73.962729,29.5770588,0 73.959682,29.5771521,0 73.9595103,29.5838328,0 73.9619994,29.5837021,0 73.9624715,29.5865571,0 73.9448547,29.5869117,0 73.9453697,29.6066518,0 73.9483738,29.6064839,0 73.9483952,29.6112411,0 73.9476442,29.6115769,0 73.9433741,29.6112224,0 73.9432883,29.6133864,0 73.9378166,29.6136103,0 73.9377522,29.6089278,0 73.9402628,29.6090584,0 73.9402628,29.6063719,0 73.9348984,29.606148,0 73.9344692,29.5945246,0 73.9341903,29.5930692,0 73.9261865,29.5981256,0 73.9245987,29.6007376,0 73.9120245,29.6093569,0 73.9099645,29.6096927,0 73.9097285,29.6035921,0 73.9068317,29.6034242,0 73.9065528,29.6009615,0 73.9047289,29.6009428,0 73.9044499,29.5976778,0 73.8973903,29.5979017,0 73.8964891,29.6008496,0 73.8916182,29.6008869,0 73.8915324,29.5985733,0 73.8885712,29.5985174,0 73.8885927,29.5960732,0 73.8856101,29.5959426,0 73.8852024,29.5934237,0 73.8826489,29.5933677,0 73.8826918,29.5889082,0 73.8644313,29.5890202,0 73.8643563,29.5962225,0 73.8563096,29.5906995,0 73.8559985,29.5908768,0 73.8559019,29.591875,0 73.8531715,29.5917864,0 73.8529676,29.5892721,0 73.8480377,29.5894121,0 73.847909,29.5980323,0 73.8502264,29.6005324,0 73.8528657,29.6004764,0 73.8537454,29.6081256,0 73.8604617,29.6074726,0 73.8608479,29.6119686,0 73.8580155,29.6121179,0 73.8578653,29.6163338,0 73.8576293,29.625474,0 73.8522649,29.6256232,0 73.8521147,29.6302863,0 73.8428449,29.6306034,0 73.8429522,29.6320582,0 73.8427162,29.6328415,0 73.8409567,29.6358816,0 73.8378453,29.6399847,0 73.8345194,29.6431925,0 73.831408,29.6431365,0 73.8310218,29.6555189,0 73.844347,29.6556121,0 73.8444757,29.6574209,0 73.8575434,29.6575328,0 73.8573932,29.6590991,0 73.8654184,29.6591737,0 73.8809323,29.6689066,0 73.8887,29.6693168,0 73.8889789,29.6714982,0 73.9116382,29.6718524,0 73.9116168,29.6692981,0 73.9196849,29.6693541,0 73.9198082,29.6669675,0 73.937441,29.66659,0 73.9265915,29.6709797,0 73.9247392,29.6718809,0 73.9249792,29.6828058,0 73.9377834,29.6829627,0 73.937838,29.6803351,0 73.9402413,29.6804656,0 73.9406275,29.6739406,0 73.9453911,29.6737541,0 73.9454341,29.6691304,0 73.9480304,29.6691117,0 73.9482021,29.6716287,0 73.9507985,29.6714422,0 73.9511847,29.6758794,0 73.9583516,29.6759913,0 73.9586091,29.7018089,0 73.979144,29.6934213,0 73.9791011,29.7229054,0 73.9819979,29.7229614,0 73.9821481,29.7186194,0 73.9987349,29.7188057,0 73.9999151,29.7189549,0 74.01905,29.7189968,0 74.0193343,29.7235949,0 74.0241193,29.723334,0 74.0245915,29.730359,0 74.0292048,29.7300609,0 74.0294193,29.7327254,0 74.0374017,29.7325763,0 74.0374231,29.7350545,0 74.0424012,29.7350545,0 74.0425085,29.7377747,0 74.0474653,29.7375139,0 74.0477442,29.735278,0 74.0528082,29.735278,0 74.0526795,29.7305081,0 74.0527225,29.7283652,0 74.0563488,29.7287565,0 74.070425,29.730918,0 74.0720558,29.7369922,0 74.0728712,29.7389299,0 74.0803814,29.7395261,0 74.0809392,29.7325204,0 74.0885782,29.7325204,0 74.0889644,29.7298,0 74.1119241,29.7300981,0 74.1122245,29.7276758,0 74.115014,29.7276385,0 74.1149711,29.7249925,0 74.117589,29.7252161,0 74.1175031,29.7232036,0 74.1202926,29.7228309,0 74.1202497,29.7161968,0 74.1326952,29.716905,0 74.132781,29.7411098,0 74.135592,29.7392653,0 74.1355705,29.7496984,0 74.1848373,29.7495121,0 74.1853094,29.7404577,0 74.1825628,29.740644,0 74.1823482,29.7278994,0 74.1912746,29.7348309,0 74.201231,29.7353153,0 74.2016601,29.7507416,0 74.1985273,29.7507416,0 74.1994285,29.7701516,0 74.211123,29.7714368,0 74.2109333,29.8016215,0 74.2327523,29.8081037,0 74.2259502,29.825157,0 74.2301988,29.8249336,0 74.2296195,29.8353392,0 74.2293405,29.8406253,0 74.2326021,29.8406067,0 74.2323446,29.8435475,0 74.2378592,29.8435661,0 74.2381811,29.8411278,0 74.2509484,29.8411465,0 74.2509484,29.8383545,0 74.2674494,29.8387082,0 74.2680502,29.8406067,0 74.2759251,29.8402903,0 74.276526,29.8425982,0 74.2816972,29.8426169,0 74.2818689,29.8640001,0 74.2767405,29.8640745,0 74.2768907,29.8750342,0 74.2579865,29.8697313,0 74.2578792,29.8733596,0 74.255476,29.8729503,0 74.2555618,29.8815462,0 74.2541885,29.881695,0 74.2541027,29.8889693,0 74.2585659,29.8888018,0 74.2583942,29.8959826,0 74.2631793,29.8959268,0 74.2631578,29.8999634,0 74.2659044,29.8999634,0 74.2657972,29.9020096,0 74.268415,29.9021956,0 74.268887,29.9089104,0 74.2738223,29.9089476,0 74.2743158,29.9158479,0 74.2766333,29.9160339,0 74.276998,29.9182843,0 74.279294,29.9182099,0 74.2793154,29.9204603,0 74.2853451,29.9207764,0 74.2906022,29.9209066,0 74.2949796,29.9235289,0 74.2950868,29.9251096,0 74.2974901,29.9254443,0 74.2973077,29.9390935,0 74.2970209,29.9551413,0 74.1684224,29.9626236,0 74.0620817,29.9684689,0 73.9753409,29.9704893,0 73.9657011,29.9709628,0 73.8942278,29.9735785,0 73.8953089,29.9775948,0 73.8951366,29.9810675,0 73.8904501,29.9888502,0 73.8902664,29.9891553,0 73.8861367,29.99651,0 73.8860631,30.0113957,0 73.8935709,30.0212834,0 73.9035527,30.0491606,0 73.9293309,30.0680206,0 73.9670089,30.1186438,0 73.9751827,30.1205392,0 73.9697456,30.126013,0 73.968183,30.1428764,0 73.967278,30.1685417,0 73.971312,30.1737359,0 73.9737153,30.1818791,0 73.9726891,30.198253,0 73.9693249,30.195619,0 73.9633623,30.1909822,0 73.9602414,30.1885598,0 73.9575,30.1864228,0 73.9515679,30.1818856,0 73.9501854,30.1808115,0 73.9476751,30.1789278,0 73.9437187,30.1758637,0 73.9414357,30.1741297,0 73.9403352,30.173301,0 73.9377232,30.1713181,0 73.9319368,30.1669497,0 73.9287782,30.1645581,0 73.9244939,30.1614048,0 73.9224499,30.159817,0 73.9195762,30.1576643,0 73.9160622,30.1551013,0 73.9128554,30.152777,0 73.9114958,30.1517888,0 73.9089192,30.1499608,0 73.9066187,30.1482801,0 73.9044234,30.1466942,0 73.9008931,30.1442348,0 73.8999383,30.1435188,0 73.8967209,30.1412068,0 73.8935892,30.139147,0 73.8924927,30.1384261,0 73.8904593,30.137078,0 73.8882322,30.1356268,0 73.8860057,30.1338011,0 73.8837745,30.1319745,0 73.88085,30.1296468,0 73.8779505,30.1273167,0 73.8755404,30.1257787,0 73.8731831,30.1242747,0 73.8708169,30.1227749,0 73.8669785,30.1199359,0 73.8643507,30.1181486,0 73.861388,30.116026,0 73.8580559,30.1136168,0 73.8562887,30.1123726,0 73.8538903,30.1106365,0 73.8514507,30.1089207,0 73.8486149,30.1068887,0 73.8442696,30.1037951,0 73.8417427,30.1019619,0 73.8391903,30.1001482,0 73.8367671,30.0984149,0 73.8343475,30.0966817,0 73.8323797,30.0952992,0 73.8298432,30.093455,0 73.827935,30.0922567,0 73.8261879,30.0908891,0 73.823113,30.088378,0 73.819647,30.084831,0 73.817268,30.081585,0 73.81184,30.074711,0 73.8115055,30.074269,0 73.8103268,30.0727065,0 73.8090906,30.0710733,0 73.807371,30.0689339,0 73.806629,30.0679694,0 73.8026013,30.0670167,0 73.7985799,30.0660637,0 73.7945485,30.0651262,0 73.790528,30.0641794,0 73.7890529,30.0638477,0 73.7864425,30.0632373,0 73.7840098,30.0626741,0 73.7824443,30.0623113,0 73.7786178,30.0613792,0 73.7743779,30.0604271,0 73.7704386,30.0594032,0 73.7672823,30.0587632,0 73.7662937,30.058554,0 73.7627556,30.0577012,0 73.7582337,30.0566757,0 73.7541953,30.0557534,0 73.7525069,30.0554201,0 73.7501611,30.0548087,0 73.7461157,30.0538644,0 73.7380636,30.0519911,0 73.7340509,30.0510567,0 73.7300187,30.050116,0 73.7213367,30.0480962,0 73.7179259,30.0473065,0 73.7133809,30.0462005,0 73.7114124,30.0457074,0 73.7105943,30.0454965,0 73.7099186,30.0453483,0 73.7058615,30.0444513,0 73.7018137,30.0435502,0 73.7004454,30.0432286,0 73.6970869,30.0424374,0 73.6937438,30.0416582,0 73.6897213,30.0407133,0 73.6856886,30.0397855,0 73.6826285,30.0390619,0 73.6804447,30.0385316,0 73.6695734,30.0360095,0 73.6648921,30.0349056,0 73.661516,30.0341203,0 73.6574962,30.0331925,0 73.6534715,30.0322462,0 73.6495915,30.0313386,0 73.6444468,30.0301337,0 73.6413079,30.0293962,0 73.6373188,30.0284624,0 73.6333211,30.0275211,0 73.6292832,30.0265776,0 73.6265308,30.0259502,0 73.6239922,30.0253316,0 73.621236,30.0246781,0 73.619713,30.0243249,0 73.6164316,30.0235541,0 73.613183,30.0227896,0 73.6093464,30.0218637,0 73.6075973,30.0214806,0 73.6051099,30.0208979,0 73.5997111,30.0195705,0 73.5970993,30.0189421,0 73.5934274,30.0176525,0 73.5885789,30.015938,0 73.5855251,30.014809,0 73.5816816,30.0134088,0 73.5778321,30.0120032,0 73.5729386,30.0102639,0 73.5693056,30.008976,0 73.5662771,30.0077956,0 73.5624429,30.0063872,0 73.5585841,30.0049806,0 73.5547091,30.0035799,0 73.5508694,30.0021791,0 73.5468589,30.0007273,0 73.5431956,29.9993933,0 73.5393493,29.9979925,0 73.5354782,29.9965798,0 73.5329413,29.9955523,0 73.5277814,29.9937799,0 73.5242622,29.9925027,0 73.5208033,29.9912381,0 73.5162439,29.989576,0 73.5123829,29.9881712,0 73.5085427,29.9867654,0 73.5071678,29.9862658,0 73.5040571,29.9851279,0 73.5008471,29.9839622,0 73.4970046,29.9825607,0 73.4947657,29.98175,0 73.4932158,29.9811811,0 73.4893142,29.9797513,0 73.4871453,29.9789628,0 73.482983,29.9774428,0 73.4816235,29.9769472,0 73.4754822,29.9746999,0 73.4726069,29.9736724,0 73.4693635,29.9724824,0 73.4672643,29.9716936,0 73.464469,29.9707154,0 73.4623792,29.9699143,0 73.4590756,29.9687128,0 73.4508486,29.9656952,0 73.4507876,29.9657024,0 73.4379195,29.9610104,0 73.418043,29.953738,0 73.403504,29.948451,0 73.39699,29.945934,0 73.394357,29.938585,0 73.393684,29.9363037,0 73.39203,29.930697,0 73.39054,29.925822,0 73.3860715,29.910507,0 73.381991,29.896522,0 73.375609,29.87499,0 73.3708152,29.8585577,0 73.36614,29.842532,0 73.3602088,29.8223279,0 73.353914,29.800885,0 73.3489955,29.7845971,0 73.343671,29.766965,0 73.3436122,29.7667628,0 73.3434634,29.7663001,0 73.3424299,29.7629187,0 73.3414457,29.7597222,0 73.3403302,29.7561119,0 73.3394576,29.7531542,0 73.3386988,29.7507044,0 73.3380796,29.7486584,0 73.3374344,29.7465004,0 73.336103,29.7423837,0 73.3349068,29.7383038,0 73.334041,29.7355213,0 73.3327361,29.7311263,0 73.331712,29.7278166,0 73.3290364,29.7193835,0 73.3277813,29.7154467,0 73.3264392,29.7114384,0 73.3251015,29.7075931,0 73.3240791,29.7040862,0 73.3239062,29.7036028,0 73.3227469,29.6995953,0 73.3218918,29.6970009,0 73.3211917,29.6946535,0 73.3204365,29.6924743,0 73.319023,29.6879887,0 73.3179152,29.6845327,0 73.3171338,29.6821625,0 73.3160818,29.6787978,0 73.3147258,29.6745789,0 73.3137229,29.6713937,0 73.3126815,29.6681209,0 73.3117115,29.6650691,0 73.3104519,29.661128,0 73.3093341,29.6576196,0 73.3075582,29.6519969,0 73.3063661,29.6481773,0 73.3055998,29.6459301,0 73.3039182,29.6405378,0 73.3026474,29.6366387,0 73.3017057,29.6332074,0 73.3007221,29.6305196,0 73.2991498,29.6257713,0 73.2981249,29.6225223,0 73.2972884,29.6199006,0 73.2967365,29.6180063,0 73.2961174,29.6160602,0 73.2953102,29.6133068,0 73.2937946,29.608617,0 73.2925547,29.6042845,0 73.2915283,29.6012718,0 73.2901146,29.5975461,0 73.2883006,29.5929149,0 73.2863646,29.5876887,0 73.2839736,29.5808287,0 73.2822833,29.5720188,0 73.2802614,29.5685853,0 73.2758143,29.5610616,0 73.2737141,29.5575179,0 73.2708253,29.5526256,0 73.269515,29.5504284,0 73.2676881,29.5473523,0 73.2667814,29.5458208,0 73.2649066,29.5426538,0 73.2631738,29.5397247,0 73.2612508,29.5364837,0 73.258607,29.5320196,0 73.2555409,29.5268052,0 73.253904,29.5240789,0 73.2511096,29.5192837,0 73.2363582,29.4942219,0 73.2299146,29.4832727,0 73.2248866,29.4747387,0 73.2182236,29.4633667,0 73.209902,29.4492558,0 73.2080105,29.4460223,0 73.206115,29.4427856,0 73.2051356,29.4411244,0 73.2036896,29.4386515,0 73.2002466,29.4328477,0 73.1972966,29.4277317,0 73.1832576,29.4040087,0 73.1800456,29.3970127,0 73.1772336,29.3931705,0 73.1752817,29.3905617,0 73.1736588,29.3877808,0 73.1718964,29.3846065,0 73.1704448,29.3820919,0 73.1700027,29.38127,0 73.1178203,29.2927949,0 73.0861021,29.2389792,0 73.0844907,29.2362236,0 73.0791369,29.23062,0 73.075452,29.2269015,0 73.0722044,29.2233626,0 73.0694686,29.2205208,0 73.0578502,29.2083818,0 73.0500271,29.2002384,0 73.0468551,29.1969359,0 73.0446153,29.1946672,0 73.0425455,29.1924353,0 73.0383773,29.1881742,0 73.0364899,29.1861876,0 73.0345558,29.1841732,0 73.0306767,29.1801357,0 73.0228139,29.171995,0 73.0198457,29.1688842,0 73.0177609,29.1667504,0 73.0151336,29.1640379,0 73.0133402,29.1622061,0 73.0115305,29.1603467,0 73.0097637,29.158518,0 73.0075992,29.1562882,0 73.0043951,29.1529968,0 73.0028194,29.1495976,0 73.001273,29.1462758,0 72.9997082,29.1429092,0 72.9981429,29.1395434,0 72.9965796,29.1361829,0 72.995407,29.1336702,0 72.9936475,29.129888,0 72.99036,29.122852,0 72.9872321,29.1161143,0 72.9856186,29.1126613,0 72.9840536,29.1093047,0 72.9824907,29.1059383,0 72.9807631,29.1018953,0 72.9795198,29.0989901,0 72.9778751,29.0957584,0 72.9762147,29.0925182,0 72.9746369,29.0891599,0 72.9730635,29.0858022,0 72.9714679,29.0823771,0 72.965188,29.0690294,0 72.9636196,29.065672,0 72.9620406,29.0623156,0 72.9604727,29.0589562,0 72.9588966,29.0555981,0 72.9536989,29.0445083,0 72.9534007,29.043814,0 72.9528095,29.0426225,0 72.9492903,29.0351564,0 72.947571,29.0314789,0 72.9457797,29.0278746,0 72.9382378,29.0249439,0 72.9347723,29.023646,0 72.930647,29.0220918,0 72.9230565,29.0192368,0 72.9117152,29.0149782,0 72.9078511,29.0135222,0 72.9041049,29.0121144,0 72.900249,29.0106649,0 72.8965177,29.0092636,0 72.8926737,29.0078142,0 72.8850834,29.004969,0 72.881277,29.0035445,0 72.8774752,29.0021111,0 72.8737267,29.0007056,0 72.8698706,28.999266,0 72.8659203,28.9977849,0 72.8622737,28.9964175,0 72.8585252,28.995029,0 72.8546731,28.9935741,0 72.8509372,28.9921588,0 72.8470831,28.9907306,0 72.8433498,28.9893178,0 72.8412043,28.9885284,0 72.8394696,28.9878766,0 72.8357341,28.986484,0 72.831876,28.9850314,0 72.8280563,28.9835974,0 72.8242854,28.9822123,0 72.8205584,28.980812,0 72.8167035,28.9793637,0 72.8129867,28.977974,0 72.8090749,28.9765194,0 72.8055929,28.9752822,0 72.8036166,28.9744822,0 72.7996595,28.9730938,0 72.7938797,28.9708068,0 72.7879063,28.9685742,0 72.7826757,28.9666192,0 72.7786541,28.9651097,0 72.7749027,28.9637108,0 72.7710245,28.9622552,0 72.767283,28.9608532,0 72.763469,28.959418,0 72.7595538,28.9579486,0 72.7521399,28.9551599,0 72.7482756,28.9537191,0 72.7457464,28.9527672,0 72.7331019,28.9480146,0 72.7260326,28.9444534,0 72.7189797,28.9404873,0 72.7189831,28.9404873,0 72.7155026,28.9386329,0 72.7118609,28.9367224,0 72.7048089,28.9329504,0 72.6977304,28.9291794,0 72.6942225,28.9273111,0 72.6906634,28.9254112,0 72.6871651,28.9235324,0 72.6836174,28.921641,0 72.6811597,28.9203367,0 72.6765534,28.9178933,0 72.6726611,28.9158359,0 72.6694859,28.9141611,0 72.6659947,28.9122909,0 72.6624229,28.9103871,0 72.6614216,28.9098062,0 72.6613398,28.8923979,0</coordinates></LinearRing></outerBoundaryIs></Polygon>
    </Placemark>
    <Placemark><name>Moderate Fire Zone</name><styleUrl>#zone1</styleUrl>
      <MultiGeometry><Polygon><extrude>0</extrude><altitudeMode>clampToGround</altitudeMode><outerBoundaryIs><LinearRing><coordinates>73.61356904103796,30.02288044786478,0 73.61357110424765,29.994656037043374,0 73.62338476648988,29.98325770590489,0 73.6237545800258,29.933081190913047,0 73.63338924380959,29.92325612318426,0 73.63375741966289,29.89308117848539,0 73.64339222424216,29.883255068291056,0 73.64375954617381,29.863081170111798,0 73.65339445964105,29.853254277449782,0 73.65376166972675,29.833081163837818,0 73.66339669234077,29.82325348708884,0 73.6641744465701,29.801906737770487,0 73.74574273067343,29.719875635108316,0 73.7793253473785,29.707366653792487,0 73.78808240105411,29.698518571782174,0 73.80932649684296,29.69736713353518,0 73.81808289137506,29.688518492891955,0 73.8476584043413,29.687846693565103,0 73.85943513953066,29.678162378432212,0 73.90143165708547,29.678007523048603,0 73.91335195667996,29.687367125175626,0 73.9358430004848,29.689097005840857,0 73.96783357250663,29.720824372154144,0 73.969828096377,29.734701382443504,0 73.97909033570129,29.74465595463896,0 73.97850760031444,29.83769823341274,0 73.97030779305247,29.844129050350496,0 73.96850893441945,29.857698230994,0 73.95964461365263,29.865304793296335,0 73.95851026894766,29.87769822975327,0 73.94964617634274,29.88530426669541,0 73.94851160452737,29.89769822834057,0 73.93964774031866,29.905303739841585,0 73.93851294115959,29.917698226755856,0 73.92964930666851,29.925303212821504,0 73.92892599318819,29.94652381746014,0 73.91965165577058,29.95530242186813,0 73.91784858106912,29.968780580823086,0 73.91266706785815,29.972903680271003,0 73.8942278,29.9735785,0 73.8953089,29.9775948,0 73.8951366,29.9810675,0 73.8904501,29.9888502,0 73.8902664,29.9891553,0 73.8861367,29.99651,0 73.88607050904349,30.00989721088666,0 73.83122810636243,30.063071004280243,0 73.82785522305599,30.078780564137887,0 73.82071784432306,30.085926869825116,0 73.819647,30.084831,0 73.817268,30.081585,0 73.81184,30.074711,0 73.8115055,30.074269,0 73.8103268,30.0727065,0 73.8090906,30.0710733,0 73.807371,30.0689339,0 73.806629,30.0679694,0 73.8026013,30.0670167,0 73.7985799,30.0660637,0 73.7945485,30.0651262,0 73.790528,30.0641794,0 73.7890529,30.0638477,0 73.7864425,30.0632373,0 73.7840098,30.0626741,0 73.7824443,30.0623113,0 73.7786178,30.0613792,0 73.7743779,30.0604271,0 73.7704386,30.0594032,0 73.7672823,30.0587632,0 73.7662937,30.058554,0 73.7627556,30.0577012,0 73.7582337,30.0566757,0 73.7541953,30.0557534,0 73.7525069,30.0554201,0 73.7501611,30.0548087,0 73.7461157,30.0538644,0 73.7380636,30.0519911,0 73.7340509,30.0510567,0 73.7300187,30.050116,0 73.7213367,30.0480962,0 73.7179259,30.0473065,0 73.7133809,30.0462005,0 73.7114124,30.0457074,0 73.7105943,30.0454965,0 73.7099186,30.0453483,0 73.7058615,30.0444513,0 73.7018137,30.0435502,0 73.7004454,30.0432286,0 73.6970869,30.0424374,0 73.6937438,30.0416582,0 73.6897213,30.0407133,0 73.6856886,30.0397855,0 73.6826285,30.0390619,0 73.6804447,30.0385316,0 73.6695734,30.0360095,0 73.6648921,30.0349056,0 73.661516,30.0341203,0 73.6574962,30.0331925,0 73.6534715,30.0322462,0 73.6495915,30.0313386,0 73.6444468,30.0301337,0 73.6413079,30.0293962,0 73.6373188,30.0284624,0 73.6333211,30.0275211,0 73.6292832,30.0265776,0 73.6265308,30.0259502,0 73.6239922,30.0253316,0 73.621236,30.0246781,0 73.619713,30.0243249,0 73.6164316,30.0235541,0 73.61356904103796,30.02288044786478,0</coordinates></LinearRing></outerBoundaryIs></Polygon><Polygon><extrude>0</extrude><altitudeMode>clampToGround</altitudeMode><outerBoundaryIs><LinearRing><coordinates>73.95356158721403,30.124655972830237,0 73.96282101827646,30.114711396680523,0 73.96302565630968,30.113292015351572,0 73.9670089,30.1186438,0 73.9751827,30.1205392,0 73.9697456,30.126013,0 73.968183,30.1428764,0 73.967278,30.1685417,0 73.971312,30.1737359,0 73.9737153,30.1818791,0 73.97340621278983,30.18681085118951,0 73.96414917693654,30.177698241602947,0 73.96301142121939,30.16529687155169,0 73.95373861626497,30.156523839147063,0 73.95356158721403,30.124655972830237,0</coordinates></LinearRing></outerBoundaryIs></Polygon><Polygon><extrude>0</extrude><altitudeMode>clampToGround</altitudeMode><outerBoundaryIs><LinearRing><coordinates>74.06374065301173,29.729891571275264,0 74.070425,29.730918,0 74.0720558,29.7369922,0 74.0728712,29.7389299,0 74.0803814,29.7395261,0 74.0809392,29.7325204,0 74.0885782,29.7325204,0 74.0889644,29.7298,0 74.1119241,29.7300981,0 74.1122245,29.7276758,0 74.115014,29.7276385,0 74.1149711,29.7249925,0 74.117589,29.7252161,0 74.1175031,29.7232036,0 74.1202926,29.7228309,0 74.1202497,29.7161968,0 74.1326952,29.716905,0 74.132781,29.7411098,0 74.135592,29.7392653,0 74.1355705,29.7496984,0 74.1848373,29.7495121,0 74.1853094,29.7404577,0 74.1825628,29.740644,0 74.1823482,29.7278994,0 74.1912746,29.7348309,0 74.201231,29.7353153,0 74.2016601,29.7507416,0 74.1985273,29.7507416,0 74.1994285,29.7701516,0 74.211123,29.7714368,0 74.2109333,29.8016215,0 74.2327523,29.8081037,0 74.2259502,29.825157,0 74.2301988,29.8249336,0 74.2296195,29.8353392,0 74.2293405,29.8406253,0 74.2326021,29.8406067,0 74.2323446,29.8435475,0 74.2378592,29.8435661,0 74.2381811,29.8411278,0 74.2509484,29.8411465,0 74.2509484,29.8383545,0 74.2674494,29.8387082,0 74.2680502,29.8406067,0 74.2759251,29.8402903,0 74.276526,29.8425982,0 74.2816972,29.8426169,0 74.28176806557207,29.851442367097654,0 74.17942891199453,29.85144237623497,0 74.16884473373685,29.842071954766038,0 74.14807718211172,29.84108632297494,0 74.14020179997682,29.832648161956424,0 74.12683013691714,29.83050780913114,0 74.08484183183097,29.788780588817865,0 74.08304200184841,29.775307158866642,0 74.07376635324299,29.766523827653447,0 74.07304433418496,29.74530794686039,0 74.06376846873673,29.736523828952716,0 74.06374065301173,29.729891571275264,0</coordinates></LinearRing></outerBoundaryIs></Polygon><Polygon><extrude>0</extrude><altitudeMode>clampToGround</altitudeMode><outerBoundaryIs><LinearRing><coordinates>74.13379989590706,29.286523856559434,0 74.13421195784807,29.2319067304694,0 74.14289168444627,29.224688062711927,0 74.14421325816495,29.211906734893844,0 74.15576887267494,29.19987563888005,0 74.16938313852505,29.19736667106854,0 74.17809717065902,29.188518261430033,0 74.20068692972829,29.18851826016066,0 74.2029047,29.1895213,0 74.2060804,29.1911323,0 74.2074108,29.1934177,0 74.2091703,29.1965646,0 74.2090416,29.1976885,0 74.2082691,29.2005356,0 74.2091703,29.2034201,0 74.2107153,29.2057426,0 74.2102003,29.2067166,0 74.2082691,29.2088143,0 74.2099857,29.2116985,0 74.2106294,29.2149573,0 74.209299,29.2172046,0 74.2061662,29.2182908,0 74.2013168,29.2199763,0 74.1934204,29.2232722,0 74.1926479,29.2260812,0 74.1962099,29.2261561,0 74.2001581,29.2275044,0 74.202218,29.228965,0 74.204235,29.2303132,0 74.2065954,29.2312869,0 74.2100286,29.2318487,0 74.2132473,29.2326351,0 74.2152643,29.2341705,0 74.2175388,29.2392635,0 74.217925,29.2422967,0 74.2148351,29.2431954,0 74.2122602,29.2439069,0 74.2095565,29.2454047,0 74.2083549,29.2493364,0 74.2071962,29.2524816,0 74.2055654,29.2546907,0 74.2032909,29.258622,0 74.199686,29.259558,0 74.2000722,29.2622536,0 74.2008018,29.2648369,0 74.1996002,29.2661098,0 74.1969394,29.2667088,0 74.1938066,29.2675324,0 74.191575,29.268094,0 74.1897726,29.269816,0 74.1882705,29.272736,0 74.1881847,29.2750195,0 74.1891288,29.2791747,0 74.1947078,29.2818698,0 74.1989564,29.2843403,0 74.2014455,29.2863615,0 74.2031622,29.2893559,0 74.2063379,29.290329,0 74.2100715,29.2917139,0 74.2147064,29.2945584,0 74.2151784,29.2978145,0 74.2208004,29.2982636,0 74.2269802,29.2982636,0 74.2304992,29.2982262,0 74.2344045,29.2980765,0 74.2361211,29.2987127,0 74.236679,29.3030166,0 74.2417001,29.3025675,0 74.2439103,29.3023242,0 74.2447042,29.3003407,0 74.245348,29.2998167,0 74.2474079,29.2999664,0 74.2468928,29.300846,0 74.2466891,29.3014587,0 74.2457771,29.3032037,0 74.2441463,29.3050936,0 74.2413139,29.3068337,0 74.2414856,29.3135134,0 74.2407775,29.313607,0 74.2390394,29.315347,0 74.2391681,29.3273019,0 74.2298126,29.3276386,0 74.2284822,29.3332133,0 74.2294478,29.3364869,0 74.2158651,29.3366178,0 74.2159295,29.3411632,0 74.2056942,29.3414251,0 74.2055869,29.3322592,0 74.2029047,29.3322031,0 74.2029476,29.3300144,0 74.2025614,29.3299209,0 74.1999864,29.3304634,0 74.1949439,29.3304447,0 74.1949653,29.3319599,0 74.1939139,29.3330075,0 74.1909098,29.3330449,0 74.1874122,29.3323902,0 74.1846227,29.3300706,0 74.1815328,29.3299209,0 74.179387,29.3298461,0 74.1750955,29.3277883,0 74.1706752,29.3253189,0 74.167757,29.3244583,0 74.1663837,29.3255808,0 74.1665124,29.314318,0 74.1656541,29.3135696,0 74.1644525,29.3120728,0 74.1620922,29.3121102,0 74.1609335,29.3129709,0 74.1589164,29.3126341,0 74.1582298,29.3115863,0 74.1560411,29.3103514,0 74.1535091,29.3085552,0 74.1532302,29.3054117,0 74.1526937,29.3029791,0 74.1521144,29.3015944,0 74.14364804372804,29.30156464882791,0 74.14307899196291,29.295319695498435,0 74.13379989590706,29.286523856559434,0</coordinates></LinearRing></outerBoundaryIs></Polygon></MultiGeometry>
    </Placemark>
    <Placemark><name>High Fire Zone</name><styleUrl>#zone2</styleUrl>
      <MultiGeometry><Polygon><extrude>0</extrude><altitudeMode>clampToGround</altitudeMode><outerBoundaryIs><LinearRing><coordinates>73.69357326910686,29.96494910412149,0 73.69357838865338,29.89465600787779,0 73.70339222206164,29.883255064384976,0 73.70417044759225,29.861906743511796,0 73.71339445773107,29.85325427340886,0 73.71417244763138,29.831906738378198,0 73.75683245007308,29.789097118068394,0 73.76931617420176,29.78736665168955,0 73.77683284867749,29.779097115209833,0 73.78931720235913,29.77736669796444,0 73.80124961876416,29.768007597463775,0 73.88324464876908,29.768162202049,0 73.89850382353747,29.781906703989357,0 73.899281431979,29.80325292678579,0 73.90891651651768,29.813081120683123,0 73.9090976009252,29.84494905684507,0 73.89923596183897,29.85656636652011,0 73.89851093647802,29.887698223234743,0 73.88964696251449,29.895303995116446,0 73.88851227328078,29.90769821958894,0 73.87964852743345,29.915303467518918,0 73.8778461707984,29.928780575184078,0 73.86031628711754,29.944126403136725,0 73.85784797697814,29.958780571129246,0 73.82695108118098,29.989729184207334,0 73.81128005093917,29.99342856539761,0 73.79585668319237,30.010507789221407,0 73.78249699659443,30.012648166836165,0 73.77325144778538,30.021442627818516,0 73.72942804735398,30.021442624545415,0 73.70482918509597,29.998780598253166,0 73.7030263894258,29.97530183654348,0 73.69357326910686,29.96494910412149,0</coordinates></LinearRing></outerBoundaryIs></Polygon><Polygon><extrude>0</extrude><altitudeMode>clampToGround</altitudeMode><outerBoundaryIs><LinearRing><coordinates>74.14572212369555,29.74966001213039,0 74.1848373,29.7495121,0 74.1853094,29.7404577,0 74.1825628,29.740644,0 74.1823482,29.7278994,0 74.1912746,29.7348309,0 74.201231,29.7353153,0 74.2016601,29.7507416,0 74.1985273,29.7507416,0 74.1994285,29.7701516,0 74.211123,29.7714368,0 74.21099727185299,29.79144242150293,0 74.19943001924008,29.79144242246145,0 74.19020725878191,29.782648239882917,0 74.17573924169373,29.77972920327614,0 74.14572212369555,29.74966001213039,0</coordinates></LinearRing></outerBoundaryIs></Polygon></MultiGeometry>
    </Placemark>
  </Folder>
  <Folder><name>District Boundary</name>
    <Placemark><name>Sri Ganganagar District</name><styleUrl>#boundary</styleUrl>
      <Polygon><extrude>0</extrude><altitudeMode>clampToGround</altitudeMode><outerBoundaryIs><LinearRing><coordinates>72.6613398,28.8923979,0 72.6717494,28.8923281,0 72.6718139,28.8878191,0 72.6765775,28.8878191,0 72.6769638,28.8701008,0 72.6789057,28.870035,0 72.6791954,28.8563168,0 72.6771393,28.8563544,0 72.6752686,28.847634,0 72.6850747,28.8472675,0 72.6851606,28.8276437,0 72.6984214,28.8273805,0 72.7004814,28.8338846,0 72.7061033,28.8341853,0 72.7060604,28.8249366,0 72.7111673,28.824899,0 72.7114248,28.8159503,0 72.7264452,28.8159127,0 72.7256298,28.8139198,0 72.748804,28.8139574,0 72.7497911,28.8158375,0 72.7531385,28.8135814,0 72.7450617,28.8061172,0 72.7408218,28.7957189,0 72.7472162,28.7953804,0 72.7489757,28.7843605,0 72.791376,28.7841349,0 72.7930068,28.7786433,0 72.7995086,28.7768753,0 72.8063535,28.7771762,0 72.8062248,28.7747312,0 72.8267812,28.7748441,0 72.8266954,28.7679977,0 72.8343772,28.7678849,0 72.834506,28.7633705,0 72.847166,28.7631448,0 72.8472089,28.7587431,0 72.8675508,28.7587431,0 72.8676366,28.7545294,0 72.8935575,28.7543789,0 72.89433,28.7509927,0 72.8933429,28.7385383,0 72.8573798,28.738764,0 72.8575515,28.7250662,0 72.9228686,28.7250662,0 72.9676294,28.7248027,0 73.0093431,28.7252543,0 73.009901,28.7292434,0 73.01445,28.7292058,0 73.0147075,28.73184,0 73.0378818,28.7316519,0 73.0376672,28.7407583,0 73.0327749,28.7410594,0 73.032732,28.7475312,0 73.047924,28.747456,0 73.0495548,28.7511056,0 73.0517005,28.7506541,0 73.0534172,28.7506917,0 73.0647039,28.7539651,0 73.0798101,28.7619786,0 73.0922126,28.7633329,0 73.098607,28.7649882,0 73.1056022,28.7634458,0 73.1106233,28.765703,0 73.1246566,28.7742422,0 73.1256008,28.7739037,0 73.1348276,28.7810129,0 73.1392049,28.7816523,0 73.143754,28.7840596,0 73.1473159,28.7841724,0 73.1519079,28.791281,0 73.1554269,28.7946658,0 73.1503629,28.8045565,0 73.1568002,28.813619,0 73.1559848,28.8155743,0 73.1552553,28.8172288,0 73.1641817,28.8261774,0 73.1669282,28.8253502,0 73.1731939,28.8295235,0 73.181734,28.8349748,0 73.1867981,28.8389973,0 73.1915187,28.8442602,0 73.1998014,28.851703,0 73.2122898,28.8514023,0 73.2151651,28.8482072,0 73.2207441,28.850876,0 73.2155513,28.8561383,0 73.2147359,28.8576418,0 73.2095861,28.8637681,0 73.2041788,28.8680902,0 73.1990611,28.874169,0 73.1993615,28.8741972,0 73.1995868,28.8742159,0 73.2019472,28.8748548,0 73.2030201,28.8756064,0 73.2046938,28.8769968,0 73.2064104,28.8774102,0 73.2072687,28.8769217,0 73.2088136,28.8748172,0 73.2116031,28.8762077,0 73.216753,28.8771472,0 73.220787,28.8785376,0 73.220787,28.8853391,0 73.2195854,28.8858276,0 73.2185125,28.8863912,0 73.2177829,28.8874058,0 73.2158517,28.8895475,0 73.2143497,28.892328,0 73.2118177,28.8942818,0 73.2091999,28.8941691,0 73.2087707,28.9216313,0 73.2107019,28.9209552,0 73.2122898,28.9204669,0 73.2148647,28.9208049,0 73.2170963,28.9209176,0 73.2184696,28.920542,0 73.2208728,28.919077,0 73.2228469,28.9189267,0 73.227911,28.919678,0 73.231945,28.9199034,0 73.2348203,28.9178749,0 73.2354426,28.9264768,0 73.2429743,28.926721,0 73.2428241,28.9322235,0 73.2459354,28.9327118,0 73.2477031,28.9340816,0 73.2496261,28.9364301,0 73.2808685,28.9356414,0 73.2812118,28.9436409,0 73.2810831,28.9675232,0 73.279581,28.9675232,0 73.2809972,28.9694756,0 73.3000516,28.969025,0 73.302927,28.9696258,0 73.309493,28.9695882,0 73.3097505,28.9742813,0 73.312025,28.9741311,0 73.3124113,28.9876836,0 73.3249855,28.9877587,0 73.3250712,29.0016848,0 73.363931,29.0019287,0 73.3644032,29.0127567,0 73.3998298,29.0126816,0 73.3999157,29.0064139,0 73.4389257,29.0058134,0 73.4391832,29.0038242,0 73.4467792,29.0037866,0 73.4467792,29.0016472,0 73.4650182,29.0014596,0 73.4645033,28.9996766,0 73.4647393,28.9990573,0 73.4653401,28.9984192,0 73.4642887,28.9966363,0 73.4652543,28.994309,0 73.4642887,28.9914938,0 73.4623575,28.9869328,0 73.4624004,28.9853374,0 73.4672928,28.9822591,0 73.4713912,28.987327,0 73.4765625,28.9948721,0 73.4804034,29.0000145,0 73.4809398,29.0020788,0 73.481884,29.0054005,0 73.4908318,29.0051754,0 73.4996375,29.0052761,0 73.5060131,29.0052692,0 73.5061848,29.0033925,0 73.510927,29.0004367,0 73.5195637,28.9935395,0 73.5282969,28.9966926,0 73.5330391,28.9984943,0 73.5375452,29.0001458,0 73.5420728,29.0005587,0 73.5494542,29.0015158,0 73.5583591,29.0030923,0 73.5588097,29.0026231,0 73.5622215,28.9985881,0 73.5673499,28.9995077,0 73.5744095,29.0014595,0 73.5793662,29.0038617,0 73.5856318,29.0076337,0 73.5894727,29.011612,0 73.5895157,29.0133947,0 73.5955667,29.0164533,0 73.5975623,29.0191366,0 73.6005664,29.0224202,0 73.5993647,29.0248219,0 73.6022401,29.0260414,0 73.6120891,29.030732,0 73.6127758,29.0303755,0 73.6177325,29.0340715,0 73.6186981,29.0328333,0 73.6251783,29.0352722,0 73.6276245,29.036623,0 73.6330747,29.0306944,0 73.6332679,29.027974,0 73.6391902,29.0278239,0 73.6459279,29.0215571,0 73.6496401,29.0213507,0 73.6511421,29.0219136,0 73.6543178,29.0166597,0 73.6632013,29.0179732,0 73.6666774,29.0151586,0 73.6677074,29.0159467,0 73.6701965,29.0156089,0 73.6737155,29.0155339,0 73.6781787,29.0172227,0 73.682084,29.0205251,0 73.6817836,29.0219136,0 73.6905813,29.0360602,0 73.6994648,29.0341841,0 73.6981773,29.0311823,0 73.6986064,29.0258913,0 73.7027692,29.0233021,0 73.7108373,29.0238274,0 73.7131977,29.0215008,0 73.7268447,29.0245404,0 73.7346124,29.0174478,0 73.7367582,29.0182734,0 73.7405347,29.0039743,0 73.7473154,29.0105424,0 73.7483453,29.0124565,0 73.7497615,29.0152336,0 73.7507915,29.0169975,0 73.7515211,29.0187988,0 73.7512207,29.0242402,0 73.7523794,29.0257788,0 73.7578725,29.0291935,0 73.7602758,29.0320078,0 73.7660265,29.0408628,0 73.7704467,29.0470909,0 73.7708759,29.0497921,0 73.7746524,29.0477662,0 73.7830209,29.048329,0 73.7832784,29.0425512,0 73.7822485,29.0413131,0 73.7838363,29.0367356,0 73.7886428,29.0383114,0 73.7920761,29.0390994,0 73.7943077,29.0391744,0 73.7973976,29.0380863,0 73.7998008,29.0363228,0 73.8008737,29.0326081,0 73.8015174,29.0228142,0 73.8014745,29.0214633,0 73.8011312,29.02045,0 73.8000583,29.0192116,0 73.7979126,29.0181233,0 73.7955093,29.0165096,0 73.7971401,29.0085908,0 73.798685,29.0043121,0 73.8064098,28.9972556,0 73.8070965,28.9951161,0 73.8087058,28.9901236,0 73.8120317,28.991231,0 73.8134479,28.9912498,0 73.8174176,28.9905178,0 73.8199067,28.989767,0 73.8213873,28.9874959,0 73.8228893,28.9867076,0 73.8243484,28.9859943,0 73.8251424,28.9840986,0 73.8267946,28.9822403,0 73.8262367,28.9782421,0 73.8283396,28.9732301,0 73.8282752,28.9697947,0 73.8290906,28.9674668,0 73.8306141,28.9657397,0 73.8328242,28.9655707,0 73.8374162,28.9686871,0 73.8385963,28.966622,0 73.8428449,28.9678798,0 73.8450765,28.9634305,0 73.8495827,28.9572349,0 73.8504624,28.9552823,0 73.8523292,28.9511141,0 73.8522863,28.9498936,0 73.850913,28.9492177,0 73.8480592,28.9481286,0 73.8482094,28.9467016,0 73.8447332,28.9453872,0 73.8454413,28.9414627,0 73.845613,28.9381014,0 73.8458705,28.9369371,0 73.8468361,28.9369934,0 73.8484883,28.9368244,0 73.8503766,28.9362611,0 73.8533377,28.9360733,0 73.8586592,28.9366179,0 73.8638091,28.9374629,0 73.8701391,28.9394534,0 73.873744,28.9406552,0 73.878572,28.9392093,0 73.8812756,28.9411622,0 73.884108,28.9414251,0 73.8908243,28.9462697,0 73.8970685,28.9491613,0 73.9079475,28.954306,0 73.9086771,28.9595442,0 73.9121103,28.9605956,0 73.9158225,28.9602577,0 73.9230752,28.962398,0 73.9258861,28.9620225,0 73.9267444,28.9645382,0 73.9281821,28.9641815,0 73.9353061,28.9639374,0 73.9376449,28.9659837,0 73.9532017,28.9704142,0 73.9623427,28.9744315,0 73.9637804,28.9742625,0 73.9679003,28.9753137,0 73.9681792,28.9748632,0 73.9683723,28.9739997,0 73.9672565,28.9731737,0 73.9671063,28.9707333,0 73.9663553,28.9677297,0 73.9664626,28.9594504,0 73.9645743,28.9584929,0 73.9648747,28.9567092,0 73.96245,28.9555639,0 73.9610338,28.9508324,0 73.9606261,28.9474339,0 73.9603686,28.9461946,0 73.9592957,28.945575,0 73.9587164,28.9452182,0 73.9580512,28.9445047,0 73.9582872,28.9438475,0 73.9589524,28.9430588,0 73.9595961,28.9424204,0 73.9597249,28.9418946,0 73.9592743,28.9407491,0 73.9589739,28.9395661,0 73.9600253,28.9384394,0 73.9613342,28.9385333,0 73.9617634,28.9369371,0 73.9627933,28.9350404,0 73.9630079,28.9339888,0 73.9631152,28.9326367,0 73.9633727,28.930477,0 73.9632439,28.9289746,0 73.9619994,28.9276224,0 73.9658618,28.9170109,0 73.9714622,28.9015143,0 73.9911818,28.9100237,0 73.9966535,28.9136864,0 74.0006447,28.9170485,0 74.0049147,28.9207861,0 74.006288,28.9208988,0 74.0077686,28.9214998,0 74.0094638,28.9226455,0 74.0106225,28.9234155,0 74.0115666,28.9242607,0 74.0119099,28.9252749,0 74.0130043,28.9264205,0 74.0121674,28.9276976,0 74.0137553,28.9298948,0 74.0152144,28.9315475,0 74.0167594,28.9316601,0 74.0201711,28.9318292,0 74.0235185,28.932524,0 74.0264153,28.9335005,0 74.0257931,28.9346085,0 74.025321,28.9353785,0 74.02457,28.9392656,0 74.0240764,28.9402984,0 74.023776,28.9410308,0 74.0245271,28.9415566,0 74.0246343,28.9417631,0 74.0242481,28.9422514,0 74.0229177,28.9422889,0 74.0228104,28.942533,0 74.0227246,28.9432278,0 74.0228748,28.9446737,0 74.0220165,28.9451055,0 74.0221882,28.9456313,0 74.0227675,28.9472461,0 74.0235615,28.9479596,0 74.0240764,28.948767,0 74.0228963,28.9490862,0 74.0228963,28.9496495,0 74.023025,28.9505508,0 74.0234113,28.9514896,0 74.0235615,28.9521655,0 74.0230036,28.9524472,0 74.0225529,28.95271,0 74.0225529,28.9533297,0 74.0225744,28.953799,0 74.0224886,28.9548693,0 74.0222311,28.9554701,0 74.0216946,28.9554513,0 74.0210509,28.9558643,0 74.0195918,28.9568031,0 74.0184545,28.9559207,0 74.0180039,28.9589059,0 74.018197,28.961478,0 74.0183687,28.9624167,0 74.0185833,28.9634681,0 74.0193558,28.9642941,0 74.020493,28.9649887,0 74.0204286,28.9657585,0 74.0202355,28.9679925,0 74.0186691,28.9695882,0 74.0203213,28.9709211,0 74.0207505,28.9739246,0 74.0205788,28.977022,0 74.0199351,28.9828222,0 74.0191841,28.9869516,0 74.0213728,28.9875898,0 74.0212869,28.9886221,0 74.022274,28.9891664,0 74.0228748,28.9894479,0 74.0231323,28.9898609,0 74.0233898,28.9904615,0 74.0236687,28.9920193,0 74.0244412,28.9928263,0 74.0262651,28.9953225,0 74.0279174,28.997143,0 74.0291405,28.99795,0 74.0298271,28.9989635,0 74.0303635,28.9999957,0 74.0293979,29.0008402,0 74.0285182,29.0014032,0 74.0281534,29.0021727,0 74.0278101,29.003355,0 74.0283036,29.0040681,0 74.0320372,29.0053818,0 74.0414572,29.009773,0 74.0799092,29.0273737,0 74.0900159,29.0355161,0 74.0948438,29.0429264,0 74.1011524,29.044202,0 74.1037273,29.0512553,0 74.1104649,29.0556634,0 74.1101646,29.0621343,0 74.1137266,29.0654353,0 74.1263437,29.0644976,0 74.1296482,29.064235,0 74.1329312,29.0660355,0 74.1349482,29.0677234,0 74.1362571,29.0711743,0 74.1366005,29.0755252,0 74.1350126,29.0797635,0 74.1354847,29.0830264,0 74.1392183,29.0847141,0 74.1423082,29.0870768,0 74.1451835,29.0929271,0 74.1488313,29.0951396,0 74.1521787,29.1025644,0 74.1584444,29.1078888,0 74.162178,29.1118633,0 74.1618776,29.115875,0 74.1592598,29.1196617,0 74.1593885,29.1230358,0 74.1600478,29.1246615,0 74.1611051,29.1277595,0 74.1657829,29.134657,0 74.1683578,29.1406546,0 74.1741514,29.1438781,0 74.1772413,29.146127,0 74.1810178,29.1468391,0 74.1859102,29.1474013,0 74.1900301,29.1484883,0 74.2001152,29.1495377,0 74.2046213,29.152761,0 74.2054796,29.157071,0 74.2054796,29.1590573,0 74.2036342,29.1632546,0 74.2059946,29.169138,0 74.2063379,29.1732225,0 74.2039346,29.175808,0 74.2027759,29.178356,0 74.2008447,29.1817656,0 74.1993427,29.1879103,0 74.2029047,29.1895213,0 74.2060804,29.1911323,0 74.2074108,29.1934177,0 74.2091703,29.1965646,0 74.2090416,29.1976885,0 74.2082691,29.2005356,0 74.2091703,29.2034201,0 74.2107153,29.2057426,0 74.2102003,29.2067166,0 74.2082691,29.2088143,0 74.2099857,29.2116985,0 74.2106294,29.2149573,0 74.209299,29.2172046,0 74.2061662,29.2182908,0 74.2013168,29.2199763,0 74.1934204,29.2232722,0 74.1926479,29.2260812,0 74.1962099,29.2261561,0 74.2001581,29.2275044,0 74.202218,29.228965,0 74.204235,29.2303132,0 74.2065954,29.2312869,0 74.2100286,29.2318487,0 74.2132473,29.2326351,0 74.2152643,29.2341705,0 74.2175388,29.2392635,0 74.217925,29.2422967,0 74.2148351,29.2431954,0 74.2122602,29.2439069,0 74.2095565,29.2454047,0 74.2083549,29.2493364,0 74.2071962,29.2524816,0 74.2055654,29.2546907,0 74.2032909,29.258622,0 74.199686,29.259558,0 74.2000722,29.2622536,0 74.2008018,29.2648369,0 74.1996002,29.2661098,0 74.1969394,29.2667088,0 74.1938066,29.2675324,0 74.191575,29.268094,0 74.1897726,29.269816,0 74.1882705,29.272736,0 74.1881847,29.2750195,0 74.1891288,29.2791747,0 74.1947078,29.2818698,0 74.1989564,29.2843403,0 74.2014455,29.2863615,0 74.2031622,29.2893559,0 74.2063379,29.290329,0 74.2100715,29.2917139,0 74.2147064,29.2945584,0 74.2151784,29.2978145,0 74.2208004,29.2982636,0 74.2269802,29.2982636,0 74.2304992,29.2982262,0 74.2344045,29.2980765,0 74.2361211,29.2987127,0 74.236679,29.3030166,0 74.2417001,29.3025675,0 74.2439103,29.3023242,0 74.2447042,29.3003407,0 74.245348,29.2998167,0 74.2474079,29.2999664,0 74.2468928,29.300846,0 74.2466891,29.3014587,0 74.2457771,29.3032037,0 74.2441463,29.3050936,0 74.2413139,29.3068337,0 74.2414856,29.3135134,0 74.2407775,29.313607,0 74.2390394,29.315347,0 74.2391681,29.3273019,0 74.2298126,29.3276386,0 74.2284822,29.3332133,0 74.2294478,29.3364869,0 74.2158651,29.3366178,0 74.2159295,29.3411632,0 74.2056942,29.3414251,0 74.2055869,29.3322592,0 74.2029047,29.3322031,0 74.2029476,29.3300144,0 74.2025614,29.3299209,0 74.1999864,29.3304634,0 74.1949439,29.3304447,0 74.1949653,29.3319599,0 74.1939139,29.3330075,0 74.1909098,29.3330449,0 74.1874122,29.3323902,0 74.1846227,29.3300706,0 74.1815328,29.3299209,0 74.179387,29.3298461,0 74.1750955,29.3277883,0 74.1706752,29.3253189,0 74.167757,29.3244583,0 74.1663837,29.3255808,0 74.1665124,29.314318,0 74.1656541,29.3135696,0 74.1644525,29.3120728,0 74.1620922,29.3121102,0 74.1609335,29.3129709,0 74.1589164,29.3126341,0 74.1582298,29.3115863,0 74.1560411,29.3103514,0 74.1535091,29.3085552,0 74.1532302,29.3054117,0 74.1526937,29.3029791,0 74.1521144,29.3015944,0 74.1414714,29.301557,0 74.1401195,29.3000974,0 74.1413855,29.2971969,0 74.1405272,29.2964297,0 74.1397118,29.2952133,0 74.1267943,29.2910589,0 74.1264295,29.2939782,0 74.1249704,29.2953817,0 74.1152286,29.2958496,0 74.1135978,29.2967291,0 74.1079759,29.2949701,0 74.1032123,29.289936,0 74.1011095,29.2862492,0 74.1006589,29.2785757,0 74.1021824,29.2723055,0 74.102118,29.2707706,0 74.1014743,29.269554,0 74.0992427,29.2691796,0 74.0991568,29.2678319,0 74.096024,29.2671019,0 74.0967107,29.2664093,0 74.0966034,29.264631,0 74.0950155,29.2638448,0 74.0949511,29.2607373,0 74.0912604,29.2579293,0 74.0856385,29.2593521,0 74.0767979,29.2631522,0 74.0678501,29.267757,0 74.0614986,29.2717814,0 74.0606189,29.2729045,0 74.0603614,29.2752628,0 74.0544176,29.2751505,0 74.0457701,29.2858562,0 74.0447402,29.2872785,0 74.0322733,29.2874095,0 74.0292263,29.2843215,0 74.0271449,29.2827681,0 74.0237975,29.2823002,0 74.0206647,29.2842279,0 74.0175319,29.2883827,0 74.0162658,29.3047942,0 74.015944,29.3091913,0 74.0180683,29.3138689,0 74.0188837,29.3159083,0 74.0194845,29.3220262,0 74.0194416,29.3268529,0 74.0190124,29.32921,0 74.0171671,29.3311368,0 74.0156436,29.3330262,0 74.0038204,29.3337558,0 74.0021682,29.3399474,0 74.0011167,29.3477659,0 74.000473,29.3574914,0 74.0001941,29.3618489,0 73.9931559,29.3678705,0 73.9929628,29.3772575,0 73.9893579,29.3774071,0 73.9895725,29.3834465,0 73.9865041,29.3834652,0 73.9867186,29.3894856,0 73.9841008,29.3895229,0 73.9840793,29.3989454,0 73.9726639,29.3849236,0 73.9553475,29.3880272,0 73.9387393,29.3688242,0 73.9271521,29.3690112,0 73.9099645,29.3691421,0 73.9099645,29.3730129,0 73.9024973,29.3729381,0 73.902626,29.3777063,0 73.9024329,29.3999362,0 73.9071965,29.4047965,0 73.9064884,29.4143484,0 73.9015102,29.4145166,0 73.9012956,29.4169091,0 73.8936353,29.4169091,0 73.8936138,29.4208342,0 73.8867259,29.4208715,0 73.8857817,29.4488098,0 73.92241,29.448623,0 73.9224958,29.4533502,0 73.9279675,29.4534437,0 73.9281606,29.455555,0 73.9354348,29.454546,0 73.9400482,29.4526402,0 73.9438677,29.450641,0 73.9438033,29.4577036,0 73.9536094,29.457741,0 73.9534378,29.4647844,0 73.9508629,29.4649526,0 73.9515066,29.4729483,0 73.9510131,29.4836331,0 73.9560771,29.4839694,0 73.9563989,29.4774503,0 73.9589953,29.4773195,0 73.9591026,29.4751526,0 73.9640808,29.4752647,0 73.9641666,29.4857251,0 73.9691019,29.4853142,0 73.9695096,29.488228,0 73.9666772,29.4882093,0 73.9666557,29.4923184,0 73.9633727,29.4923744,0 73.9631367,29.4987432,0 73.963995,29.5004987,0 73.963995,29.504047,0 73.9568496,29.5040657,0 73.9568496,29.506176,0 73.9518499,29.5064748,0 73.9517212,29.5107698,0 73.9448118,29.5107698,0 73.9448547,29.5142618,0 73.9498544,29.514019,0 73.9498973,29.5162224,0 73.9577079,29.5162971,0 73.9577937,29.5185005,0 73.9523434,29.5186872,0 73.9523864,29.5280416,0 73.9421296,29.528023,0 73.9422154,29.5307115,0 73.944726,29.5308235,0 73.9445758,29.5372085,0 73.9472794,29.5373952,0 73.9475798,29.5402142,0 73.9549613,29.5400835,0 73.9556265,29.5527585,0 73.9579654,29.5527585,0 73.9580083,29.5550171,0 73.9605403,29.5550544,0 73.9604759,29.5568463,0 73.9412069,29.5604487,0 73.9356708,29.5617179,0 73.9214015,29.5576863,0 73.9213586,29.5602807,0 73.9160585,29.560374,0 73.9155865,29.5684555,0 73.9205861,29.5680262,0 73.9207363,29.570863,0 73.9311647,29.5706764,0 73.9310574,29.5685861,0 73.935349,29.5685861,0 73.950026,29.5683248,0 73.9499616,29.5693886,0 73.952558,29.569034,0 73.9527726,29.5704151,0 73.9551329,29.5702845,0 73.9551544,29.5680449,0 73.9627933,29.5680076,0 73.962729,29.5770588,0 73.959682,29.5771521,0 73.9595103,29.5838328,0 73.9619994,29.5837021,0 73.9624715,29.5865571,0 73.9448547,29.5869117,0 73.9453697,29.6066518,0 73.9483738,29.6064839,0 73.9483952,29.6112411,0 73.9476442,29.6115769,0 73.9433741,29.6112224,0 73.9432883,29.6133864,0 73.9378166,29.6136103,0 73.9377522,29.6089278,0 73.9402628,29.6090584,0 73.9402628,29.6063719,0 73.9348984,29.606148,0 73.9344692,29.5945246,0 73.9341903,29.5930692,0 73.9261865,29.5981256,0 73.9245987,29.6007376,0 73.9120245,29.6093569,0 73.9099645,29.6096927,0 73.9097285,29.6035921,0 73.9068317,29.6034242,0 73.9065528,29.6009615,0 73.9047289,29.6009428,0 73.9044499,29.5976778,0 73.8973903,29.5979017,0 73.8964891,29.6008496,0 73.8916182,29.6008869,0 73.8915324,29.5985733,0 73.8885712,29.5985174,0 73.8885927,29.5960732,0 73.8856101,29.5959426,0 73.8852024,29.5934237,0 73.8826489,29.5933677,0 73.8826918,29.5889082,0 73.8644313,29.5890202,0 73.8643563,29.5962225,0 73.8563096,29.5906995,0 73.8559985,29.5908768,0 73.8559019,29.591875,0 73.8531715,29.5917864,0 73.8529676,29.5892721,0 73.8480377,29.5894121,0 73.847909,29.5980323,0 73.8502264,29.6005324,0 73.8528657,29.6004764,0 73.8537454,29.6081256,0 73.8604617,29.6074726,0 73.8608479,29.6119686,0 73.8580155,29.6121179,0 73.8578653,29.6163338,0 73.8576293,29.625474,0 73.8522649,29.6256232,0 73.8521147,29.6302863,0 73.8428449,29.6306034,0 73.8429522,29.6320582,0 73.8427162,29.6328415,0 73.8409567,29.6358816,0 73.8378453,29.6399847,0 73.8345194,29.6431925,0 73.831408,29.6431365,0 73.8310218,29.6555189,0 73.844347,29.6556121,0 73.8444757,29.6574209,0 73.8575434,29.6575328,0 73.8573932,29.6590991,0 73.8654184,29.6591737,0 73.8809323,29.6689066,0 73.8887,29.6693168,0 73.8889789,29.6714982,0 73.9116382,29.6718524,0 73.9116168,29.6692981,0 73.9196849,29.6693541,0 73.9198082,29.6669675,0 73.937441,29.66659,0 73.9265915,29.6709797,0 73.9247392,29.6718809,0 73.9249792,29.6828058,0 73.9377834,29.6829627,0 73.937838,29.6803351,0 73.9402413,29.6804656,0 73.9406275,29.6739406,0 73.9453911,29.6737541,0 73.9454341,29.6691304,0 73.9480304,29.6691117,0 73.9482021,29.6716287,0 73.9507985,29.6714422,0 73.9511847,29.6758794,0 73.9583516,29.6759913,0 73.9586091,29.7018089,0 73.979144,29.6934213,0 73.9791011,29.7229054,0 73.9819979,29.7229614,0 73.9821481,29.7186194,0 73.9987349,29.7188057,0 73.9999151,29.7189549,0 74.01905,29.7189968,0 74.0193343,29.7235949,0 74.0241193,29.723334,0 74.0245915,29.730359,0 74.0292048,29.7300609,0 74.0294193,29.7327254,0 74.0374017,29.7325763,0 74.0374231,29.7350545,0 74.0424012,29.7350545,0 74.0425085,29.7377747,0 74.0474653,29.7375139,0 74.0477442,29.735278,0 74.0528082,29.735278,0 74.0526795,29.7305081,0 74.0527225,29.7283652,0 74.0563488,29.7287565,0 74.070425,29.730918,0 74.0720558,29.7369922,0 74.0728712,29.7389299,0 74.0803814,29.7395261,0 74.0809392,29.7325204,0 74.0885782,29.7325204,0 74.0889644,29.7298,0 74.1119241,29.7300981,0 74.1122245,29.7276758,0 74.115014,29.7276385,0 74.1149711,29.7249925,0 74.117589,29.7252161,0 74.1175031,29.7232036,0 74.1202926,29.7228309,0 74.1202497,29.7161968,0 74.1326952,29.716905,0 74.132781,29.7411098,0 74.135592,29.7392653,0 74.1355705,29.7496984,0 74.1848373,29.7495121,0 74.1853094,29.7404577,0 74.1825628,29.740644,0 74.1823482,29.7278994,0 74.1912746,29.7348309,0 74.201231,29.7353153,0 74.2016601,29.7507416,0 74.1985273,29.7507416,0 74.1994285,29.7701516,0 74.211123,29.7714368,0 74.2109333,29.8016215,0 74.2327523,29.8081037,0 74.2259502,29.825157,0 74.2301988,29.8249336,0 74.2296195,29.8353392,0 74.2293405,29.8406253,0 74.2326021,29.8406067,0 74.2323446,29.8435475,0 74.2378592,29.8435661,0 74.2381811,29.8411278,0 74.2509484,29.8411465,0 74.2509484,29.8383545,0 74.2674494,29.8387082,0 74.2680502,29.8406067,0 74.2759251,29.8402903,0 74.276526,29.8425982,0 74.2816972,29.8426169,0 74.2818689,29.8640001,0 74.2767405,29.8640745,0 74.2768907,29.8750342,0 74.2579865,29.8697313,0 74.2578792,29.8733596,0 74.255476,29.8729503,0 74.2555618,29.8815462,0 74.2541885,29.881695,0 74.2541027,29.8889693,0 74.2585659,29.8888018,0 74.2583942,29.8959826,0 74.2631793,29.8959268,0 74.2631578,29.8999634,0 74.2659044,29.8999634,0 74.2657972,29.9020096,0 74.268415,29.9021956,0 74.268887,29.9089104,0 74.2738223,29.9089476,0 74.2743158,29.9158479,0 74.2766333,29.9160339,0 74.276998,29.9182843,0 74.279294,29.9182099,0 74.2793154,29.9204603,0 74.2853451,29.9207764,0 74.2906022,29.9209066,0 74.2949796,29.9235289,0 74.2950868,29.9251096,0 74.2974901,29.9254443,0 74.2973077,29.9390935,0 74.2970209,29.9551413,0 74.1684224,29.9626236,0 74.0620817,29.9684689,0 73.9753409,29.9704893,0 73.9657011,29.9709628,0 73.8942278,29.9735785,0 73.8953089,29.9775948,0 73.8951366,29.9810675,0 73.8904501,29.9888502,0 73.8902664,29.9891553,0 73.8861367,29.99651,0 73.8860631,30.0113957,0 73.8935709,30.0212834,0 73.9035527,30.0491606,0 73.9293309,30.0680206,0 73.9670089,30.1186438,0 73.9751827,30.1205392,0 73.9697456,30.126013,0 73.968183,30.1428764,0 73.967278,30.1685417,0 73.971312,30.1737359,0 73.9737153,30.1818791,0 73.9726891,30.198253,0 73.9693249,30.195619,0 73.9633623,30.1909822,0 73.9602414,30.1885598,0 73.9575,30.1864228,0 73.9515679,30.1818856,0 73.9501854,30.1808115,0 73.9476751,30.1789278,0 73.9437187,30.1758637,0 73.9414357,30.1741297,0 73.9403352,30.173301,0 73.9377232,30.1713181,0 73.9319368,30.1669497,0 73.9287782,30.1645581,0 73.9244939,30.1614048,0 73.9224499,30.159817,0 73.9195762,30.1576643,0 73.9160622,30.1551013,0 73.9128554,30.152777,0 73.9114958,30.1517888,0 73.9089192,30.1499608,0 73.9066187,30.1482801,0 73.9044234,30.1466942,0 73.9008931,30.1442348,0 73.8999383,30.1435188,0 73.8967209,30.1412068,0 73.8935892,30.139147,0 73.8924927,30.1384261,0 73.8904593,30.137078,0 73.8882322,30.1356268,0 73.8860057,30.1338011,0 73.8837745,30.1319745,0 73.88085,30.1296468,0 73.8779505,30.1273167,0 73.8755404,30.1257787,0 73.8731831,30.1242747,0 73.8708169,30.1227749,0 73.8669785,30.1199359,0 73.8643507,30.1181486,0 73.861388,30.116026,0 73.8580559,30.1136168,0 73.8562887,30.1123726,0 73.8538903,30.1106365,0 73.8514507,30.1089207,0 73.8486149,30.1068887,0 73.8442696,30.1037951,0 73.8417427,30.1019619,0 73.8391903,30.1001482,0 73.8367671,30.0984149,0 73.8343475,30.0966817,0 73.8323797,30.0952992,0 73.8298432,30.093455,0 73.827935,30.0922567,0 73.8261879,30.0908891,0 73.823113,30.088378,0 73.819647,30.084831,0 73.817268,30.081585,0 73.81184,30.074711,0 73.8115055,30.074269,0 73.8103268,30.0727065,0 73.8090906,30.0710733,0 73.807371,30.0689339,0 73.806629,30.0679694,0 73.8026013,30.0670167,0 73.7985799,30.0660637,0 73.7945485,30.0651262,0 73.790528,30.0641794,0 73.7890529,30.0638477,0 73.7864425,30.0632373,0 73.7840098,30.0626741,0 73.7824443,30.0623113,0 73.7786178,30.0613792,0 73.7743779,30.0604271,0 73.7704386,30.0594032,0 73.7672823,30.0587632,0 73.7662937,30.058554,0 73.7627556,30.0577012,0 73.7582337,30.0566757,0 73.7541953,30.0557534,0 73.7525069,30.0554201,0 73.7501611,30.0548087,0 73.7461157,30.0538644,0 73.7380636,30.0519911,0 73.7340509,30.0510567,0 73.7300187,30.050116,0 73.7213367,30.0480962,0 73.7179259,30.0473065,0 73.7133809,30.0462005,0 73.7114124,30.0457074,0 73.7105943,30.0454965,0 73.7099186,30.0453483,0 73.7058615,30.0444513,0 73.7018137,30.0435502,0 73.7004454,30.0432286,0 73.6970869,30.0424374,0 73.6937438,30.0416582,0 73.6897213,30.0407133,0 73.6856886,30.0397855,0 73.6826285,30.0390619,0 73.6804447,30.0385316,0 73.6695734,30.0360095,0 73.6648921,30.0349056,0 73.661516,30.0341203,0 73.6574962,30.0331925,0 73.6534715,30.0322462,0 73.6495915,30.0313386,0 73.6444468,30.0301337,0 73.6413079,30.0293962,0 73.6373188,30.0284624,0 73.6333211,30.0275211,0 73.6292832,30.0265776,0 73.6265308,30.0259502,0 73.6239922,30.0253316,0 73.621236,30.0246781,0 73.619713,30.0243249,0 73.6164316,30.0235541,0 73.613183,30.0227896,0 73.6093464,30.0218637,0 73.6075973,30.0214806,0 73.6051099,30.0208979,0 73.5997111,30.0195705,0 73.5970993,30.0189421,0 73.5934274,30.0176525,0 73.5885789,30.015938,0 73.5855251,30.014809,0 73.5816816,30.0134088,0 73.5778321,30.0120032,0 73.5729386,30.0102639,0 73.5693056,30.008976,0 73.5662771,30.0077956,0 73.5624429,30.0063872,0 73.5585841,30.0049806,0 73.5547091,30.0035799,0 73.5508694,30.0021791,0 73.5468589,30.0007273,0 73.5431956,29.9993933,0 73.5393493,29.9979925,0 73.5354782,29.9965798,0 73.5329413,29.9955523,0 73.5277814,29.9937799,0 73.5242622,29.9925027,0 73.5208033,29.9912381,0 73.5162439,29.989576,0 73.5123829,29.9881712,0 73.5085427,29.9867654,0 73.5071678,29.9862658,0 73.5040571,29.9851279,0 73.5008471,29.9839622,0 73.4970046,29.9825607,0 73.4947657,29.98175,0 73.4932158,29.9811811,0 73.4893142,29.9797513,0 73.4871453,29.9789628,0 73.482983,29.9774428,0 73.4816235,29.9769472,0 73.4754822,29.9746999,0 73.4726069,29.9736724,0 73.4693635,29.9724824,0 73.4672643,29.9716936,0 73.464469,29.9707154,0 73.4623792,29.9699143,0 73.4590756,29.9687128,0 73.4508486,29.9656952,0 73.4507876,29.9657024,0 73.4379195,29.9610104,0 73.418043,29.953738,0 73.403504,29.948451,0 73.39699,29.945934,0 73.394357,29.938585,0 73.393684,29.9363037,0 73.39203,29.930697,0 73.39054,29.925822,0 73.3860715,29.910507,0 73.381991,29.896522,0 73.375609,29.87499,0 73.3708152,29.8585577,0 73.36614,29.842532,0 73.3602088,29.8223279,0 73.353914,29.800885,0 73.3489955,29.7845971,0 73.343671,29.766965,0 73.3436122,29.7667628,0 73.3434634,29.7663001,0 73.3424299,29.7629187,0 73.3414457,29.7597222,0 73.3403302,29.7561119,0 73.3394576,29.7531542,0 73.3386988,29.7507044,0 73.3380796,29.7486584,0 73.3374344,29.7465004,0 73.336103,29.7423837,0 73.3349068,29.7383038,0 73.334041,29.7355213,0 73.3327361,29.7311263,0 73.331712,29.7278166,0 73.3290364,29.7193835,0 73.3277813,29.7154467,0 73.3264392,29.7114384,0 73.3251015,29.7075931,0 73.3240791,29.7040862,0 73.3239062,29.7036028,0 73.3227469,29.6995953,0 73.3218918,29.6970009,0 73.3211917,29.6946535,0 73.3204365,29.6924743,0 73.319023,29.6879887,0 73.3179152,29.6845327,0 73.3171338,29.6821625,0 73.3160818,29.6787978,0 73.3147258,29.6745789,0 73.3137229,29.6713937,0 73.3126815,29.6681209,0 73.3117115,29.6650691,0 73.3104519,29.661128,0 73.3093341,29.6576196,0 73.3075582,29.6519969,0 73.3063661,29.6481773,0 73.3055998,29.6459301,0 73.3039182,29.6405378,0 73.3026474,29.6366387,0 73.3017057,29.6332074,0 73.3007221,29.6305196,0 73.2991498,29.6257713,0 73.2981249,29.6225223,0 73.2972884,29.6199006,0 73.2967365,29.6180063,0 73.2961174,29.6160602,0 73.2953102,29.6133068,0 73.2937946,29.608617,0 73.2925547,29.6042845,0 73.2915283,29.6012718,0 73.2901146,29.5975461,0 73.2883006,29.5929149,0 73.2863646,29.5876887,0 73.2839736,29.5808287,0 73.2822833,29.5720188,0 73.2802614,29.5685853,0 73.2758143,29.5610616,0 73.2737141,29.5575179,0 73.2708253,29.5526256,0 73.269515,29.5504284,0 73.2676881,29.5473523,0 73.2667814,29.5458208,0 73.2649066,29.5426538,0 73.2631738,29.5397247,0 73.2612508,29.5364837,0 73.258607,29.5320196,0 73.2555409,29.5268052,0 73.253904,29.5240789,0 73.2511096,29.5192837,0 73.2363582,29.4942219,0 73.2299146,29.4832727,0 73.2248866,29.4747387,0 73.2182236,29.4633667,0 73.209902,29.4492558,0 73.2080105,29.4460223,0 73.206115,29.4427856,0 73.2051356,29.4411244,0 73.2036896,29.4386515,0 73.2002466,29.4328477,0 73.1972966,29.4277317,0 73.1832576,29.4040087,0 73.1800456,29.3970127,0 73.1772336,29.3931705,0 73.1752817,29.3905617,0 73.1736588,29.3877808,0 73.1718964,29.3846065,0 73.1704448,29.3820919,0 73.1700027,29.38127,0 73.1178203,29.2927949,0 73.0861021,29.2389792,0 73.0844907,29.2362236,0 73.0791369,29.23062,0 73.075452,29.2269015,0 73.0722044,29.2233626,0 73.0694686,29.2205208,0 73.0578502,29.2083818,0 73.0500271,29.2002384,0 73.0468551,29.1969359,0 73.0446153,29.1946672,0 73.0425455,29.1924353,0 73.0383773,29.1881742,0 73.0364899,29.1861876,0 73.0345558,29.1841732,0 73.0306767,29.1801357,0 73.0228139,29.171995,0 73.0198457,29.1688842,0 73.0177609,29.1667504,0 73.0151336,29.1640379,0 73.0133402,29.1622061,0 73.0115305,29.1603467,0 73.0097637,29.158518,0 73.0075992,29.1562882,0 73.0043951,29.1529968,0 73.0028194,29.1495976,0 73.001273,29.1462758,0 72.9997082,29.1429092,0 72.9981429,29.1395434,0 72.9965796,29.1361829,0 72.995407,29.1336702,0 72.9936475,29.129888,0 72.99036,29.122852,0 72.9872321,29.1161143,0 72.9856186,29.1126613,0 72.9840536,29.1093047,0 72.9824907,29.1059383,0 72.9807631,29.1018953,0 72.9795198,29.0989901,0 72.9778751,29.0957584,0 72.9762147,29.0925182,0 72.9746369,29.0891599,0 72.9730635,29.0858022,0 72.9714679,29.0823771,0 72.965188,29.0690294,0 72.9636196,29.065672,0 72.9620406,29.0623156,0 72.9604727,29.0589562,0 72.9588966,29.0555981,0 72.9536989,29.0445083,0 72.9534007,29.043814,0 72.9528095,29.0426225,0 72.9492903,29.0351564,0 72.947571,29.0314789,0 72.9457797,29.0278746,0 72.9382378,29.0249439,0 72.9347723,29.023646,0 72.930647,29.0220918,0 72.9230565,29.0192368,0 72.9117152,29.0149782,0 72.9078511,29.0135222,0 72.9041049,29.0121144,0 72.900249,29.0106649,0 72.8965177,29.0092636,0 72.8926737,29.0078142,0 72.8850834,29.004969,0 72.881277,29.0035445,0 72.8774752,29.0021111,0 72.8737267,29.0007056,0 72.8698706,28.999266,0 72.8659203,28.9977849,0 72.8622737,28.9964175,0 72.8585252,28.995029,0 72.8546731,28.9935741,0 72.8509372,28.9921588,0 72.8470831,28.9907306,0 72.8433498,28.9893178,0 72.8412043,28.9885284,0 72.8394696,28.9878766,0 72.8357341,28.986484,0 72.831876,28.9850314,0 72.8280563,28.9835974,0 72.8242854,28.9822123,0 72.8205584,28.980812,0 72.8167035,28.9793637,0 72.8129867,28.977974,0 72.8090749,28.9765194,0 72.8055929,28.9752822,0 72.8036166,28.9744822,0 72.7996595,28.9730938,0 72.7938797,28.9708068,0 72.7879063,28.9685742,0 72.7826757,28.9666192,0 72.7786541,28.9651097,0 72.7749027,28.9637108,0 72.7710245,28.9622552,0 72.767283,28.9608532,0 72.763469,28.959418,0 72.7595538,28.9579486,0 72.7521399,28.9551599,0 72.7482756,28.9537191,0 72.7457464,28.9527672,0 72.7331019,28.9480146,0 72.7260326,28.9444534,0 72.7189797,28.9404873,0 72.7189831,28.9404873,0 72.7155026,28.9386329,0 72.7118609,28.9367224,0 72.7048089,28.9329504,0 72.6977304,28.9291794,0 72.6942225,28.9273111,0 72.6906634,28.9254112,0 72.6871651,28.9235324,0 72.6836174,28.921641,0 72.6811597,28.9203367,0 72.6765534,28.9178933,0 72.6726611,28.9158359,0 72.6694859,28.9141611,0 72.6659947,28.9122909,0 72.6624229,28.9103871,0 72.6614216,28.9098062,0 72.6613398,28.8923979,0</coordinates></LinearRing></outerBoundaryIs></Polygon>
    </Placemark>
  </Folder>
  <Folder><name>Fire Incidents</name>
    <Placemark><name>Fire 2018-02-26</name>
      <description>Brightness: 388.9</description>
      <styleUrl>#firepoint</styleUrl>
      <Point><coordinates>74.2983,29.4916,0</coordinates></Point>
    </Placemark>
    <Placemark><name>Fire 2018-03-14</name>
      <description>Brightness: 379.7</description>
      <styleUrl>#firepoint</styleUrl>
      <Point><coordinates>74.4758,29.5403,0</coordinates></Point>
    </Placemark>
    <Placemark><name>Fire 2018-05-24</name>
      <description>Brightness: 373.7</description>
      <styleUrl>#firepoint</styleUrl>
      <Point><coordinates>74.4552,29.6113,0</coordinates></Point>
    </Placemark>
    <Placemark><name>Fire 2018-06-28</name>
      <description>Brightness: 336.8</description>
      <styleUrl>#firepoint</styleUrl>
      <Point><coordinates>74.2143,29.2631,0</coordinates></Point>
    </Placemark>
    <Placemark><name>Fire 2019-04-04</name>
      <description>Brightness: 306.2</description>
      <styleUrl>#firepoint</styleUrl>
      <Point><coordinates>74.2954,29.6984,0</coordinates></Point>
    </Placemark>
    <Placemark><name>Fire 2019-04-18</name>
      <description>Brightness: 308.1</description>
      <styleUrl>#firepoint</styleUrl>
      <Point><coordinates>74.4879,29.5833,0</coordinates></Point>
    </Placemark>
    <Placemark><name>Fire 2019-11-13</name>
      <description>Brightness: 359.6</description>
      <styleUrl>#firepoint</styleUrl>
      <Point><coordinates>73.8816,29.7655,0</coordinates></Point>
    </Placemark>
    <Placemark><name>Fire 2020-03-29</name>
      <description>Brightness: 304</description>
      <styleUrl>#firepoint</styleUrl>
      <Point><coordinates>74.4256,29.4662,0</coordinates></Point>
    </Placemark>
    <Placemark><name>Fire 2020-04-15</name>
      <description>Brightness: 361.9</description>
      <styleUrl>#firepoint</styleUrl>
      <Point><coordinates>73.7136,30.0605,0</coordinates></Point>
    </Placemark>
    <Placemark><name>Fire 2020-05-07</name>
      <description>Brightness: 364.2</description>
      <styleUrl>#firepoint</styleUrl>
      <Point><coordinates>74.1565,29.7129,0</coordinates></Point>
    </Placemark>
    <Placemark><name>Fire 2021-04-23</name>
      <description>Brightness: 312.8</description>
      <styleUrl>#firepoint</styleUrl>
      <Point><coordinates>74.0297,30.1407,0</coordinates></Point>
    </Placemark>
    <Placemark><name>Fire 2021-05-26</name>
      <description>Brightness: 382.5</description>
      <styleUrl>#firepoint</styleUrl>
      <Point><coordinates>74.4329,29.5123,0</coordinates></Point>
    </Placemark>
    <Placemark><name>Fire 2022-01-20</name>
      <description>Brightness: 381.6</description>
      <styleUrl>#firepoint</styleUrl>
      <Point><coordinates>73.7663,29.8724,0</coordinates></Point>
    </Placemark>
    <Placemark><name>Fire 2022-04-05</name>
      <description>Brightness: 361</description>
      <styleUrl>#firepoint</styleUrl>
      <Point><coordinates>74.2789,29.6421,0</coordinates></Point>
    </Placemark>
    <Placemark><name>Fire 2022-05-13</name>
      <description>Brightness: 306.9</description>
      <styleUrl>#firepoint</styleUrl>
      <Point><coordinates>74.2483,29.7389,0</coordinates></Point>
    </Placemark>
    <Placemark><name>Fire 2023-03-10</name>
      <description>Brightness: 349.2</description>
      <styleUrl>#firepoint</styleUrl>
      <Point><coordinates>73.8316,29.87,0</coordinates></Point>
    </Placemark>
    <Placemark><name>Fire 2023-04-05</name>
      <description>Brightness: 342.3</description>
      <styleUrl>#firepoint</styleUrl>
      <Point><coordinates>74.4197,29.6838,0</coordinates></Point>
    </Placemark>
    <Placemark><name>Fire 2024-05-02</name>
      <description>Brightness: 322</description>
      <styleUrl>#firepoint</styleUrl>
      <Point><coordinates>73.7709,29.9411,0</coordinates></Point>
    </Placemark>
  </Folder>
</Document></kml>